<?xml version='1.0' encoding='utf-8'?>
<kml xmlns="http://www.opengis.net/kml/2.2">
  <Document>
    <name>Восток — геометрии по отдельности</name>
    <Style id="line-0097A7-1200-nodesc-line">
      <LineStyle>
        <color>ffa79700</color>
        <width>1</width>
      </LineStyle>
    </Style> 
    <Style id="line-0097A7-1200-nodesc-polygon">
    <!--  <LineStyle>
        <color>ffa79700</color>
        <width>1</width>
      </LineStyle> -->
      <PolyStyle>
        <color>3ca79700</color>
        <fill>1</fill>
        <outline>0</outline>
      </PolyStyle>
    </Style>
    <Folder>
      <name>Граница уверенного контроля ВС РФ в зоне ответственности ГВ Восток</name>
      <Placemark id="part-1-linestring">
        <name>Граница уверенного контроля ВС РФ в зоне ответственности ГВ Восток 2026</name>
        <styleUrl>#line-0097A7-1200-nodesc-line</styleUrl>
        <ExtendedData>
          <Data name="source_name">
            <value>Граница уверенного контроля ВС РФ в зоне ответственности ГВ Восток</value>
          </Data>
          <Data name="part_number">
            <value>1</value>
          </Data>
          <Data name="geometry_type">
            <value>LineString</value>
          </Data>
        </ExtendedData>
        <LineString>
          <tessellate>1</tessellate>
          <coordinates>
            36.840237,48.080516,0
            36.82884,48.073665,0
            36.819373,48.068405,0
            36.811335,48.064229,0
            36.804224,48.060632,0
            36.797541,48.057108,0
            36.790784,48.053151,0
            36.783454,48.048257,0
            36.775048,48.041919,0
            36.765066,48.033631,0
            36.75977,48.028896,0
            36.755607,48.024776,0
            36.752349,48.021032,0
            36.749766,48.017428,0
            36.747631,48.013727,0
            36.745714,48.009691,0
            36.743787,48.005084,0
            36.741621,47.999668,0
            36.738988,47.993207,0
            36.738408,47.990763,0
            36.738629,47.988525,0
            36.739394,47.986461,0
            36.740445,47.984538,0
            36.741527,47.982724,0
            36.742381,47.980986,0
            36.742753,47.979292,0
            36.742383,47.977609,0
            36.741017,47.975906,0
            36.733634,47.970017,0
            36.726909,47.965783,0
            36.720631,47.962716,0
            36.714591,47.960331,0
            36.708578,47.958141,0
            36.702382,47.955658,0
            36.695792,47.952396,0
            36.688598,47.947869,0
            36.68059,47.941589,0
            36.676466,47.937258,0
            36.673829,47.932937,0
            36.672239,47.928662,0
            36.671254,47.924471,0
            36.670436,47.9204,0
            36.669344,47.916486,0
            36.667538,47.912766,0
            36.664578,47.909277,0
            36.660024,47.906055,0
            36.650756,47.901948,0
            36.642006,47.899894,0
            36.633715,47.899276,0
            36.625824,47.899475,0
            36.618275,47.899873,0
            36.611009,47.899852,0
            36.603969,47.898794,0
            36.597095,47.896081,0
            36.590329,47.891094,0
            36.5871,47.886436,0
            36.586277,47.8813,0
            36.587191,47.875801,0
            36.589174,47.870059,0
            36.591557,47.86419,0
            36.59367,47.858313,0
            36.594844,47.852544,0
            36.594412,47.847003,0
            36.591703,47.841805,0
            36.587173,47.837269,0
            36.582535,47.834434,0
            36.577692,47.832894,0
            36.572545,47.832241,0
            36.566998,47.832069,0
            36.560954,47.831969,0
            36.554314,47.831537,0
            36.546983,47.830363,0
            36.538862,47.828043,0
            36.530709,47.824871,0
            36.524267,47.821851,0
            36.519039,47.818974,0
            36.514528,47.816229,0
            36.51024,47.813605,0
            36.505676,47.811092,0
            36.500341,47.808679,0
            36.493739,47.806357,0
            36.485373,47.804114,0
            36.469954,47.801043,0
            36.457206,47.799483,0
            36.446385,47.798957,0
            36.43675,47.798991,0
            36.427557,47.799108,0
            36.418066,47.798833,0
            36.407533,47.797689,0
            36.395217,47.795201,0
            36.380374,47.790894,0
            36.369318,47.786352,0
            36.360851,47.781168,0
            36.354229,47.775583,0
            36.348711,47.769834,0
            36.343553,47.764161,0
            36.338012,47.758803,0
            36.331346,47.753998,0
            36.322811,47.749986,0
            36.311665,47.747006,0
            36.294192,47.744992,0
            36.278668,47.745432,0
            36.264712,47.747595,0
            36.251948,47.750747,0
            36.239995,47.754153,0
            36.228477,47.757082,0
            36.217015,47.758799,0
            36.20523,47.758571,0
            36.192744,47.755664,0
            36.189143,47.753335,0
            36.188225,47.750005,0
            36.189346,47.745801,0
            36.191865,47.740851,0
            36.19514,47.735281,0
            36.198528,47.729218,0
            36.201388,47.722791,0
            36.203077,47.716125,0
            36.202952,47.709348,0
            36.201874,47.705568,0
            36.200285,47.702785,0
            36.198252,47.700733,0
            36.195841,47.699142,0
            36.193121,47.697744,0
            36.190156,47.69627,0
            36.187015,47.694452,0
            36.183763,47.692022,0
            36.180468,47.68871,0
            36.175855,47.683753,0
            36.171404,47.679587,0
            36.167241,47.675987,0
            36.163489,47.672729,0
            36.160274,47.66959,0
            36.157719,47.666345,0
            36.155949,47.66277,0
            36.155089,47.658642,0
            36.155263,47.653737,0
            36.157343,47.648355,0
            36.161498,47.643908,0
            36.167026,47.640182,0
            36.173225,47.636963,0
            36.179393,47.634036,0
            36.184828,47.631188,0
            36.188827,47.628204,0
            36.190688,47.62487,0
            36.189709,47.620971,0
            36.184248,47.614002,0
            36.177865,47.608863,0
            36.170586,47.605026,0
            36.162436,47.601965,0
            36.15344,47.599154,0
            36.143625,47.596065,0
            36.133016,47.592173,0
            36.121638,47.58695,0
            36.109517,47.57987,0
            36.099239,47.572556,0
            36.091324,47.565856,0
            36.085088,47.559649,0
            36.079849,47.553811,0
            36.074924,47.548221,0
            36.069627,47.542757,0
            36.063277,47.537295,0
            36.055189,47.531714,0
            36.04468,47.525892,0
            36.038757,47.523308,0
            36.033726,47.521879,0
            36.029296,47.521371,0
            36.025176,47.521548,0
            36.021075,47.522178,0
            36.016702,47.523025,0
            36.011765,47.523855,0
            36.005973,47.524434,0
            35.999036,47.524528,0
          </coordinates>
        </LineString>
      </Placemark>
      <Placemark id="part-2-polygon">
        <name>Граница уверенного контроля ВС РФ в зоне ответственности ГВ Восток — 2026</name>
        <styleUrl>#line-0097A7-1200-nodesc-polygon</styleUrl>
        <ExtendedData>
          <Data name="source_name">
            <value>Граница уверенного контроля ВС РФ в зоне ответственности ГВ Восток</value>
          </Data>
          <Data name="part_number">
            <value>2</value>
          </Data>
          <Data name="geometry_type">
            <value>Polygon</value>
          </Data>
        </ExtendedData>
        <Polygon>
          <outerBoundaryIs>
            <LinearRing>
              <tessellate>1</tessellate>
              <coordinates>
                36.840362,48.080464,0
                36.840237,48.080516,0
                36.838303,48.08257,0
                36.835337,48.088505,0
                36.835264,48.088839,0
                36.833396,48.088255,0
                36.831274,48.087211,0
                36.820072,48.080477,0
                36.810977,48.075423,0
                36.803182,48.071373,0
                36.79614,48.06781,0
                36.789245,48.064176,0
                36.788715,48.063882,0
                36.781958,48.059925,0
                36.781318,48.059524,0
                36.773987,48.054629,0
                36.773429,48.054234,0
                36.764614,48.04757,0
                36.754633,48.039282,0
                36.749043,48.034293,0
                36.744507,48.02982,0
                36.744028,48.02931,0
                36.74077,48.025566,0
                36.740266,48.024928,0
                36.737684,48.021324,0
                36.737264,48.020674,0
                36.735129,48.016973,0
                36.734859,48.016457,0
                36.732808,48.012121,0
                36.730842,48.007415,0
                36.728686,48.00202,0
                36.726063,47.995579,0
                36.725755,47.994621,0
                36.725176,47.992177,0
                36.725039,47.990168,0
                36.725261,47.98793,0
                36.725628,47.986354,0
                36.726393,47.98429,0
                36.726818,47.983361,0
                36.727869,47.981438,0
                36.728696,47.980045,0
                36.723895,47.976215,0
                36.718356,47.972727,0
                36.713281,47.970247,0
                36.708003,47.968163,0
                36.701718,47.965865,0
                36.695521,47.963382,0
                36.694439,47.962899,0
                36.687849,47.959636,0
                36.686638,47.95896,0
                36.679444,47.954432,0
                36.678431,47.95372,0
                36.670424,47.94744,0
                36.669313,47.946435,0
                36.665191,47.942104,0
                36.664082,47.94067,0
                36.661446,47.936348,0
                36.660846,47.935118,0
                36.659256,47.930843,0
                36.65902,47.930064,0
                36.658037,47.925873,0
                36.657222,47.921831,0
                36.656354,47.918719,0
                36.655242,47.916426,0
                36.653761,47.914681,0
                36.651382,47.912998,0
                36.644781,47.910072,0
                36.639027,47.908721,0
                36.633226,47.908289,0
                36.626598,47.908456,0
                36.61932,47.90884,0
                36.618218,47.908867,0
                36.610951,47.908846,0
                36.608092,47.90863,0
                36.60105,47.907571,0
                36.599065,47.907162,0
                36.597198,47.90655,0
                36.590323,47.903836,0
                36.588674,47.903068,0
                36.587215,47.902142,0
                36.580449,47.897155,0
                36.579202,47.896082,0
                36.57821,47.894895,0
                36.574981,47.890237,0
                36.574219,47.888851,0
                36.573805,47.887399,0
                36.572984,47.882263,0
                36.57299,47.880299,0
                36.573906,47.874801,0
                36.57417,47.873765,0
                36.57628,47.867688,0
                36.578613,47.861947,0
                36.580522,47.85664,0
                36.581434,47.852166,0
                36.58117,47.848762,0
                36.579661,47.845867,0
                36.576992,47.843193,0
                36.57503,47.841994,0
                36.573535,47.841519,0
                36.570992,47.841196,0
                36.566527,47.841057,0
                36.560628,47.840961,0
                36.559667,47.840921,0
                36.553027,47.840489,0
                36.551226,47.840287,0
                36.543893,47.839113,0
                36.541765,47.838643,0
                36.533643,47.836321,0
                36.53218,47.83583,0
                36.524027,47.832658,0
                36.52308,47.832253,0
                36.516637,47.829233,0
                36.515816,47.828816,0
                36.510588,47.825938,0
                36.505574,47.822901,0
                36.501519,47.820419,0
                36.497711,47.818323,0
                36.493509,47.816422,0
                36.488166,47.814542,0
                36.481003,47.812622,0
                36.46686,47.809805,0
                36.455528,47.808418,0
                36.445939,47.807952,0
                36.43691,47.807984,0
                36.427809,47.8081,0
                36.426984,47.808093,0
                36.417491,47.807818,0
                36.415943,47.807712,0
                36.405408,47.806568,0
                36.403701,47.806304,0
                36.391383,47.803816,0
                36.389938,47.803461,0
                36.375093,47.799153,0
                36.373428,47.798573,0
                36.36237,47.79403,0
                36.360346,47.793009,0
                36.351878,47.787825,0
                36.350426,47.786782,0
                36.343805,47.781196,0
                36.343027,47.780468,0
                36.33751,47.774719,0
                36.332385,47.769086,0
                36.327618,47.764475,0
                36.322566,47.760834,0
                36.316456,47.757961,0
                36.308045,47.755713,0
                36.293339,47.754017,0
                36.280456,47.754382,0
                36.268512,47.756233,0
                36.256839,47.759116,0
                36.245187,47.762437,0
                36.233182,47.765497,0
                36.231371,47.76586,0
                36.219907,47.767578,0
                36.216634,47.767788,0
                36.204847,47.76756,0
                36.202835,47.767417,0
                36.200879,47.767071,0
                36.188391,47.764164,0
                36.18579,47.763338,0
                36.183513,47.762154,0
                36.179912,47.759825,0
                36.178128,47.758404,0
                36.176816,47.756765,0
                36.176033,47.754979,0
                36.175115,47.751649,0
                36.174891,47.750031,0
                36.175102,47.748412,0
                36.176224,47.744209,0
                36.176736,47.742881,0
                36.179474,47.737535,0
                36.182708,47.732036,0
                36.185895,47.726335,0
                36.18839,47.720732,0
                36.189738,47.715416,0
                36.189644,47.710261,0
                36.189015,47.708054,0
                36.188386,47.706953,0
                36.187947,47.706509,0
                36.187116,47.70596,0
                36.185135,47.704943,0
                36.182256,47.703511,0
                36.181486,47.703098,0
                36.178345,47.70128,0
                36.177129,47.70048,0
                36.173878,47.698049,0
                36.172706,47.697036,0
                36.169191,47.693495,0
                36.164805,47.688781,0
                36.160752,47.684986,0
                36.156746,47.681521,0
                36.152978,47.678249,0
                36.152539,47.677845,0
                36.149324,47.674705,0
                36.148518,47.673812,0
                36.145964,47.670567,0
                36.145093,47.669196,0
                36.143324,47.665622,0
                36.142767,47.664023,0
                36.141908,47.659895,0
                36.141783,47.658426,0
                36.141958,47.653521,0
                36.142386,47.651464,0
                36.144467,47.646083,0
                36.145135,47.644776,0
                36.146091,47.643553,0
                36.150247,47.639107,0
                36.152103,47.63754,0
                36.157631,47.633815,0
                36.158921,47.633051,0
                36.165119,47.629832,0
                36.171492,47.626799,0
                36.175754,47.624565,0
                36.176838,47.623756,0
                36.173155,47.619055,0
                36.168583,47.615372,0
                36.163226,47.612548,0
                36.156411,47.609989,0
                36.147832,47.607308,0
                36.138016,47.604219,0
                36.137287,47.60397,0
                36.126676,47.600077,0
                36.125551,47.599614,0
                36.114173,47.594391,0
                36.112951,47.593757,0
                36.10083,47.586676,0
                36.099885,47.586067,0
                36.089607,47.578752,0
                36.088859,47.578171,0
                36.080945,47.571471,0
                36.080335,47.570912,0
                36.074101,47.564704,0
                36.073734,47.564317,0
                36.068496,47.55848,0
                36.063662,47.552994,0
                36.058837,47.548015,0
                36.05329,47.543243,0
                36.046219,47.538363,0
                36.036856,47.533175,0
                36.032548,47.531295,0
                36.030001,47.530572,0
                36.0286,47.530411,0
                36.027077,47.530477,0
                36.02437,47.530893,0
                36.019902,47.531752,0
                36.014964,47.532583,0
                36.014765,47.532609,0
                36.01225,47.531189,0
                36.008462,47.529169,0
                36.003767,47.526751,0
                36.001928,47.525824,0
                36.00038,47.525088,0
                35.999036,47.524528,0
                35.998991,47.524513,0
                36.005973,47.524434,0
                36.011765,47.523855,0
                36.016702,47.523025,0
                36.021075,47.522178,0
                36.025176,47.521548,0
                36.029296,47.521371,0
                36.033726,47.521879,0
                36.038757,47.523308,0
                36.04468,47.525892,0
                36.055189,47.531714,0
                36.063277,47.537295,0
                36.069627,47.542757,0
                36.074924,47.548221,0
                36.079849,47.553811,0
                36.085088,47.559649,0
                36.091324,47.565856,0
                36.099239,47.572556,0
                36.109517,47.57987,0
                36.121638,47.58695,0
                36.133016,47.592173,0
                36.143625,47.596065,0
                36.15344,47.599154,0
                36.162436,47.601965,0
                36.170586,47.605026,0
                36.177865,47.608863,0
                36.184248,47.614002,0
                36.189709,47.620971,0
                36.190688,47.62487,0
                36.188827,47.628204,0
                36.184828,47.631188,0
                36.179393,47.634036,0
                36.173225,47.636963,0
                36.167026,47.640182,0
                36.161498,47.643908,0
                36.157343,47.648355,0
                36.155263,47.653737,0
                36.155089,47.658642,0
                36.155949,47.66277,0
                36.157719,47.666345,0
                36.160274,47.66959,0
                36.163489,47.672729,0
                36.167241,47.675987,0
                36.171404,47.679587,0
                36.175855,47.683753,0
                36.180468,47.68871,0
                36.183763,47.692022,0
                36.187015,47.694452,0
                36.190156,47.69627,0
                36.193121,47.697744,0
                36.195841,47.699142,0
                36.198252,47.700733,0
                36.200285,47.702785,0
                36.201874,47.705568,0
                36.202952,47.709348,0
                36.203077,47.716125,0
                36.201388,47.722791,0
                36.198528,47.729218,0
                36.19514,47.735281,0
                36.191865,47.740851,0
                36.189346,47.745801,0
                36.188225,47.750005,0
                36.189143,47.753335,0
                36.192744,47.755664,0
                36.20523,47.758571,0
                36.217015,47.758799,0
                36.228477,47.757082,0
                36.239995,47.754153,0
                36.251948,47.750747,0
                36.264712,47.747595,0
                36.278668,47.745432,0
                36.294192,47.744992,0
                36.311665,47.747006,0
                36.322811,47.749986,0
                36.331346,47.753998,0
                36.338012,47.758803,0
                36.343553,47.764161,0
                36.348711,47.769834,0
                36.354229,47.775583,0
                36.360851,47.781168,0
                36.369318,47.786352,0
                36.380374,47.790894,0
                36.395217,47.795201,0
                36.407533,47.797689,0
                36.418066,47.798833,0
                36.427557,47.799108,0
                36.43675,47.798991,0
                36.446385,47.798957,0
                36.457206,47.799483,0
                36.469954,47.801043,0
                36.485373,47.804114,0
                36.493739,47.806357,0
                36.500341,47.808679,0
                36.505676,47.811092,0
                36.51024,47.813605,0
                36.514528,47.816229,0
                36.519039,47.818974,0
                36.524267,47.821851,0
                36.530709,47.824871,0
                36.538862,47.828043,0
                36.546983,47.830363,0
                36.554314,47.831537,0
                36.560954,47.831969,0
                36.566998,47.832069,0
                36.572545,47.832241,0
                36.577692,47.832894,0
                36.582535,47.834434,0
                36.587173,47.837269,0
                36.591703,47.841805,0
                36.594412,47.847003,0
                36.594844,47.852544,0
                36.59367,47.858313,0
                36.591557,47.86419,0
                36.589174,47.870059,0
                36.587191,47.875801,0
                36.586277,47.8813,0
                36.5871,47.886436,0
                36.590329,47.891094,0
                36.597095,47.896081,0
                36.603969,47.898794,0
                36.611009,47.899852,0
                36.618275,47.899873,0
                36.625824,47.899475,0
                36.633715,47.899276,0
                36.642006,47.899894,0
                36.650756,47.901948,0
                36.660024,47.906055,0
                36.664578,47.909277,0
                36.667538,47.912766,0
                36.669344,47.916486,0
                36.670436,47.9204,0
                36.671254,47.924471,0
                36.672239,47.928662,0
                36.673829,47.932937,0
                36.676466,47.937258,0
                36.68059,47.941589,0
                36.688598,47.947869,0
                36.695792,47.952396,0
                36.702382,47.955658,0
                36.708578,47.958141,0
                36.714591,47.960331,0
                36.720631,47.962716,0
                36.726909,47.965783,0
                36.733634,47.970017,0
                36.741017,47.975906,0
                36.742383,47.977609,0
                36.742753,47.979292,0
                36.742381,47.980986,0
                36.741527,47.982724,0
                36.740445,47.984538,0
                36.739394,47.986461,0
                36.738629,47.988525,0
                36.738408,47.990763,0
                36.738988,47.993207,0
                36.741621,47.999668,0
                36.743787,48.005084,0
                36.745714,48.009691,0
                36.747631,48.013727,0
                36.749766,48.017428,0
                36.752349,48.021032,0
                36.755607,48.024776,0
                36.75977,48.028896,0
                36.765066,48.033631,0
                36.775048,48.041919,0
                36.783454,48.048257,0
                36.790784,48.053151,0
                36.797541,48.057108,0
                36.804224,48.060632,0
                36.811335,48.064229,0
                36.819373,48.068405,0
                36.82884,48.073665,0
                36.840362,48.080464,0
              </coordinates>
            </LinearRing>
          </outerBoundaryIs>
        </Polygon>
      </Placemark>
    </Folder>
  </Document>
</kml>
