<?xml version="1.0" encoding="UTF-8"?>
<kml xmlns="http://www.opengis.net/kml/2.2">
  <Document>
    <name>Слой без названия</name>
    <Style id="poly-FFFFFF-180-77-nodesc-normal">
      <LineStyle>
        <color>ffffffff</color>
        <width>0.18</width>
      </LineStyle>
      <PolyStyle>
        <color>4dffffff</color>
        <fill>1</fill>
        <outline>1</outline>
      </PolyStyle>
      <BalloonStyle>
        <text><![CDATA[<h3>$[name]</h3>]]></text>
      </BalloonStyle>
    </Style>
    <Style id="poly-FFFFFF-180-77-nodesc-highlight">
      <LineStyle>
        <color>ffffffff</color>
        <width>0.27</width>
      </LineStyle>
      <PolyStyle>
        <color>4dffffff</color>
        <fill>1</fill>
        <outline>1</outline>
      </PolyStyle>
      <BalloonStyle>
        <text><![CDATA[<h3>$[name]</h3>]]></text>
      </BalloonStyle>
    </Style>
    <StyleMap id="poly-FFFFFF-180-77-nodesc">
      <Pair>
        <key>normal</key>
        <styleUrl>#poly-FFFFFF-180-77-nodesc-normal</styleUrl>
      </Pair>
      <Pair>
        <key>highlight</key>
        <styleUrl>#poly-FFFFFF-180-77-nodesc-highlight</styleUrl>
      </Pair>
    </StyleMap>
    
    <Placemark>
      <name>продвижения ВСУ за 21 - 24 августа</name>
      <description>ВСУ</description>
      <styleUrl>#poly-FFFFFF-180-77-nodesc</styleUrl>
      <MultiGeometry>
        <Polygon>
          <outerBoundaryIs>
            <LinearRing>
              <tessellate>1</tessellate>
              <coordinates>
              37.88948,48.90353,0.0 
37.888602,48.905785,0.0 
37.888794,48.908131,0.0 
37.889725,48.910528,0.0 
37.891064,48.912935,0.0 
37.892481,48.915312,0.0 
37.893645,48.91762,0.0 
37.894225,48.919817,0.0 
37.89389,48.921864,0.0 
37.89231,48.92372,0.0 
37.885079,48.928645,0.0 
37.878499,48.932136,0.0 
37.872322,48.934575,0.0 
37.866299,48.936347,0.0 
37.860179,48.937836,0.0 
37.853715,48.939425,0.0 
37.846656,48.9415,0.0 
37.838754,48.944444,0.0 
37.82976,48.94864,0.0 
37.828493,48.949405,0.0 
37.82768683227683,48.950080373549795,0.0 
37.828349,48.946472,0.0 
37.829302,48.941648,0.0 
37.83041,48.937206,0.0 
37.831853,48.933029,0.0 
37.833812,48.929,0.0 
37.836467,48.925001,0.0 
37.839998,48.920914,0.0 
37.844585,48.916623,0.0 
37.849639,48.912775,0.0 
37.854192,48.910235,0.0 
37.858451,48.908697,0.0 
37.862625,48.907858,0.0 
37.866922,48.907415,0.0 
37.871548,48.907065,0.0 
37.876711,48.906503,0.0 
37.882619,48.905426,0.0 
37.88948,48.90353,0.0 
</coordinates>
            </LinearRing>
          </outerBoundaryIs>
        </Polygon>
        <Polygon>
          <outerBoundaryIs>
            <LinearRing>
              <tessellate>1</tessellate>
              <coordinates>
              35.511481,47.562098,0.0 
35.511443,47.560818,0.0 
35.510856,47.559735,0.0 
35.509882,47.558802,0.0 
35.508685,47.55797,0.0 
35.507428,47.557193,0.0 
35.506276,47.556422,0.0 
35.505392,47.555609,0.0 
35.504938,47.554708,0.0 
35.50508,47.55367,0.0 
35.505914,47.551996,0.0 
35.506884,47.550486,0.0 
35.50801,47.549144,0.0 
35.50931,47.547974,0.0 
35.510803,47.546979,0.0 
35.512506,47.546164,0.0 
35.51444,47.545533,0.0 
35.516621,47.545091,0.0 
35.51907,47.54484,0.0 
35.51704,47.545696,0.0 
35.515712,47.546901,0.0 
35.514913,47.54842,0.0 
35.514469,47.550217,0.0 
35.514205,47.552254,0.0 
35.513948,47.554498,0.0 
35.513524,47.55691,0.0 
35.51276,47.559455,0.0 
35.511481,47.562098,0.0 
              </coordinates>
            </LinearRing>
          </outerBoundaryIs>
        </Polygon>
</MultiGeometry>
    </Placemark>
    
  </Document>
</kml>
