<?xml version="1.0" encoding="UTF-8"?>
<kml xmlns="http://www.opengis.net/kml/2.2">
  <Document>
    <name>Слой без названия</name>
    <Style id="poly-FFFFFF-180-77-nodesc-normal">
      <LineStyle>
        <color>ffffffff</color>
        <width>0.18</width>
      </LineStyle>
      <PolyStyle>
        <color>4dffffff</color>
        <fill>1</fill>
        <outline>1</outline>
      </PolyStyle>
      <BalloonStyle>
        <text><![CDATA[<h3>$[name]</h3>]]></text>
      </BalloonStyle>
    </Style>
    <Style id="poly-FFFFFF-180-77-nodesc-highlight">
      <LineStyle>
        <color>ffffffff</color>
        <width>0.27</width>
      </LineStyle>
      <PolyStyle>
        <color>4dffffff</color>
        <fill>1</fill>
        <outline>1</outline>
      </PolyStyle>
      <BalloonStyle>
        <text><![CDATA[<h3>$[name]</h3>]]></text>
      </BalloonStyle>
    </Style>
    <StyleMap id="poly-FFFFFF-180-77-nodesc">
      <Pair>
        <key>normal</key>
        <styleUrl>#poly-FFFFFF-180-77-nodesc-normal</styleUrl>
      </Pair>
      <Pair>
        <key>highlight</key>
        <styleUrl>#poly-FFFFFF-180-77-nodesc-highlight</styleUrl>
      </Pair>
    </StyleMap>
    
    <Placemark>
      <name>продвижения ВС РФ за 24 - 27 июля</name>
      <description>ВС РФ</description>
      <styleUrl>#poly-FFFFFF-180-77-nodesc</styleUrl>
      <MultiGeometry>
        <Polygon>
          <outerBoundaryIs>
            <LinearRing>
              <tessellate>1</tessellate>
              <coordinates>
              36.103808,47.620702,0.0 
36.096908,47.620801,0.0 
36.091095,47.622307,0.0 
36.086035,47.624835,0.0 
36.081392,47.627999,0.0 
36.076834,47.631412,0.0 
36.072025,47.634688,0.0 
36.066631,47.63744,0.0 
36.060318,47.639283,0.0 
36.05275,47.63983,0.0 
36.04633,47.639207,0.0 
36.041212,47.637827,0.0 
36.037026,47.635821,0.0 
36.033403,47.633323,0.0 
36.029974,47.630468,0.0 
36.026369,47.627387,0.0 
36.02222,47.624215,0.0 
36.017157,47.621085,0.0 
36.012751474859144,47.6190339007734,0.0 
36.020693,47.618394,0.0 
36.034966,47.617319,0.0 
36.050613,47.616601,0.0 
36.067436,47.616652,0.0 
36.085234,47.617882,0.0 
36.103808,47.620702,0.0 
</coordinates>
            </LinearRing>
          </outerBoundaryIs>
        </Polygon>
        <Polygon>
          <outerBoundaryIs>
            <LinearRing>
              <tessellate>1</tessellate>
              <coordinates>
              36.121793,47.829308,0.0 
36.118932,47.831627,0.0 
36.116717,47.834183,0.0 
36.114951,47.836932,0.0 
36.113436,47.839829,0.0 
36.111976,47.842831,0.0 
36.110371,47.845893,0.0 
36.108425,47.848971,0.0 
36.105941,47.852022,0.0 
36.10272,47.855,0.0 
36.101611,47.855726,0.0 
36.100575,47.856083,0.0 
36.099583,47.856122,0.0 
36.098607,47.855891,0.0 
36.097617,47.855441,0.0 
36.096583,47.85482,0.0 
36.095477,47.854078,0.0 
36.094269,47.853265,0.0 
36.09293,47.85243,0.0 
36.091179,47.851447,0.0 
36.089664,47.850648,0.0 
36.088351,47.849953,0.0 
36.087211,47.84928,0.0 
36.086209,47.848547,0.0 
36.085315,47.847675,0.0 
36.084497,47.846582,0.0 
36.083722,47.845188,0.0 
36.08296,47.84341,0.0 
36.087004,47.844258,0.0 
36.090835,47.843822,0.0 
36.094575,47.842393,0.0 
36.098342,47.840263,0.0 
36.102257,47.837725,0.0 
36.10644,47.835068,0.0 
36.11101,47.832585,0.0 
36.116088,47.830568,0.0 
36.121793,47.829308,0.0 
</coordinates>
            </LinearRing>
          </outerBoundaryIs>
        </Polygon>
        <Polygon>
          <outerBoundaryIs>
            <LinearRing>
              <tessellate>1</tessellate>
              <coordinates>
              37.18713023386398,48.401523338113755,0.0 
37.187062,48.401577,0.0 
37.186595,48.402039,0.0 
37.186352,48.402505,0.0 
37.18643,48.40298,0.0 
37.186826,48.403547,0.0 
37.187294,48.403984,0.0 
37.187836,48.404314,0.0 
37.188455,48.40456,0.0 
37.189154,48.404742,0.0 
37.189934,48.404884,0.0 
37.190798,48.405007,0.0 
37.191749,48.405133,0.0 
37.192789,48.405285,0.0 
37.193569,48.405331,0.0 
37.194328,48.405248,0.0 
37.19505,48.40508,0.0 
37.195718,48.404872,0.0 
37.196314,48.404668,0.0 
37.196823,48.40451,0.0 
37.197226,48.404444,0.0 
37.197507,48.404512,0.0 
37.19765,48.40476,0.0 
37.197516,48.40529,0.0 
37.197011,48.405888,0.0 
37.196262,48.406536,0.0 
37.195396,48.407212,0.0 
37.194539,48.407898,0.0 
37.193821,48.408572,0.0 
37.193366,48.409215,0.0 
37.193303,48.409806,0.0 
37.193758,48.410327,0.0 
37.191276,48.409636,0.0 
37.18922,48.409167,0.0 
37.187472,48.408856,0.0 
37.185916,48.408642,0.0 
37.184437,48.408464,0.0 
37.182917,48.408258,0.0 
37.18124,48.407964,0.0 
37.17929,48.407518,0.0 
37.17695,48.40686,0.0 
37.176716,48.406754,0.0 
37.176535,48.4066,0.0 
37.176407,48.406411,0.0 
37.176331,48.406196,0.0 
37.176308,48.405968,0.0 
37.17634,48.405737,0.0 
37.176425,48.405515,0.0 
37.176565,48.405312,0.0 
37.17676,48.40514,0.0 
37.178648,48.404079,0.0 
37.180668,48.403298,0.0 
37.182706,48.402713,0.0 
37.18465,48.402239,0.0 
37.186386,48.40179,0.0 
37.18713023386398,48.401523338113755,0.0 
</coordinates>
            </LinearRing>
          </outerBoundaryIs>
        </Polygon>
        <Polygon>
          <outerBoundaryIs>
            <LinearRing>
              <tessellate>1</tessellate>
              <coordinates>
              37.42236274818901,48.517196014487936,0.0 
37.422672,48.520034,0.0 
37.424128,48.527638,0.0 
37.425704,48.534561,0.0 
37.426939,48.540558,0.0 
37.427375,48.545384,0.0 
37.426552,48.548793,0.0 
37.42401,48.55054,0.0 
37.41999,48.550341,0.0 
37.41611,48.548055,0.0 
37.412186,48.544073,0.0 
37.408032,48.538786,0.0 
37.403466,48.532585,0.0 
37.398302,48.525859,0.0 
37.392357,48.519,0.0 
37.385446,48.512398,0.0 
37.377384,48.506444,0.0 
37.38391,48.508472,0.0 
37.389496,48.510775,0.0 
37.394342,48.513179,0.0 
37.39865,48.51551,0.0 
37.402619,48.517596,0.0 
37.40645,48.519263,0.0 
37.410344,48.520339,0.0 
37.414502,48.520649,0.0 
37.419124,48.520021,0.0 
37.421275,48.519,0.0 
37.422348,48.517314,0.0 
37.42236274818901,48.517196014487936,0.0 
</coordinates>
            </LinearRing>
          </outerBoundaryIs>
        </Polygon>
        <Polygon>
          <outerBoundaryIs>
            <LinearRing>
              <tessellate>1</tessellate>
              <coordinates>
              37.668563,48.536627,0.0 
37.665829,48.535927,0.0 
37.66318,48.535686,0.0 
37.660583,48.535772,0.0 
37.658007,48.536055,0.0 
37.655422,48.536404,0.0 
37.652796,48.536688,0.0 
37.650097,48.536776,0.0 
37.647296,48.536537,0.0 
37.64436,48.53584,0.0 
37.643644,48.535441,0.0 
37.643164,48.534823,0.0 
37.64291,48.534042,0.0 
37.642868,48.533157,0.0 
37.643029,48.532226,0.0 
37.643379,48.531306,0.0 
37.643907,48.530456,0.0 
37.644603,48.529732,0.0 
37.645453,48.529194,0.0 
37.645609,48.53014,0.0 
37.64688,48.530835,0.0 
37.649046,48.531374,0.0 
37.651889,48.531851,0.0 
37.655189,48.532362,0.0 
37.658725,48.533,0.0 
37.66228,48.53386,0.0 
37.665632,48.535038,0.0 
37.668563,48.536627,0.0 
</coordinates>
            </LinearRing>
          </outerBoundaryIs>
        </Polygon>
        <Polygon>
          <outerBoundaryIs>
            <LinearRing>
              <tessellate>1</tessellate>
              <coordinates>
              37.822441,48.557101,0.0 
37.822403,48.557902,0.0 
37.822001,48.558615,0.0 
37.821348,48.559251,0.0 
37.820556,48.559817,0.0 
37.81974,48.560322,0.0 
37.819013,48.560776,0.0 
37.818487,48.561188,0.0 
37.818277,48.561566,0.0 
37.818495,48.56192,0.0 
37.819661,48.562438,0.0 
37.821182,48.562665,0.0 
37.822928,48.562687,0.0 
37.824772,48.562589,0.0 
37.826584,48.562459,0.0 
37.828235,48.56238,0.0 
37.829597,48.562441,0.0 
37.83007093134855,48.56258373224071,0.0 
37.82998,48.562573,0.0 
37.829439,48.562547,0.0 
37.828854,48.562541,0.0 
37.828259,48.562548,0.0 
37.827683,48.562558,0.0 
37.821646,48.56273,0.0 
37.815823,48.563018,0.0 
37.810334,48.563371,0.0 
37.805295,48.563736,0.0 
37.800824,48.564063,0.0 
37.797038,48.5643,0.0 
37.794056,48.564394,0.0 
37.791994,48.564295,0.0 
37.79097,48.56395,0.0 
37.791448,48.56359,0.0 
37.793472,48.563308,0.0 
37.796703,48.563028,0.0 
37.800801,48.562674,0.0 
37.805428,48.562168,0.0 
37.810245,48.561434,0.0 
37.814912,48.560396,0.0 
37.81909,48.558977,0.0 
37.822441,48.557101,0.0 
</coordinates>
            </LinearRing>
          </outerBoundaryIs>
        </Polygon>
        <Polygon>
          <outerBoundaryIs>
            <LinearRing>
              <tessellate>1</tessellate>
              <coordinates>
              37.81527,48.57695,0.0 
37.813213,48.57662,0.0 
37.811413,48.576364,0.0 
37.809821,48.576155,0.0 
37.808395,48.575968,0.0 
37.807086,48.575774,0.0 
37.80585,48.575549,0.0 
37.804641,48.575266,0.0 
37.803413,48.574899,0.0 
37.80212,48.57442,0.0 
37.801899,48.574265,0.0 
37.801897,48.574083,0.0 
37.802082,48.573884,0.0 
37.802417,48.573677,0.0 
37.802871,48.573472,0.0 
37.803407,48.573279,0.0 
37.803992,48.573106,0.0 
37.804591,48.572963,0.0 
37.80517,48.57286,0.0 
37.805103,48.573243,0.0 
37.805471,48.573662,0.0 
37.806215,48.57411,0.0 
37.807277,48.574579,0.0 
37.808596,48.57506,0.0 
37.810115,48.575546,0.0 
37.811773,48.576028,0.0 
37.813511,48.576499,0.0 
37.81527,48.57695,0.0 
</coordinates>
            </LinearRing>
          </outerBoundaryIs>
        </Polygon>
        <Polygon>
          <outerBoundaryIs>
            <LinearRing>
              <tessellate>1</tessellate>
              <coordinates>
              37.82106,48.675045,0.0 
37.813865,48.678218,0.0 
37.807541,48.680431,0.0 
37.801806,48.681973,0.0 
37.796375,48.683132,0.0 
37.790967,48.684198,0.0 
37.785296,48.68546,0.0 
37.779081,48.687207,0.0 
37.772037,48.689728,0.0 
37.763881,48.693311,0.0 
37.760915,48.695023,0.0 
37.758776,48.696835,0.0 
37.757232,48.698723,0.0 
37.756051,48.700661,0.0 
37.755002,48.702624,0.0 
37.753852,48.704588,0.0 
37.752369,48.706527,0.0 
37.750323,48.708416,0.0 
37.74748,48.71023,0.0 
37.749493,48.708796,0.0 
37.750897,48.707356,0.0 
37.751845,48.705879,0.0 
37.752492,48.704335,0.0 
37.752992,48.702695,0.0 
37.753496,48.700928,0.0 
37.75416,48.699005,0.0 
37.755137,48.696896,0.0 
37.75658,48.69457,0.0 
37.757286,48.693522,0.0 
37.757852,48.692618,0.0 
37.758333,48.69184,0.0 
37.758786,48.691171,0.0 
37.759268,48.690591,0.0 
37.759835,48.690083,0.0 
37.760545,48.689629,0.0 
37.761454,48.689211,0.0 
37.762619,48.688811,0.0 
37.771297,48.686387,0.0 
37.778675,48.684686,0.0 
37.785077,48.683495,0.0 
37.790825,48.682598,0.0 
37.796243,48.681783,0.0 
37.801652,48.680834,0.0 
37.807376,48.679537,0.0 
37.813738,48.677679,0.0 
37.82106,48.675045,0.0 
</coordinates>
            </LinearRing>
          </outerBoundaryIs>
        </Polygon>
        <Polygon>
          <outerBoundaryIs>
            <LinearRing>
              <tessellate>1</tessellate>
              <coordinates>
              37.626458,50.239247,0.0 
37.626906,50.240234,0.0 
37.627139,50.241752,0.0 
37.626508,50.243686,0.0 
37.625614,50.245083,0.0 
37.62555,50.24601,0.0 
37.625629,50.247569,0.0 
37.626699,50.25454,0.0 
37.624175,50.253963,0.0 
37.62185,50.25357,0.0 
37.619721,50.253295,0.0 
37.617788,50.253071,0.0 
37.616046,50.252832,0.0 
37.614494,50.25251,0.0 
37.613129,50.252041,0.0 
37.611949,50.251356,0.0 
37.61095,50.25039,0.0 
37.610411,50.249475,0.0 
37.610266,50.248587,0.0 
37.610473,50.247716,0.0 
37.61099,50.246849,0.0 
37.611775,50.245975,0.0 
37.612785,50.245081,0.0 
37.613978,50.244156,0.0 
37.615311,50.243189,0.0 
37.616742,50.242167,0.0 
37.617799,50.24148,0.0 
37.618762,50.240994,0.0 
37.619673,50.240663,0.0 
37.620575,50.240438,0.0 
37.621512,50.240272,0.0 
37.622526,50.240117,0.0 
37.623659,50.239926,0.0 
37.624956,50.239652,0.0 
37.626458,50.239247,0.0 
              </coordinates>
            </LinearRing>
          </outerBoundaryIs>
        </Polygon>
</MultiGeometry>
    </Placemark>
    
    <Placemark>
      <name>продвижения ВСУ за 24 - 27  июля</name>
      <description>ВСУ</description>
      <styleUrl>#poly-FFFFFF-180-77-nodesc</styleUrl>
      <MultiGeometry>
        <Polygon>
          <outerBoundaryIs>
            <LinearRing>
              <tessellate>1</tessellate>
              <coordinates>
              37.68013036761157,49.45888861880431,0.0 
37.682012,49.46012,0.0 
37.685712,49.461959,0.0 
37.69044,49.46377,0.0 
37.695788,49.465251,0.0 
37.700293,49.465852,0.0 
37.70421,49.465799,0.0 
37.707794,49.465318,0.0 
37.711299,49.464636,0.0 
37.714981,49.463979,0.0 
37.719093,49.463573,0.0 
37.723891,49.463645,0.0 
37.72963,49.46442,0.0 
37.723759,49.464329,0.0 
37.71891,49.464822,0.0 
37.714797,49.465748,0.0 
37.711135,49.466959,0.0 
37.70764,49.468305,0.0 
37.704026,49.469637,0.0 
37.70001,49.470805,0.0 
37.695305,49.47166,0.0 
37.689628,49.472052,0.0 
37.688422,49.471958,0.0 
37.687512,49.471643,0.0 
37.686831,49.471131,0.0 
37.686313,49.470444,0.0 
37.68589,49.469608,0.0 
37.685496,49.468646,0.0 
37.685065,49.46758,0.0 
37.684529,49.466436,0.0 
37.683822,49.465236,0.0 
37.683567,49.464775,0.0 
37.683432,49.464363,0.0 
37.683379,49.463987,0.0 
37.683374,49.463634,0.0 
37.683379,49.463293,0.0 
37.683359,49.462952,0.0 
37.683276,49.462598,0.0 
37.683095,49.462218,0.0 
37.682779,49.461801,0.0 
37.68013036761157,49.45888861880431,0.0 
              </coordinates>
            </LinearRing>
          </outerBoundaryIs>
        </Polygon>
</MultiGeometry>
    </Placemark>
    
  </Document>
</kml>
