<?xml version="1.0" encoding="UTF-8"?>
<kml xmlns="http://www.opengis.net/kml/2.2">
  <Document>
    <name>Слой без названия</name>
    <Style id="poly-FFFFFF-180-77-nodesc-normal">
      <LineStyle>
        <color>ffffffff</color>
        <width>0.18</width>
      </LineStyle>
      <PolyStyle>
        <color>4dffffff</color>
        <fill>1</fill>
        <outline>1</outline>
      </PolyStyle>
      <BalloonStyle>
        <text><![CDATA[<h3>$[name]</h3>]]></text>
      </BalloonStyle>
    </Style>
    <Style id="poly-FFFFFF-180-77-nodesc-highlight">
      <LineStyle>
        <color>ffffffff</color>
        <width>0.27</width>
      </LineStyle>
      <PolyStyle>
        <color>4dffffff</color>
        <fill>1</fill>
        <outline>1</outline>
      </PolyStyle>
      <BalloonStyle>
        <text><![CDATA[<h3>$[name]</h3>]]></text>
      </BalloonStyle>
    </Style>
    <StyleMap id="poly-FFFFFF-180-77-nodesc">
      <Pair>
        <key>normal</key>
        <styleUrl>#poly-FFFFFF-180-77-nodesc-normal</styleUrl>
      </Pair>
      <Pair>
        <key>highlight</key>
        <styleUrl>#poly-FFFFFF-180-77-nodesc-highlight</styleUrl>
      </Pair>
    </StyleMap>
    
    <Placemark>
      <name>продвижения ВС РФ за 13 - 16 августа</name>
      <description>ВС РФ</description>
      <styleUrl>#poly-FFFFFF-180-77-nodesc</styleUrl>
      <MultiGeometry>
        <Polygon>
          <outerBoundaryIs>
            <LinearRing>
              <tessellate>1</tessellate>
              <coordinates>
              35.80749,47.51805,0.0 
35.809315,47.523782,0.0 
35.810027,47.529249,0.0 
35.809977,47.534412,0.0 
35.809515,47.539233,0.0 
35.808991,47.543675,0.0 
35.808757,47.547699,0.0 
35.809162,47.551267,0.0 
35.810556,47.55434,0.0 
35.81329,47.55688,0.0 
35.812215,47.557152,0.0 
35.811178,47.557388,0.0 
35.810198,47.557558,0.0 
35.809293,47.557631,0.0 
35.808483,47.557577,0.0 
35.807787,47.557366,0.0 
35.807223,47.556966,0.0 
35.806811,47.556348,0.0 
35.80657,47.55548,0.0 
35.806147,47.550428,0.0 
35.806365,47.546074,0.0 
35.807006,47.542216,0.0 
35.807852,47.538648,0.0 
35.808683,47.535168,0.0 
35.809281,47.531572,0.0 
35.809427,47.527656,0.0 
35.808903,47.523216,0.0 
35.80749,47.51805,0.0 
</coordinates>
            </LinearRing>
          </outerBoundaryIs>
        </Polygon>
        <Polygon>
          <outerBoundaryIs>
            <LinearRing>
              <tessellate>1</tessellate>
              <coordinates>
              37.53007,50.25243,0.0 
37.519862,50.253083,0.0 
37.510709,50.254156,0.0 
37.502482,50.255436,0.0 
37.495055,50.256706,0.0 
37.4883,50.257753,0.0 
37.482091,50.258361,0.0 
37.476301,50.258315,0.0 
37.470803,50.2574,0.0 
37.46547,50.2554,0.0 
37.462071,50.253021,0.0 
37.45975,50.249907,0.0 
37.458519,50.246268,0.0 
37.458391,50.242313,0.0 
37.459377,50.238251,0.0 
37.46149,50.234291,0.0 
37.464742,50.230641,0.0 
37.469144,50.227511,0.0 
37.47239547789503,50.22610841314661,0.0 
37.472088,50.227256,0.0 
37.473451,50.228572,0.0 
37.47616,50.230036,0.0 
37.479886,50.231639,0.0 
37.484301,50.233369,0.0 
37.489077,50.235218,0.0 
37.493886,50.237175,0.0 
37.4984,50.23923,0.0 
37.502824,50.241562,0.0 
37.506347,50.243658,0.0 
37.509258,50.245527,0.0 
37.511847,50.247176,0.0 
37.514403,50.248615,0.0 
37.517214,50.249852,0.0 
37.520569,50.250894,0.0 
37.524758,50.251751,0.0 
37.53007,50.25243,0.0 
</coordinates>
            </LinearRing>
          </outerBoundaryIs>
        </Polygon>
        <Polygon>
          <outerBoundaryIs>
            <LinearRing>
              <tessellate>1</tessellate>
              <coordinates>
              37.148447,50.309894,0.0 
37.147796,50.309446,0.0 
37.147263,50.309077,0.0 
37.146807,50.308771,0.0 
37.146387,50.308513,0.0 
37.145963,50.308289,0.0 
37.145494,50.308083,0.0 
37.144938,50.30788,0.0 
37.144256,50.307666,0.0 
37.143405,50.307424,0.0 
37.142356,50.307144,0.0 
37.141489,50.306932,0.0 
37.140747,50.306777,0.0 
37.140076,50.306668,0.0 
37.139418,50.306593,0.0 
37.138718,50.306543,0.0 
37.13792,50.306506,0.0 
37.136969,50.306472,0.0 
37.135807,50.306428,0.0 
37.132825,50.30632,0.0 
37.130413,50.306258,0.0 
37.128407,50.306232,0.0 
37.126646,50.306232,0.0 
37.124963,50.30625,0.0 
37.123197,50.306277,0.0 
37.121184,50.306302,0.0 
37.118759,50.306316,0.0 
37.11576,50.30631,0.0 
37.11169,50.306408,0.0 
37.108228,50.306692,0.0 
37.105233,50.307069,0.0 
37.102566,50.307448,0.0 
37.100086,50.307738,0.0 
37.097653,50.307846,0.0 
37.095127,50.30768,0.0 
37.092368,50.30715,0.0 
37.089235,50.306162,0.0 
37.086154,50.304649,0.0 
37.083975,50.302851,0.0 
37.082459,50.300871,0.0 
37.081367,50.298809,0.0 
37.08046,50.296766,0.0 
37.079499,50.294843,0.0 
37.078243,50.293141,0.0 
37.076455,50.291762,0.0 
37.073895,50.290806,0.0 
37.08629,50.286374,0.0 
37.097436,50.281906,0.0 
37.107499,50.277608,0.0 
37.116644,50.273684,0.0 
37.125038,50.270342,0.0 
37.132847,50.267785,0.0 
37.140236,50.266221,0.0 
37.147372,50.265854,0.0 
37.15442,50.26689,0.0 
37.158258,50.268801,0.0 
37.159479,50.271713,0.0 
37.158722,50.275504,0.0 
37.156627,50.280052,0.0 
37.153832,50.285236,0.0 
37.150976,50.290933,0.0 
37.1487,50.297023,0.0 
37.147644,50.303384,0.0 
37.148447,50.309894,0.0 
</coordinates>
            </LinearRing>
          </outerBoundaryIs>
        </Polygon>
        <Polygon>
          <outerBoundaryIs>
            <LinearRing>
              <tessellate>1</tessellate>
              <coordinates>
              36.08059,47.69689,0.0 
36.084615,47.697115,0.0 
36.087874,47.69712,0.0 
36.090587,47.696964,0.0 
36.092971,47.696707,0.0 
36.095245,47.696409,0.0 
36.097629,47.69613,0.0 
36.100342,47.69593,0.0 
36.103601,47.695867,0.0 
36.107626,47.696002,0.0 
36.111248,47.69615,0.0 
36.114239,47.69619,0.0 
36.116766,47.696199,0.0 
36.118993,47.69625,0.0 
36.121086,47.696419,0.0 
36.123211,47.69678,0.0 
36.125532,47.697409,0.0 
36.128217,47.698381,0.0 
36.13143,47.69977,0.0 
36.135548,47.701657,0.0 
36.139652,47.703574,0.0 
36.143566,47.705511,0.0 
36.147114,47.707457,0.0 
36.150121,47.709401,0.0 
36.152411,47.711333,0.0 
36.153807,47.713242,0.0 
36.154133,47.715117,0.0 
36.153214,47.716947,0.0 
36.150029,47.719809,0.0 
36.146322,47.721908,0.0 
36.142075,47.723426,0.0 
36.13727,47.724542,0.0 
36.131889,47.725437,0.0 
36.125914,47.726291,0.0 
36.119328,47.727285,0.0 
36.112113,47.728599,0.0 
36.10425,47.730414,0.0 
36.079989,47.73645,0.0 
36.057784969796224,47.74159504399156,0.0 
36.07261,47.73435,0.0 
36.077131,47.731108,0.0 
36.080751,47.727212,0.0 
36.083465,47.722846,0.0 
36.085272,47.718189,0.0 
36.086168,47.713422,0.0 
36.086151,47.708728,0.0 
36.085217,47.704287,0.0 
36.083365,47.700281,0.0 
36.08059,47.69689,0.0 
</coordinates>
            </LinearRing>
          </outerBoundaryIs>
        </Polygon>
        <Polygon>
          <outerBoundaryIs>
            <LinearRing>
              <tessellate>1</tessellate>
              <coordinates>
              36.09293,47.85243,0.0 
36.094306,47.85611,0.0 
36.095148,47.859452,0.0 
36.095602,47.862516,0.0 
36.095811,47.865361,0.0 
36.09592,47.868048,0.0 
36.096074,47.870635,0.0 
36.096417,47.873183,0.0 
36.097095,47.875751,0.0 
36.09825,47.8784,0.0 
36.09313,47.8809,0.0 
36.088131,47.88351,0.0 
36.083369,47.886064,0.0 
36.078962,47.888396,0.0 
36.075026,47.890343,0.0 
36.071678,47.891738,0.0 
36.069035,47.892416,0.0 
36.067213,47.892211,0.0 
36.06633,47.89096,0.0 
36.066625,47.888273,0.0 
36.068323,47.885203,0.0 
36.071108,47.881745,0.0 
36.074664,47.877889,0.0 
36.078674,47.873631,0.0 
36.082821,47.868963,0.0 
36.086791,47.863878,0.0 
36.090266,47.858369,0.0 
36.09293,47.85243,0.0 
</coordinates>
            </LinearRing>
          </outerBoundaryIs>
        </Polygon>
        <Polygon>
          <outerBoundaryIs>
            <LinearRing>
              <tessellate>1</tessellate>
              <coordinates>
              36.53,47.887371,0.0 
36.524386,47.88524,0.0 
36.519797,47.883253,0.0 
36.515939,47.881447,0.0 
36.512514,47.879859,0.0 
36.509226,47.878524,0.0 
36.505778,47.877481,0.0 
36.501873,47.876764,0.0 
36.497216,47.876412,0.0 
36.49151,47.87646,0.0 
36.485838,47.877029,0.0 
36.481285,47.878133,0.0 
36.477532,47.879649,0.0 
36.474262,47.881454,0.0 
36.471156,47.883424,0.0 
36.467894,47.885437,0.0 
36.464158,47.887369,0.0 
36.45963,47.889098,0.0 
36.45399,47.8905,0.0 
36.45184,47.890759,0.0 
36.450103,47.890674,0.0 
36.448658,47.890314,0.0 
36.447383,47.889751,0.0 
36.446158,47.889057,0.0 
36.44486,47.888302,0.0 
36.443368,47.887557,0.0 
36.441561,47.886893,0.0 
36.439317,47.886382,0.0 
36.430219,47.884842,0.0 
36.422868,47.883533,0.0 
36.416762,47.88242,0.0 
36.41246667836124,47.88166073001799,0.0 
36.41352,47.88183,0.0 
36.41998,47.882899,0.0 
36.426735,47.883876,0.0 
36.43441,47.88469,0.0 
36.44363,47.885271,0.0 
36.455019,47.885547,0.0 
36.458107,47.885437,0.0 
36.460565,47.885076,0.0 
36.46257,47.884505,0.0 
36.464299,47.883761,0.0 
36.46593,47.882883,0.0 
36.467638,47.88191,0.0 
36.4696,47.880881,0.0 
36.471994,47.879834,0.0 
36.474996,47.878808,0.0 
36.477428,47.878054,0.0 
36.479395,47.877398,0.0 
36.481031,47.876831,0.0 
36.482471,47.876342,0.0 
36.483851,47.87592,0.0 
36.485305,47.875554,0.0 
36.48697,47.875233,0.0 
36.48898,47.874948,0.0 
36.491471,47.874686,0.0 
36.493442,47.874509,0.0 
36.49506,47.874386,0.0 
36.496423,47.874328,0.0 
36.497629,47.874349,0.0 
36.498776,47.874462,0.0 
36.499961,47.874681,0.0 
36.501284,47.875017,0.0 
36.502841,47.875484,0.0 
36.50473,47.876095,0.0 
36.508617,47.877403,0.0 
36.51175,47.878522,0.0 
36.514336,47.879528,0.0 
36.516582,47.880495,0.0 
36.518698,47.881499,0.0 
36.52089,47.882613,0.0 
36.523366,47.883913,0.0 
36.526333,47.885474,0.0 
36.53,47.887371,0.0 
</coordinates>
            </LinearRing>
          </outerBoundaryIs>
        </Polygon>
        <Polygon>
          <outerBoundaryIs>
            <LinearRing>
              <tessellate>1</tessellate>
              <coordinates>
              36.527249,47.949558,0.0 
36.527133,47.95285,0.0 
36.527033,47.955944,0.0 
36.527036,47.958804,0.0 
36.527227,47.961398,0.0 
36.527692,47.963692,0.0 
36.528517,47.965652,0.0 
36.529788,47.967244,0.0 
36.53159,47.968435,0.0 
36.53401,47.96919,0.0 
36.529672,47.969387,0.0 
36.52553,47.969489,0.0 
36.52165,47.969462,0.0 
36.518096,47.969272,0.0 
36.514935,47.968884,0.0 
36.512233,47.968264,0.0 
36.510054,47.967378,0.0 
36.508465,47.966191,0.0 
36.50753,47.96467,0.0 
36.507637,47.963267,0.0 
36.508869,47.962112,0.0 
36.510966,47.961069,0.0 
36.513671,47.960003,0.0 
36.516724,47.958776,0.0 
36.519867,47.957255,0.0 
36.522842,47.955301,0.0 
36.525388,47.952781,0.0 
36.527249,47.949558,0.0 
</coordinates>
            </LinearRing>
          </outerBoundaryIs>
        </Polygon>
        <Polygon>
          <outerBoundaryIs>
            <LinearRing>
              <tessellate>1</tessellate>
              <coordinates>
              36.575709,47.996423,0.0 
36.579066,47.999261,0.0 
36.582755,48.001987,0.0 
36.586788,48.004506,0.0 
36.591181,48.006726,0.0 
36.595946,48.008552,0.0 
36.601098,48.009894,0.0 
36.60665,48.010656,0.0 
36.612616,48.010746,0.0 
36.619011,48.01007,0.0 
36.624497,48.008627,0.0 
36.628684,48.006461,0.0 
36.631637068767496,48.00398154514401,0.0 
36.629743,48.006766,0.0 
36.62634,48.01147,0.0 
36.622611,48.017006,0.0 
36.619907,48.022072,0.0 
36.617923,48.026722,0.0 
36.616351,48.031013,0.0 
36.614885,48.034999,0.0 
36.613218,48.038737,0.0 
36.611045,48.042281,0.0 
36.608058,48.045687,0.0 
36.60395,48.04901,0.0 
36.601488,48.050346,0.0 
36.598955,48.051043,0.0 
36.596398,48.051139,0.0 
36.593866,48.050675,0.0 
36.591407,48.049687,0.0 
36.589069,48.048215,0.0 
36.586899,48.046298,0.0 
36.584947,48.043973,0.0 
36.58326,48.04128,0.0 
36.5804,48.035724,0.0 
36.578133,48.030734,0.0 
36.576421,48.026129,0.0 
36.575226,48.021727,0.0 
36.574512,48.017348,0.0 
36.574241,48.012809,0.0 
36.574375,48.00793,0.0 
36.574877,48.002528,0.0 
36.575709,47.996423,0.0 
</coordinates>
            </LinearRing>
          </outerBoundaryIs>
        </Polygon>
        <Polygon>
          <outerBoundaryIs>
            <LinearRing>
              <tessellate>1</tessellate>
              <coordinates>
              36.7357,48.06414,0.0 
36.731742,48.062946,0.0 
36.72794,48.06199,0.0 
36.724166,48.061266,0.0 
36.720292,48.060768,0.0 
36.716192,48.060489,0.0 
36.711737,48.060425,0.0 
36.7068,48.060567,0.0 
36.701253,48.060911,0.0 
36.69497,48.06145,0.0 
36.687673,48.062577,0.0 
36.680714,48.064365,0.0 
36.674205,48.066538,0.0 
36.66826,48.068819,0.0 
36.662993,48.070932,0.0 
36.658517,48.0726,0.0 
36.654945,48.073546,0.0 
36.652392,48.073495,0.0 
36.65097,48.07217,0.0 
36.650963,48.069777,0.0 
36.65255,48.067079,0.0 
36.65545,48.064027,0.0 
36.659383,48.060573,0.0 
36.664065,48.056669,0.0 
36.669217,48.052267,0.0 
36.674556,48.047316,0.0 
36.679801,48.04177,0.0 
36.68467,48.03558,0.0 
36.685477,48.034055,0.0 
36.685748,48.032661,0.0 
36.685631,48.031359,0.0 
36.685279,48.030113,0.0 
36.684842,48.028884,0.0 
36.68447,48.027634,0.0 
36.684314,48.026325,0.0 
36.684525,48.02492,0.0 
36.685254,48.023381,0.0 
36.686739,48.025731,0.0 
36.688896,48.027366,0.0 
36.691669,48.02846,0.0 
36.695005,48.029186,0.0 
36.698846,48.029718,0.0 
36.70314,48.03023,0.0 
36.70783,48.030895,0.0 
36.712862,48.031887,0.0 
36.71818,48.03338,0.0 
36.723228,48.034842,0.0 
36.727879,48.035865,0.0 
36.732134,48.036615,0.0 
36.735994,48.037257,0.0 
36.73946,48.037954,0.0 
36.742532,48.038873,0.0 
36.74521,48.040177,0.0 
36.747496,48.042031,0.0 
36.74939,48.0446,0.0 
36.750137,48.046667,0.0 
36.750021,48.04862,0.0 
36.749167,48.050518,0.0 
36.747704,48.052423,0.0 
36.745759,48.054393,0.0 
36.743459,48.056489,0.0 
36.74093,48.058772,0.0 
36.738302,48.061303,0.0 
36.7357,48.06414,0.0 
</coordinates>
            </LinearRing>
          </outerBoundaryIs>
        </Polygon>
        <Polygon>
          <outerBoundaryIs>
            <LinearRing>
              <tessellate>1</tessellate>
              <coordinates>
              36.285397,50.303954,0.0 
36.279756,50.302034,0.0 
36.274701,50.300439,0.0 
36.270159,50.299083,0.0 
36.266059,50.297884,0.0 
36.262328,50.296757,0.0 
36.258894,50.295618,0.0 
36.255687,50.294383,0.0 
36.252632,50.292968,0.0 
36.24966,50.29129,0.0 
36.249149,50.29077,0.0 
36.249386,50.290353,0.0 
36.250254,50.290029,0.0 
36.251634,50.289788,0.0 
36.25341,50.28962,0.0 
36.255463,50.289515,0.0 
36.257675,50.289463,0.0 
36.25993,50.289455,0.0 
36.26211,50.28948,0.0 
36.267333,50.289612,0.0 
36.271555,50.289793,0.0 
36.275064,50.290019,0.0 
36.278146,50.290288,0.0 
36.281089,50.290596,0.0 
36.284177,50.29094,0.0 
36.287699,50.291317,0.0 
36.29194,50.291724,0.0 
36.297188,50.292157,0.0 
36.297155,50.292409,0.0 
36.297664,50.294276,0.0 
36.298184,50.295247,0.0 
36.298536,50.296412,0.0 
36.298944,50.297654,0.0 
36.299229,50.298354,0.0 
36.299428,50.299033,0.0 
36.299417,50.299103,0.0 
36.2994,50.299164,0.0 
36.29938,50.299282,0.0 
36.299332,50.299582,0.0 
36.299089,50.299641,0.0 
36.298606,50.29964,0.0 
36.298263,50.299647,0.0 
36.29753,50.299649,0.0 
36.296784,50.299658,0.0 
36.296281,50.299483,0.0 
36.295639,50.29914,0.0 
36.291207,50.299093,0.0 
36.290932,50.299115,0.0 
36.290573,50.299132,0.0 
36.286195,50.298626,0.0 
36.285707,50.299967,0.0 
36.285394,50.301728,0.0 
36.285252,50.301902,0.0 
36.285214,50.302367,0.0 
36.285146,50.302815,0.0 
36.285306,50.303133,0.0 
36.285397,50.303954,0.0 
              </coordinates>
            </LinearRing>
          </outerBoundaryIs>
        </Polygon>
</MultiGeometry>
    </Placemark>
    
    <Placemark>
      <name>продвижения ВСУ за 13 - 16 августа</name>
      <description>ВСУ</description>
      <styleUrl>#poly-FFFFFF-180-77-nodesc</styleUrl>
      <MultiGeometry>
        <Polygon>
          <outerBoundaryIs>
            <LinearRing>
              <tessellate>1</tessellate>
              <coordinates>
              36.295642,47.82507,0.0 
36.302743,47.821991,0.0 
36.309655,47.81985,0.0 
36.316257,47.818422,0.0 
36.322426,47.817486,0.0 
36.328042,47.816817,0.0 
36.332982,47.816192,0.0 
36.337127,47.815388,0.0 
36.340353,47.814182,0.0 
36.34254,47.81235,0.0 
36.343947,47.813318,0.0 
36.345161,47.814455,0.0 
36.34616,47.815712,0.0 
36.346921,47.817038,0.0 
36.347422,47.818383,0.0 
36.347642,47.819697,0.0 
36.347558,47.82093,0.0 
36.347148,47.822031,0.0 
36.34639,47.82295,0.0 
36.344649,47.823979,0.0 
36.34268,47.824407,0.0 
36.340539,47.824411,0.0 
36.338283,47.824171,0.0 
36.335969,47.823865,0.0 
36.333653,47.823672,0.0 
36.331391,47.823771,0.0 
36.329242,47.824341,0.0 
36.32726,47.82556,0.0 
36.326325,47.826958,0.0 
36.326102,47.828735,0.0 
36.326382,47.830745,0.0 
36.326957,47.832841,0.0 
36.327618,47.834879,0.0 
36.328157,47.836713,0.0 
36.328366,47.838197,0.0 
36.328036,47.839184,0.0 
36.32696,47.83953,0.0 
36.323411,47.83882,0.0 
36.320181,47.837048,0.0 
36.317139,47.834571,0.0 
36.314158,47.831751,0.0 
36.311107,47.828946,0.0 
36.30786,47.826516,0.0 
36.304285,47.82482,0.0 
36.300256,47.824218,0.0 
36.295642,47.82507,0.0 
              </coordinates>
            </LinearRing>
          </outerBoundaryIs>
        </Polygon>
</MultiGeometry>
    </Placemark>
    
  </Document>
</kml>
