<?xml version="1.0" encoding="UTF-8"?>
<kml xmlns="http://www.opengis.net/kml/2.2">
  <Document>
    <name>Слой без названия</name>
    <Style id="poly-FFFFFF-180-77-nodesc-normal">
      <LineStyle>
        <color>ffffffff</color>
        <width>0.18</width>
      </LineStyle>
      <PolyStyle>
        <color>4dffffff</color>
        <fill>1</fill>
        <outline>1</outline>
      </PolyStyle>
      <BalloonStyle>
        <text><![CDATA[<h3>$[name]</h3>]]></text>
      </BalloonStyle>
    </Style>
    <Style id="poly-FFFFFF-180-77-nodesc-highlight">
      <LineStyle>
        <color>ffffffff</color>
        <width>0.27</width>
      </LineStyle>
      <PolyStyle>
        <color>4dffffff</color>
        <fill>1</fill>
        <outline>1</outline>
      </PolyStyle>
      <BalloonStyle>
        <text><![CDATA[<h3>$[name]</h3>]]></text>
      </BalloonStyle>
    </Style>
    <StyleMap id="poly-FFFFFF-180-77-nodesc">
      <Pair>
        <key>normal</key>
        <styleUrl>#poly-FFFFFF-180-77-nodesc-normal</styleUrl>
      </Pair>
      <Pair>
        <key>highlight</key>
        <styleUrl>#poly-FFFFFF-180-77-nodesc-highlight</styleUrl>
      </Pair>
    </StyleMap>
    
    <Placemark>
      <name>продвижения ВС РФ за 9 - 12 августа</name>
      <description>ВС РФ</description>
      <styleUrl>#poly-FFFFFF-180-77-nodesc</styleUrl>
      <MultiGeometry>
        <Polygon>
          <outerBoundaryIs>
            <LinearRing>
              <tessellate>1</tessellate>
              <coordinates>
              37.42489154581438,48.5298955817616,0.0 
37.428184,48.53444,0.0 
37.433349,48.540214,0.0 
37.438578,48.545282,0.0 
37.443601,48.549833,0.0 
37.448148,48.554054,0.0 
37.45195,48.558133,0.0 
37.454737,48.562259,0.0 
37.45624,48.56662,0.0 
37.456007,48.568401,0.0 
37.454621,48.569193,0.0 
37.452245,48.569165,0.0 
37.449037,48.568487,0.0 
37.445157,48.567327,0.0 
37.440765,48.565856,0.0 
37.436022,48.564241,0.0 
37.431087,48.562653,0.0 
37.42612,48.56126,0.0 
37.422623,48.560517,0.0 
37.419614,48.560088,0.0 
37.416995,48.559825,0.0 
37.41467,48.559581,0.0 
37.412539,48.559209,0.0 
37.410507,48.558562,0.0 
37.408475,48.557492,0.0 
37.406345,48.555854,0.0 
37.40402,48.5535,0.0 
37.406289,48.555235,0.0 
37.408797,48.556443,0.0 
37.411436,48.557128,0.0 
37.414099,48.557297,0.0 
37.416678,48.556953,0.0 
37.419066,48.5561,0.0 
37.421156,48.554744,0.0 
37.422839,48.552889,0.0 
37.42401,48.55054,0.0 
37.42563,48.543877,0.0 
37.425964,48.537856,0.0 
37.425384,48.532262,0.0 
37.42489154581438,48.5298955817616,0.0 
</coordinates>
            </LinearRing>
          </outerBoundaryIs>
        </Polygon>
        <Polygon>
          <outerBoundaryIs>
            <LinearRing>
              <tessellate>1</tessellate>
              <coordinates>
              37.595596,49.728339,0.0 
37.594689,49.727735,0.0 
37.593846,49.72707,0.0 
37.59309,49.726365,0.0 
37.592445,49.725645,0.0 
37.591932,49.724932,0.0 
37.591575,49.724248,0.0 
37.591395,49.723618,0.0 
37.591416,49.723065,0.0 
37.59166,49.72261,0.0 
37.592202,49.722256,0.0 
37.592886,49.722165,0.0 
37.5937,49.722266,0.0 
37.594631,49.722488,0.0 
37.595665,49.722758,0.0 
37.596789,49.723005,0.0 
37.59799,49.723159,0.0 
37.599256,49.723146,0.0 
37.600573,49.722897,0.0 
37.599663,49.723692,0.0 
37.598746,49.724405,0.0 
37.597862,49.725051,0.0 
37.597054,49.725646,0.0 
37.596363,49.726202,0.0 
37.59583,49.726735,0.0 
37.595497,49.727259,0.0 
37.595405,49.727789,0.0 
37.595596,49.728339,0.0 
</coordinates>
            </LinearRing>
          </outerBoundaryIs>
        </Polygon>
        <Polygon>
          <outerBoundaryIs>
            <LinearRing>
              <tessellate>1</tessellate>
              <coordinates>
              36.09293,47.85243,0.0 
36.094269,47.853265,0.0 
36.095477,47.854078,0.0 
36.096583,47.85482,0.0 
36.097617,47.855441,0.0 
36.098607,47.855891,0.0 
36.099583,47.856122,0.0 
36.100575,47.856083,0.0 
36.101611,47.855726,0.0 
36.10272,47.855,0.0 
36.105865,47.852059,0.0 
36.108162,47.849101,0.0 
36.109863,47.846143,0.0 
36.111223,47.843201,0.0 
36.112496,47.840292,0.0 
36.113935,47.837431,0.0 
36.115795,47.834636,0.0 
36.11833,47.831923,0.0 
36.121793,47.829308,0.0 
36.118019,47.83414,0.0 
36.115366,47.838587,0.0 
36.113549,47.842821,0.0 
36.11228,47.847015,0.0 
36.111271,47.85134,0.0 
36.110235,47.855968,0.0 
36.108887,47.861073,0.0 
36.106937,47.866826,0.0 
36.1041,47.8734,0.0 
36.103509,47.87455,0.0 
36.102845,47.875683,0.0 
36.102133,47.876741,0.0 
36.101399,47.87767,0.0 
36.100666,47.878412,0.0 
36.09996,47.878913,0.0 
36.099306,47.879115,0.0 
36.098728,47.878962,0.0 
36.09825,47.8784,0.0 
36.097095,47.875751,0.0 
36.096417,47.873183,0.0 
36.096074,47.870635,0.0 
36.09592,47.868048,0.0 
36.095811,47.865361,0.0 
36.095602,47.862516,0.0 
36.095148,47.859452,0.0 
36.094306,47.85611,0.0 
36.09293,47.85243,0.0 
</coordinates>
            </LinearRing>
          </outerBoundaryIs>
        </Polygon>
        <Polygon>
          <outerBoundaryIs>
            <LinearRing>
              <tessellate>1</tessellate>
              <coordinates>
              37.108826,48.379076,0.0 
37.107325,48.376119,0.0 
37.105762,48.37375,0.0 
37.10408,48.371874,0.0 
37.102222,48.370394,0.0 
37.100132,48.369213,0.0 
37.097754,48.368235,0.0 
37.09503,48.367363,0.0 
37.091904,48.3665,0.0 
37.08832,48.36555,0.0 
37.082625,48.364109,0.0 
37.077934,48.36311,0.0 
37.073947,48.362487,0.0 
37.070365,48.362171,0.0 
37.066889,48.362093,0.0 
37.063219,48.362186,0.0 
37.059056,48.362382,0.0 
37.0541,48.362611,0.0 
37.048052,48.362806,0.0 
37.056604,48.361692,0.0 
37.06385,48.360362,0.0 
37.070098,48.358969,0.0 
37.075658,48.357667,0.0 
37.080842,48.356612,0.0 
37.085957,48.355957,0.0 
37.091316,48.355857,0.0 
37.097227,48.356467,0.0 
37.104,48.35794,0.0 
37.106363,48.358908,0.0 
37.107913,48.360285,0.0 
37.108803,48.362043,0.0 
37.109184,48.364154,0.0 
37.109211,48.366593,0.0 
37.109036,48.369332,0.0 
37.108811,48.372343,0.0 
37.10869,48.3756,0.0 
37.108826,48.379076,0.0 
</coordinates>
            </LinearRing>
          </outerBoundaryIs>
        </Polygon>
        <Polygon>
          <outerBoundaryIs>
            <LinearRing>
              <tessellate>1</tessellate>
              <coordinates>
              
              37.64456275565249,48.52977386337298,0.0 
37.643907,48.530456,0.0 
37.643379,48.531306,0.0 
37.643029,48.532226,0.0 
37.642868,48.533157,0.0 
37.64291,48.534042,0.0 
37.643164,48.534823,0.0 
37.643644,48.535441,0.0 
37.64436,48.53584,0.0 
37.647361,48.536528,0.0 
37.650326,48.536746,0.0 
37.653237,48.53663,0.0 
37.656075,48.536318,0.0 
37.658824,48.535948,0.0 
37.661465,48.535656,0.0 
37.66398,48.535581,0.0 
37.666352,48.535858,0.0 
37.668563,48.536627,0.0 
37.669199,48.537164,0.0 
37.669352,48.537859,0.0 
37.66909,48.538686,0.0 
37.668478,48.539617,0.0 
37.667583,48.540625,0.0 
37.666472,48.541684,0.0 
37.66521,48.542766,0.0 
37.663864,48.543843,0.0 
37.6625,48.54489,0.0 
37.662724,48.543617,0.0 
37.661581,48.542961,0.0 
37.659373,48.542745,0.0 
37.656399,48.542792,0.0 
37.652961,48.542923,0.0 
37.64936,48.542962,0.0 
37.645895,48.542731,0.0 
37.642868,48.542053,0.0 
37.64058,48.54075,0.0 
37.639774,48.539701,0.0 
37.63938,48.538473,0.0 
37.639365,48.537116,0.0 
37.639698,48.535683,0.0 
37.640347,48.534226,0.0 
37.641278,48.532796,0.0 
37.642461,48.531447,0.0 
37.643864,48.530229,0.0 
37.64456275565249,48.52977386337298,0.0 
</coordinates>
            </LinearRing>
          </outerBoundaryIs>
        </Polygon>
        <Polygon>
          <outerBoundaryIs>
            <LinearRing>
              <tessellate>1</tessellate>
              <coordinates>
              37.71099,48.56033,0.0 
37.711301,48.561251,0.0 
37.71202,48.561767,0.0 
37.713099,48.561956,0.0 
37.714489,48.561892,0.0 
37.716142,48.561654,0.0 
37.718008,48.561317,0.0 
37.720039,48.560957,0.0 
37.722186,48.560651,0.0 
37.7244,48.560476,0.0 
37.727308,48.560427,0.0 
37.72969,48.560486,0.0 
37.731688,48.560595,0.0 
37.733448,48.560697,0.0 
37.735112,48.560734,0.0 
37.736825,48.56065,0.0 
37.738732,48.560386,0.0 
37.740975,48.559885,0.0 
37.7437,48.55909,0.0 
37.747578,48.557684,0.0 
37.750626,48.556261,0.0 
37.753083,48.554826,0.0 
37.755185,48.553386,0.0 
37.757171,48.551948,0.0 
37.759279,48.550518,0.0 
37.761747,48.549102,0.0 
37.764811,48.547706,0.0 
37.768711,48.546337,0.0 
37.76232,48.550016,0.0 
37.757253,48.553843,0.0 
37.753154,48.557714,0.0 
37.749664,48.561521,0.0 
37.746426,48.56516,0.0 
37.743084,48.568525,0.0 
37.739278,48.571511,0.0 
37.734653,48.574011,0.0 
37.72885,48.57592,0.0 
37.725831,48.576269,0.0 
37.723011,48.575874,0.0 
37.720415,48.574829,0.0 
37.718069,48.573232,0.0 
37.715999,48.571179,0.0 
37.714231,48.568766,0.0 
37.712789,48.56609,0.0 
37.7117,48.563245,0.0 
37.71099,48.56033,0.0 
</coordinates>
            </LinearRing>
          </outerBoundaryIs>
        </Polygon>
        <Polygon>
          <outerBoundaryIs>
            <LinearRing>
              <tessellate>1</tessellate>
              <coordinates>
              37.80212,48.57442,0.0 
37.800273,48.573887,0.0 
37.79869,48.573471,0.0 
37.79732,48.57312,0.0 
37.796108,48.57278,0.0 
37.795001,48.572399,0.0 
37.793945,48.571925,0.0 
37.792887,48.571304,0.0 
37.791773,48.570483,0.0 
37.79055,48.56941,0.0 
37.790043,48.568835,0.0 
37.789655,48.568185,0.0 
37.789394,48.567489,0.0 
37.789268,48.566775,0.0 
37.789286,48.566073,0.0 
37.789456,48.565411,0.0 
37.789788,48.564817,0.0 
37.79029,48.564321,0.0 
37.79097,48.56395,0.0 
37.791994,48.564295,0.0 
37.794056,48.564394,0.0 
37.797038,48.5643,0.0 
37.800824,48.564063,0.0 
37.805295,48.563736,0.0 
37.810334,48.563371,0.0 
37.815823,48.563018,0.0 
37.821646,48.56273,0.0 
37.827683,48.562558,0.0 
37.828259,48.562548,0.0 
37.828854,48.562541,0.0 
37.829439,48.562547,0.0 
37.82998,48.562573,0.0 
37.830446,48.562628,0.0 
37.830807,48.562722,0.0 
37.831029,48.562862,0.0 
37.831083,48.563059,0.0 
37.830936,48.563319,0.0 
37.829884,48.564535,0.0 
37.828899,48.56566,0.0 
37.82793,48.566706,0.0 
37.826924,48.567683,0.0 
37.82583,48.568602,0.0 
37.824593,48.569474,0.0 
37.823163,48.57031,0.0 
37.821487,48.571121,0.0 
37.819512,48.571918,0.0 
37.81755,48.572547,0.0 
37.815907,48.572885,0.0 
37.814484,48.573001,0.0 
37.813185,48.572962,0.0 
37.811914,48.572839,0.0 
37.810574,48.572698,0.0 
37.809068,48.572609,0.0 
37.807299,48.57264,0.0 
37.80517,48.57286,0.0 
37.804591,48.572963,0.0 
37.803992,48.573106,0.0 
37.803407,48.573279,0.0 
37.802871,48.573472,0.0 
37.802417,48.573677,0.0 
37.802082,48.573884,0.0 
37.801897,48.574083,0.0 
37.801899,48.574265,0.0 
37.80212,48.57442,0.0 
</coordinates>
            </LinearRing>
          </outerBoundaryIs>
        </Polygon>
        <Polygon>
          <outerBoundaryIs>
            <LinearRing>
              <tessellate>1</tessellate>
              <coordinates>
              37.8777,48.82171,0.0 
37.872503,48.819862,0.0 
37.867589,48.818965,0.0 
37.862797,48.818758,0.0 
37.857963,48.818984,0.0 
37.852927,48.819384,0.0 
37.847524,48.819698,0.0 
37.841594,48.819668,0.0 
37.834973,48.819035,0.0 
37.8275,48.81754,0.0 
37.822692,48.816222,0.0 
37.817926,48.814708,0.0 
37.813388,48.813044,0.0 
37.809265,48.811275,0.0 
37.805741,48.809444,0.0 
37.803005,48.807597,0.0 
37.801242,48.805778,0.0 
37.800638,48.804033,0.0 
37.80138,48.802405,0.0 
37.801017,48.804017,0.0 
37.802136,48.805606,0.0 
37.804531,48.807174,0.0 
37.807997,48.80872,0.0 
37.81233,48.810247,0.0 
37.817323,48.811753,0.0 
37.822773,48.81324,0.0 
37.828473,48.814709,0.0 
37.83422,48.81616,0.0 
37.840823,48.817507,0.0 
37.846682,48.818148,0.0 
37.851925,48.818307,0.0 
37.856682,48.818208,0.0 
37.861082,48.818076,0.0 
37.865255,48.818136,0.0 
37.869329,48.818612,0.0 
37.873435,48.819728,0.0 
37.8777,48.82171,0.0 
</coordinates>
            </LinearRing>
          </outerBoundaryIs>
        </Polygon>
        <Polygon>
          <outerBoundaryIs>
            <LinearRing>
              <tessellate>1</tessellate>
              <coordinates>
              37.4984,50.23923,0.0 
37.493886,50.237175,0.0 
37.489077,50.235218,0.0 
37.484301,50.233369,0.0 
37.479886,50.231639,0.0 
37.47616,50.230036,0.0 
37.473451,50.228572,0.0 
37.472088,50.227256,0.0 
37.472398,50.226099,0.0 
37.47471,50.22511,0.0 
37.487412,50.222201,0.0 
37.499325,50.220282,0.0 
37.510899,50.219093,0.0 
37.522583,50.218376,0.0 
37.534828,50.217874,0.0 
37.54808,50.217326,0.0 
37.56279,50.216475,0.0 
37.579405,50.21506,0.0 
37.598374,50.212823,0.0 
37.582657,50.216783,0.0 
37.568581,50.219881,0.0 
37.555937,50.222378,0.0 
37.544517,50.224532,0.0 
37.534109,50.226603,0.0 
37.524504,50.22885,0.0 
37.515491,50.231531,0.0 
37.50686,50.234904,0.0 
37.4984,50.23923,0.0 
              </coordinates>
            </LinearRing>
          </outerBoundaryIs>
        </Polygon>
</MultiGeometry>
    </Placemark>
    
    <Placemark>
      <name>продвижения ВСУ за 9 - 12 августа</name>
      <description>ВСУ</description>
      <styleUrl>#poly-FFFFFF-180-77-nodesc</styleUrl>
      <MultiGeometry>
        <Polygon>
          <outerBoundaryIs>
            <LinearRing>
              <tessellate>1</tessellate>
              <coordinates>
              35.552431,47.550866,0.0 
35.543971,47.553208,0.0 
35.536509,47.555222,0.0 
35.529904,47.557101,0.0 
35.524015,47.559038,0.0 
35.5187,47.561225,0.0 
35.513816,47.563854,0.0 
35.509222,47.567117,0.0 
35.504777,47.571208,0.0 
35.500338,47.576318,0.0 
35.500512,47.574051,0.0 
35.501128,47.572298,0.0 
35.502111,47.570912,0.0 
35.503386,47.569747,0.0 
35.504876,47.568656,0.0 
35.506507,47.567492,0.0 
35.508201,47.566109,0.0 
35.509885,47.56436,0.0 
35.511481,47.562098,0.0 
35.51276,47.559455,0.0 
35.513524,47.55691,0.0 
35.513948,47.554498,0.0 
35.514205,47.552254,0.0 
35.514469,47.550217,0.0 
35.514913,47.54842,0.0 
35.515712,47.546901,0.0 
35.51704,47.545696,0.0 
35.51907,47.54484,0.0 
35.523127,47.544025,0.0 
35.526652,47.543896,0.0 
35.529837,47.544318,0.0 
35.53287,47.545156,0.0 
35.535943,47.546275,0.0 
35.539245,47.54754,0.0 
35.542967,47.548817,0.0 
35.547299,47.549971,0.0 
35.552431,47.550866,0.0 
</coordinates>
            </LinearRing>
          </outerBoundaryIs>
        </Polygon>
        <Polygon>
          <outerBoundaryIs>
            <LinearRing>
              <tessellate>1</tessellate>
              <coordinates>
              36.295642,47.82507,0.0 
36.298824,47.823315,0.0 
36.301703,47.822048,0.0 
36.304315,47.821116,0.0 
36.306698,47.820369,0.0 
36.308889,47.819654,0.0 
36.310926,47.818821,0.0 
36.312845,47.817716,0.0 
36.314684,47.81619,0.0 
36.31648,47.81409,0.0 
36.317209,47.812783,0.0 
36.317581,47.811386,0.0 
36.317616,47.809946,0.0 
36.317333,47.808508,0.0 
36.316753,47.807119,0.0 
36.315894,47.805824,0.0 
36.314778,47.804668,0.0 
36.313423,47.803698,0.0 
36.31185,47.80296,0.0 
36.317138,47.803911,0.0 
36.322417,47.804823,0.0 
36.327491,47.805723,0.0 
36.332161,47.806637,0.0 
36.33623,47.807592,0.0 
36.3395,47.808614,0.0 
36.341773,47.80973,0.0 
36.342853,47.810967,0.0 
36.34254,47.81235,0.0 
36.340353,47.814182,0.0 
36.337127,47.815388,0.0 
36.332982,47.816192,0.0 
36.328042,47.816817,0.0 
36.322426,47.817486,0.0 
36.316257,47.818422,0.0 
36.309655,47.81985,0.0 
36.302743,47.821991,0.0 
36.295642,47.82507,0.0 
</coordinates>
            </LinearRing>
          </outerBoundaryIs>
        </Polygon>
        <Polygon>
          <outerBoundaryIs>
            <LinearRing>
              <tessellate>1</tessellate>
              <coordinates>
              36.633876689948096,47.953160070823735,0.0 
36.634143,47.953774,0.0 
36.63325,47.955495,0.0 
36.631103,47.957572,0.0 
36.627921,47.959986,0.0 
36.623923,47.962718,0.0 
36.619329,47.965749,0.0 
36.614359,47.969059,0.0 
36.609233,47.972629,0.0 
36.60417,47.97644,0.0 
36.602353,47.977872,0.0 
36.600877,47.979018,0.0 
36.599643,47.979956,0.0 
36.59855,47.980764,0.0 
36.597497,47.98152,0.0 
36.596385,47.982301,0.0 
36.595111,47.983187,0.0 
36.593576,47.984254,0.0 
36.59168,47.98558,0.0 
36.593855,47.983243,0.0 
36.595423,47.98115,0.0 
36.596565,47.97924,0.0 
36.597461,47.977453,0.0 
36.598291,47.975728,0.0 
36.599236,47.974007,0.0 
36.600475,47.972227,0.0 
36.60219,47.970331,0.0 
36.604561,47.968256,0.0 
36.60902,47.965124,0.0 
36.613781,47.962393,0.0 
36.618582,47.96004,0.0 
36.623161,47.958038,0.0 
36.627255,47.956363,0.0 
36.630605,47.95499,0.0 
36.632946,47.953893,0.0 
36.633876689948096,47.953160070823735,0.0 
</coordinates>
            </LinearRing>
          </outerBoundaryIs>
        </Polygon>
        <Polygon>
          <outerBoundaryIs>
            <LinearRing>
              <tessellate>1</tessellate>
              <coordinates>
              36.705679,48.00281,0.0 
36.705788,48.000761,0.0 
36.705231,47.999137,0.0 
36.704125,47.997807,0.0 
36.702587,47.996643,0.0 
36.700731,47.995515,0.0 
36.698674,47.994293,0.0 
36.696533,47.992848,0.0 
36.694423,47.99105,0.0 
36.69246,47.98877,0.0 
36.691697,47.987384,0.0 
36.691296,47.985982,0.0 
36.691139,47.984606,0.0 
36.691107,47.983297,0.0 
36.691081,47.982098,0.0 
36.690943,47.981051,0.0 
36.690575,47.980198,0.0 
36.689856,47.97958,0.0 
36.68867,47.97924,0.0 
36.691013,47.979221,0.0 
36.692956,47.979272,0.0 
36.694599,47.979406,0.0 
36.696047,47.979637,0.0 
36.697402,47.979979,0.0 
36.698767,47.980445,0.0 
36.700245,47.98105,0.0 
36.701938,47.981807,0.0 
36.70395,47.98273,0.0 
36.704575,47.983059,0.0 
36.705054,47.983408,0.0 
36.705408,47.983787,0.0 
36.70566,47.984205,0.0 
36.70583,47.984673,0.0 
36.705941,47.9852,0.0 
36.706014,47.985797,0.0 
36.706069,47.986474,0.0 
36.70613,47.98724,0.0 
36.706407,47.989567,0.0 
36.706757,47.991541,0.0 
36.707115,47.99325,0.0 
36.707412,47.99478,0.0 
36.707584,47.996219,0.0 
36.707563,47.997654,0.0 
36.707283,47.999173,0.0 
36.706677,48.000863,0.0 
36.705679,48.00281,0.0 
</coordinates>
            </LinearRing>
          </outerBoundaryIs>
        </Polygon>
        <Polygon>
          <outerBoundaryIs>
            <LinearRing>
              <tessellate>1</tessellate>
              <coordinates>
              36.7357,48.06414,0.0 
36.73037,48.06273,0.0 
36.725188,48.061238,0.0 
36.720072,48.059824,0.0 
36.714939,48.058645,0.0 
36.709709,48.057861,0.0 
36.704299,48.05763,0.0 
36.698627,48.058112,0.0 
36.692611,48.059466,0.0 
36.68617,48.06185,0.0 
36.680992,48.064759,0.0 
36.677335,48.068077,0.0 
36.674781,48.071746,0.0 
36.67291,48.07571,0.0 
36.671304,48.079913,0.0 
36.669543,48.084297,0.0 
36.667208,48.088805,0.0 
36.66388,48.093382,0.0 
36.65914,48.09797,0.0 
36.655321,48.101016,0.0 
36.652007,48.10344,0.0 
36.649019,48.10532,0.0 
36.646176,48.106735,0.0 
36.6433,48.107764,0.0 
36.640211,48.108486,0.0 
36.636727,48.108981,0.0 
36.632671,48.109327,0.0 
36.627861,48.109603,0.0 
36.62343,48.109712,0.0 
36.619013,48.109584,0.0 
36.614763,48.109204,0.0 
36.610833,48.10856,0.0 
36.607376,48.107639,0.0 
36.604546,48.106428,0.0 
36.602495,48.104912,0.0 
36.601377,48.10308,0.0 
36.601344,48.100917,0.0 
36.603254,48.097382,0.0 
36.606838,48.094222,0.0 
36.611595,48.091323,0.0 
36.617022,48.088571,0.0 
36.622619,48.085854,0.0 
36.627883,48.083056,0.0 
36.632313,48.080066,0.0 
36.635405,48.076768,0.0 
36.63666,48.07305,0.0 
36.636173,48.070204,0.0 
36.634535,48.068049,0.0 
36.631893,48.066411,0.0 
36.628393,48.065113,0.0 
36.624183,48.063982,0.0 
36.61941,48.062843,0.0 
36.61422,48.061519,0.0 
36.608761,48.059836,0.0 
36.60318,48.05762,0.0 
36.601139,48.056717,0.0 
36.599472,48.056021,0.0 
36.598076,48.05547,0.0 
36.596845,48.055,0.0 
36.595676,48.054546,0.0 
36.594463,48.054046,0.0 
36.593102,48.053436,0.0 
36.591489,48.052652,0.0 
36.58952,48.05163,0.0 
36.588339,48.051011,0.0 
36.587139,48.050387,0.0 
36.585979,48.049772,0.0 
36.584917,48.049177,0.0 
36.584015,48.048617,0.0 
36.58333,48.048104,0.0 
36.582923,48.047651,0.0 
36.582852,48.047271,0.0 
36.583177,48.046976,0.0 
36.584363,48.046584,0.0 
36.58567,48.046408,0.0 
36.587114,48.046398,0.0 
36.588712,48.046503,0.0 
36.590479,48.046676,0.0 
36.592431,48.046867,0.0 
36.594585,48.047026,0.0 
36.596956,48.047104,0.0 
36.59956,48.047051,0.0 
36.612457,48.046427,0.0 
36.622874,48.045936,0.0 
36.631517,48.045527,0.0 
36.639094,48.045149,0.0 
36.646314,48.04475,0.0 
36.653885,48.044279,0.0 
36.662514,48.043685,0.0 
36.67291,48.042915,0.0 
36.68578,48.04192,0.0 
36.689833,48.041623,0.0 
36.693138,48.041408,0.0 
36.695899,48.041226,0.0 
36.698322,48.04103,0.0 
36.700615,48.040773,0.0 
36.702983,48.040407,0.0 
36.705633,48.039884,0.0 
36.70877,48.039158,0.0 
36.7126,48.03818,0.0 
36.713783,48.037818,0.0 
36.714978,48.037356,0.0 
36.716121,48.03682,0.0 
36.717145,48.036232,0.0 
36.717984,48.035618,0.0 
36.718574,48.035001,0.0 
36.718846,48.034406,0.0 
36.718737,48.033858,0.0 
36.71818,48.03338,0.0 
36.723228,48.034842,0.0 
36.727879,48.035865,0.0 
36.732134,48.036615,0.0 
36.735994,48.037257,0.0 
36.73946,48.037954,0.0 
36.742532,48.038873,0.0 
36.74521,48.040177,0.0 
36.747496,48.042031,0.0 
36.74939,48.0446,0.0 
36.750137,48.046667,0.0 
36.750021,48.04862,0.0 
36.749167,48.050518,0.0 
36.747704,48.052423,0.0 
36.745759,48.054393,0.0 
36.743459,48.056489,0.0 
36.74093,48.058772,0.0 
36.738302,48.061303,0.0 
36.7357,48.06414,0.0 
</coordinates>
            </LinearRing>
          </outerBoundaryIs>
        </Polygon>
        <Polygon>
          <outerBoundaryIs>
            <LinearRing>
              <tessellate>1</tessellate>
              <coordinates>
              37.286667,48.487189,0.0 
37.288834,48.486096,0.0 
37.290448,48.484747,0.0 
37.291662,48.483233,0.0 
37.292629,48.481649,0.0 
37.293502,48.480088,0.0 
37.294434,48.478642,0.0 
37.295579,48.477405,0.0 
37.29709,48.47647,0.0 
37.29912,48.47593,0.0 
37.301506,48.475759,0.0 
37.303513,48.475919,0.0 
37.305252,48.476373,0.0 
37.306838,48.477085,0.0 
37.308381,48.478018,0.0 
37.309995,48.479135,0.0 
37.311793,48.4804,0.0 
37.313887,48.481778,0.0 
37.31639,48.48323,0.0 
37.31468,48.482881,0.0 
37.313284,48.482976,0.0 
37.312107,48.483416,0.0 
37.311051,48.484104,0.0 
37.31002,48.484938,0.0 
37.308918,48.485822,0.0 
37.307649,48.486656,0.0 
37.306116,48.487341,0.0 
37.304222,48.487778,0.0 
37.301658,48.488044,0.0 
37.29957,48.488117,0.0 
37.297819,48.488043,0.0 
37.296268,48.487871,0.0 
37.294777,48.487647,0.0 
37.29321,48.487419,0.0 
37.291428,48.487235,0.0 
37.289293,48.487143,0.0 
37.286667,48.487189,0.0 
</coordinates>
            </LinearRing>
          </outerBoundaryIs>
        </Polygon>
        <Polygon>
          <outerBoundaryIs>
            <LinearRing>
              <tessellate>1</tessellate>
              <coordinates>
              35.453218,47.612394,0.0 
35.450221,47.61166,0.0 
35.447866,47.610838,0.0 
35.445973,47.609943,0.0 
35.44436,47.608991,0.0 
35.442844,47.607997,0.0 
35.441245,47.606976,0.0 
35.43938,47.605944,0.0 
35.437068,47.604917,0.0 
35.434127,47.60391,0.0 
35.429957,47.602853,0.0 
35.426455,47.602299,0.0 
35.423445,47.602077,0.0 
35.420753,47.60202,0.0 
35.418205,47.601956,0.0 
35.415625,47.601717,0.0 
35.412839,47.601133,0.0 
35.409672,47.600034,0.0 
35.40595,47.59825,0.0 
35.401934,47.595679,0.0 
35.398918,47.59297,0.0 
35.396619,47.590192,0.0 
35.394757,47.587414,0.0 
35.393049,47.584705,0.0 
35.391212,47.582135,0.0 
35.388966,47.579771,0.0 
35.386028,47.577684,0.0 
35.382115,47.575941,0.0 
35.387649,47.576717,0.0 
35.392142,47.577595,0.0 
35.395883,47.578609,0.0 
35.39916,47.579792,0.0 
35.402263,47.581178,0.0 
35.405478,47.5828,0.0 
35.409096,47.584693,0.0 
35.413404,47.586888,0.0 
35.41869,47.58942,0.0 
35.422446,47.591194,0.0 
35.425448,47.5927,0.0 
35.427902,47.594034,0.0 
35.430012,47.595294,0.0 
35.431981,47.596576,0.0 
35.434015,47.597976,0.0 
35.436319,47.599591,0.0 
35.439095,47.601516,0.0 
35.44255,47.60385,0.0 
35.444198,47.605089,0.0 
35.445439,47.606279,0.0 
35.446399,47.607411,0.0 
35.447201,47.608474,0.0 
35.447971,47.609458,0.0 
35.448833,47.610352,0.0 
35.449911,47.611146,0.0 
35.451331,47.61183,0.0 
35.453218,47.612394,0.0 
              </coordinates>
            </LinearRing>
          </outerBoundaryIs>
        </Polygon>
</MultiGeometry>
    </Placemark>
    
  </Document>
</kml>
