<?xml version="1.0" encoding="UTF-8"?>
<kml xmlns="http://www.opengis.net/kml/2.2">
  <Document>
    <name>Слой без названия</name>
    <Style id="poly-FFFFFF-180-77-nodesc-normal">
      <LineStyle>
        <color>ffffffff</color>
        <width>0.18</width>
      </LineStyle>
      <PolyStyle>
        <color>4dffffff</color>
        <fill>1</fill>
        <outline>1</outline>
      </PolyStyle>
      <BalloonStyle>
        <text><![CDATA[<h3>$[name]</h3>]]></text>
      </BalloonStyle>
    </Style>
    <Style id="poly-FFFFFF-180-77-nodesc-highlight">
      <LineStyle>
        <color>ffffffff</color>
        <width>0.27</width>
      </LineStyle>
      <PolyStyle>
        <color>4dffffff</color>
        <fill>1</fill>
        <outline>1</outline>
      </PolyStyle>
      <BalloonStyle>
        <text><![CDATA[<h3>$[name]</h3>]]></text>
      </BalloonStyle>
    </Style>
    <StyleMap id="poly-FFFFFF-180-77-nodesc">
      <Pair>
        <key>normal</key>
        <styleUrl>#poly-FFFFFF-180-77-nodesc-normal</styleUrl>
      </Pair>
      <Pair>
        <key>highlight</key>
        <styleUrl>#poly-FFFFFF-180-77-nodesc-highlight</styleUrl>
      </Pair>
    </StyleMap>
    
    <Placemark>
      <name>продвижения ВС РФ за 25 - 28 августа</name>
      <description>ВС РФ</description>
      <styleUrl>#poly-FFFFFF-180-77-nodesc</styleUrl>
      <MultiGeometry>
        <Polygon>
          <outerBoundaryIs>
            <LinearRing>
              <tessellate>1</tessellate>
              <coordinates>
              35.80987299447526,47.557584215915256,0.0 
35.808304,47.557853,0.0 
35.806078,47.558123,0.0 
35.804035,47.558257,0.0 
35.802177,47.558259,0.0 
35.800506,47.558137,0.0 
35.799026,47.557896,0.0 
35.79774,47.557542,0.0 
35.79665,47.55708,0.0 
35.796448,47.556825,0.0 
35.796819,47.556588,0.0 
35.79763,47.55633,0.0 
35.798744,47.556012,0.0 
35.800026,47.555594,0.0 
35.801342,47.555037,0.0 
35.802556,47.554301,0.0 
35.803534,47.553349,0.0 
35.80414,47.55214,0.0 
35.80555,47.5474,0.0 
35.80675997925623,47.54369673015519,0.0 
35.806365,47.546074,0.0 
35.806147,47.550428,0.0 
35.80657,47.55548,0.0 
35.806811,47.556348,0.0 
35.807223,47.556966,0.0 
35.807787,47.557366,0.0 
35.808483,47.557577,0.0 
35.809293,47.557631,0.0 
35.80987299447526,47.557584215915256,0.0 
</coordinates>
            </LinearRing>
          </outerBoundaryIs>
        </Polygon>
        <Polygon>
          <outerBoundaryIs>
            <LinearRing>
              <tessellate>1</tessellate>
              <coordinates>
              35.851469818181485,47.51748708958373,0.0 
35.851378,47.516831,0.0 
35.851153,47.513014,0.0 
35.851313,47.508559,0.0 
35.85199,47.503206,0.0 
35.852459,47.500658,0.0 
35.853004,47.498353,0.0 
35.853661,47.496295,0.0 
35.854468,47.49449,0.0 
35.855461,47.492944,0.0 
35.856679,47.491662,0.0 
35.858158,47.49065,0.0 
35.859934,47.489913,0.0 
35.862046,47.489456,0.0 
35.865367,47.489217,0.0 
35.868185,47.489449,0.0 
35.870662,47.490081,0.0 
35.872962,47.491043,0.0 
35.875248,47.492264,0.0 
35.877681,47.493674,0.0 
35.880426,47.495202,0.0 
35.883645,47.496779,0.0 
35.8875,47.498333,0.0 
35.88219,47.498722,0.0 
35.877517,47.499222,0.0 
35.873376,47.499917,0.0 
35.869664,47.500892,0.0 
35.866275,47.502232,0.0 
35.863105,47.50402,0.0 
35.860051,47.506341,0.0 
35.857007,47.50928,0.0 
35.85387,47.51292,0.0 
35.851993,47.51586,0.0 
35.851469818181485,47.51748708958373,0.0 
</coordinates>
            </LinearRing>
          </outerBoundaryIs>
        </Polygon>
        <Polygon>
          <outerBoundaryIs>
            <LinearRing>
              <tessellate>1</tessellate>
              <coordinates>
              35.91626,47.50894,0.0 
35.917418,47.510406,0.0 
35.918006,47.511878,0.0 
35.918113,47.513381,0.0 
35.917827,47.514939,0.0 
35.917236,47.516575,0.0 
35.916429,47.518316,0.0 
35.915493,47.520183,0.0 
35.914516,47.522203,0.0 
35.913588,47.524399,0.0 
35.913194,47.525056,0.0 
35.912624,47.525557,0.0 
35.911944,47.525932,0.0 
35.911223,47.52621,0.0 
35.910525,47.526419,0.0 
35.909917,47.52659,0.0 
35.909467,47.52675,0.0 
35.90924,47.52693,0.0 
35.909304,47.527159,0.0 
35.909727,47.527507,0.0 
35.910273,47.52775,0.0 
35.910938,47.527911,0.0 
35.911717,47.528013,0.0 
35.912604,47.528077,0.0 
35.913593,47.528128,0.0 
35.91468,47.528187,0.0 
35.91586,47.528278,0.0 
35.917126,47.528423,0.0 
35.91982,47.528749,0.0 
35.922019,47.528939,0.0 
35.923859,47.529044,0.0 
35.925478,47.529115,0.0 
35.927015,47.5292,0.0 
35.928606,47.529351,0.0 
35.930388,47.529618,0.0 
35.932501,47.530051,0.0 
35.93508,47.5307,0.0 
35.929281,47.530538,0.0 
35.92383,47.530922,0.0 
35.91876,47.531648,0.0 
35.914106,47.532511,0.0 
35.909903,47.533307,0.0 
35.906185,47.533831,0.0 
35.902985,47.533879,0.0 
35.900339,47.533247,0.0 
35.89828,47.53173,0.0 
35.89789,47.529953,0.0 
35.899178,47.527855,0.0 
35.90168,47.525494,0.0 
35.904934,47.522926,0.0 
35.908475,47.520207,0.0 
35.911842,47.517392,0.0 
35.91457,47.514539,0.0 
35.916197,47.511703,0.0 
35.91626,47.50894,0.0 
</coordinates>
            </LinearRing>
          </outerBoundaryIs>
        </Polygon>
        <Polygon>
          <outerBoundaryIs>
            <LinearRing>
              <tessellate>1</tessellate>
              <coordinates>
              37.645453,48.529194,0.0 
37.647097,48.527741,0.0 
37.648723,48.526793,0.0 
37.650321,48.526199,0.0 
37.651877,48.525805,0.0 
37.65338,48.525461,0.0 
37.654817,48.525013,0.0 
37.656176,48.52431,0.0 
37.657444,48.5232,0.0 
37.65861,48.52153,0.0 
37.660007,48.518897,0.0 
37.661088,48.516562,0.0 
37.661874,48.514425,0.0 
37.662383,48.51239,0.0 
37.662637,48.510358,0.0 
37.662653,48.508232,0.0 
37.662453,48.505913,0.0 
37.662056,48.503304,0.0 
37.661482,48.500307,0.0 
37.662514,48.501464,0.0 
37.663458,48.502386,0.0 
37.664321,48.503139,0.0 
37.665111,48.503792,0.0 
37.665833,48.504411,0.0 
37.666495,48.505062,0.0 
37.667103,48.505815,0.0 
37.667664,48.506734,0.0 
37.668185,48.507888,0.0 
37.668236,48.508402,0.0 
37.668026,48.508881,0.0 
37.667633,48.509323,0.0 
37.667133,48.509731,0.0 
37.666605,48.510104,0.0 
37.666124,48.510443,0.0 
37.665768,48.510749,0.0 
37.665615,48.511023,0.0 
37.665741,48.511264,0.0 
37.666275,48.511562,0.0 
37.666866,48.511699,0.0 
37.667518,48.511716,0.0 
37.668237,48.511653,0.0 
37.669026,48.511553,0.0 
37.66989,48.511456,0.0 
37.670833,48.511403,0.0 
37.67186,48.511436,0.0 
37.672976,48.511594,0.0 
37.673668,48.511733,0.0 
37.674251,48.511855,0.0 
37.674748,48.511976,0.0 
37.675182,48.512113,0.0 
37.675577,48.512281,0.0 
37.675957,48.512496,0.0 
37.676344,48.512776,0.0 
37.676763,48.513135,0.0 
37.677237,48.513591,0.0 
37.677583,48.513951,0.0 
37.677871,48.514288,0.0 
37.678101,48.514613,0.0 
37.678273,48.514936,0.0 
37.678388,48.515267,0.0 
37.678446,48.515619,0.0 
37.678447,48.516001,0.0 
37.678392,48.516425,0.0 
37.67828,48.5169,0.0 
37.678069,48.517702,0.0 
37.677885,48.518417,0.0 
37.6777,48.519056,0.0 
37.677486,48.519624,0.0 
37.677215,48.520131,0.0 
37.676858,48.520584,0.0 
37.676387,48.520992,0.0 
37.675775,48.521362,0.0 
37.674992,48.521703,0.0 
37.670751,48.523097,0.0 
37.667111,48.523952,0.0 
37.663918,48.52444,0.0 
37.661016,48.52473,0.0 
37.65825,48.524993,0.0 
37.655466,48.5254,0.0 
37.652509,48.526122,0.0 
37.649223,48.52733,0.0 
37.645453,48.529194,0.0 
</coordinates>
            </LinearRing>
          </outerBoundaryIs>
        </Polygon>
        <Polygon>
          <outerBoundaryIs>
            <LinearRing>
              <tessellate>1</tessellate>
              <coordinates>
              37.793425,48.543784,0.0 
37.796714,48.543685,0.0 
37.799473,48.543516,0.0 
37.801835,48.54334,0.0 
37.80393,48.543223,0.0 
37.805891,48.543231,0.0 
37.807849,48.543427,0.0 
37.809935,48.543878,0.0 
37.812283,48.544647,0.0 
37.815022,48.545801,0.0 
37.81686,48.546773,0.0 
37.818614,48.547949,0.0 
37.820211,48.549271,0.0 
37.821578,48.550682,0.0 
37.822644,48.552126,0.0 
37.823335,48.553547,0.0 
37.82358,48.554888,0.0 
37.823306,48.556091,0.0 
37.822441,48.557101,0.0 
37.819579,48.558846,0.0 
37.816624,48.559937,0.0 
37.813546,48.560549,0.0 
37.810318,48.560856,0.0 
37.806913,48.561034,0.0 
37.803304,48.561257,0.0 
37.799462,48.561701,0.0 
37.79536,48.56254,0.0 
37.79097,48.56395,0.0 
37.79029,48.564321,0.0 
37.789788,48.564817,0.0 
37.789456,48.565411,0.0 
37.789286,48.566073,0.0 
37.789268,48.566775,0.0 
37.789394,48.567489,0.0 
37.789655,48.568185,0.0 
37.790043,48.568835,0.0 
37.79055,48.56941,0.0 
37.789029,48.568803,0.0 
37.787535,48.568379,0.0 
37.786114,48.568068,0.0 
37.78481,48.5678,0.0 
37.783668,48.567507,0.0 
37.782733,48.567119,0.0 
37.78205,48.566567,0.0 
37.781664,48.56578,0.0 
37.78162,48.56469,0.0 
37.782396,48.561746,0.0 
37.783883,48.558934,0.0 
37.785835,48.556264,0.0 
37.788003,48.553745,0.0 
37.790141,48.551389,0.0 
37.791999,48.549204,0.0 
37.793331,48.547202,0.0 
37.793889,48.545392,0.0 
37.793425,48.543784,0.0 
</coordinates>
            </LinearRing>
          </outerBoundaryIs>
        </Polygon>
        <Polygon>
          <outerBoundaryIs>
            <LinearRing>
              <tessellate>1</tessellate>
              <coordinates>
              37.8275,48.81754,0.0 
37.834973,48.819035,0.0 
37.841594,48.819668,0.0 
37.847524,48.819698,0.0 
37.852927,48.819384,0.0 
37.857963,48.818984,0.0 
37.862797,48.818758,0.0 
37.867589,48.818965,0.0 
37.872503,48.819862,0.0 
37.873785837802814,48.82031816399069,0.0 
37.871324,48.819888,0.0 
37.868069,48.819877,0.0 
37.864653,48.820246,0.0 
37.860988,48.82083,0.0 
37.856989,48.821463,0.0 
37.852567,48.821981,0.0 
37.847637,48.822218,0.0 
37.84211,48.82201,0.0 
37.839849,48.8218,0.0 
37.838014,48.821573,0.0 
37.836492,48.821305,0.0 
37.835168,48.820973,0.0 
37.833927,48.820553,0.0 
37.832654,48.820024,0.0 
37.831235,48.81936,0.0 
37.829555,48.81854,0.0 
37.8275,48.81754,0.0 
</coordinates>
            </LinearRing>
          </outerBoundaryIs>
        </Polygon>
        <Polygon>
          <outerBoundaryIs>
            <LinearRing>
              <tessellate>1</tessellate>
              <coordinates>
              37.88948,48.90353,0.0 
37.888602,48.905785,0.0 
37.888794,48.908131,0.0 
37.889725,48.910528,0.0 
37.891064,48.912935,0.0 
37.892481,48.915312,0.0 
37.893645,48.91762,0.0 
37.894225,48.919817,0.0 
37.89389,48.921864,0.0 
37.89231,48.92372,0.0 
37.892714,48.922145,0.0 
37.890831,48.920944,0.0 
37.887253,48.920011,0.0 
37.882569,48.919241,0.0 
37.877369,48.91853,0.0 
37.872243,48.917771,0.0 
37.867781,48.91686,0.0 
37.864574,48.915691,0.0 
37.86321,48.91416,0.0 
37.863498,48.91269,0.0 
37.864734,48.911465,0.0 
37.866793,48.910411,0.0 
37.86955,48.909454,0.0 
37.872883,48.90852,0.0 
37.876666,48.907535,0.0 
37.880776,48.906424,0.0 
37.885089,48.905114,0.0 
37.88948,48.90353,0.0 
</coordinates>
            </LinearRing>
          </outerBoundaryIs>
        </Polygon>
        <Polygon>
          <outerBoundaryIs>
            <LinearRing>
              <tessellate>1</tessellate>
              <coordinates>
              34.784237,51.138731,0.0 
34.790778,51.136373,0.0 
34.795889,51.133964,0.0 
34.799978,51.131563,0.0 
34.803448,51.129232,0.0 
34.806706,51.127032,0.0 
34.810156,51.125023,0.0 
34.814203,51.123266,0.0 
34.819253,51.121821,0.0 
34.82571,51.12075,0.0 
34.83077,51.120506,0.0 
34.83501,51.120975,0.0 
34.838664,51.121982,0.0 
34.841964,51.123353,0.0 
34.845144,51.124916,0.0 
34.848437,51.126495,0.0 
34.852075,51.127919,0.0 
34.856292,51.129011,0.0 
34.86132,51.1296,0.0 
34.860176,51.13076,0.0 
34.859379,51.131751,0.0 
34.85883,51.132621,0.0 
34.858428,51.133418,0.0 
34.858073,51.134189,0.0 
34.857664,51.134982,0.0 
34.857101,51.135846,0.0 
34.856284,51.136828,0.0 
34.855112,51.137976,0.0 
34.853625,51.13943,0.0 
34.852325,51.140867,0.0 
34.851151,51.142232,0.0 
34.850045,51.143467,0.0 
34.848945,51.144518,0.0 
34.847793,51.145326,0.0 
34.846528,51.145837,0.0 
34.84509,51.145994,0.0 
34.84342,51.14574,0.0 
34.840391,51.144695,0.0 
34.838031,51.143396,0.0 
34.836145,51.141873,0.0 
34.834534,51.140154,0.0 
34.833001,51.138269,0.0 
34.831348,51.136248,0.0 
34.829378,51.13412,0.0 
34.826895,51.131915,0.0 
34.823699,51.129662,0.0 
34.823046,51.129301,0.0 
34.822434,51.129061,0.0 
34.821844,51.128928,0.0 
34.821255,51.128888,0.0 
34.820647,51.128926,0.0 
34.82,51.129029,0.0 
34.819294,51.129181,0.0 
34.81851,51.12937,0.0 
34.817626,51.12958,0.0 
34.812561,51.130749,0.0 
34.808461,51.131713,0.0 
34.805056,51.132542,0.0 
34.80208,51.13331,0.0 
34.799264,51.134087,0.0 
34.796339,51.134946,0.0 
34.793039,51.135959,0.0 
34.789094,51.137196,0.0 
34.784237,51.138731,0.0 
</coordinates>
            </LinearRing>
          </outerBoundaryIs>
        </Polygon>
        <Polygon>
          <outerBoundaryIs>
            <LinearRing>
              <tessellate>1</tessellate>
              <coordinates>
              34.75861,51.16694,0.0 
34.757894,51.163198,0.0 
34.756788,51.159948,0.0 
34.755494,51.157095,0.0 
34.754215,51.15454,0.0 
34.753152,51.152186,0.0 
34.752507,51.149937,0.0 
34.752484,51.147694,0.0 
34.753285,51.145361,0.0 
34.75511,51.14284,0.0 
34.757151,51.141212,0.0 
34.75953,51.14031,0.0 
34.76223,51.139949,0.0 
34.765235,51.139944,0.0 
34.768527,51.140107,0.0 
34.772091,51.140253,0.0 
34.775908,51.140197,0.0 
34.779962,51.139751,0.0 
34.784237,51.138731,0.0 
34.782401,51.13929,0.0 
34.78086,51.139732,0.0 
34.779552,51.140106,0.0 
34.778417,51.140461,0.0 
34.777393,51.140843,0.0 
34.77642,51.141303,0.0 
34.775437,51.141887,0.0 
34.774383,51.142644,0.0 
34.773198,51.143623,0.0 
34.771557,51.145123,0.0 
34.770341,51.146393,0.0 
34.769448,51.147509,0.0 
34.768779,51.148546,0.0 
34.768234,51.149581,0.0 
34.767713,51.150688,0.0 
34.767115,51.151943,0.0 
34.766341,51.153422,0.0 
34.765291,51.155201,0.0 
34.764163,51.156932,0.0 
34.763184,51.158326,0.0 
34.762331,51.159481,0.0 
34.761581,51.160496,0.0 
34.760913,51.161471,0.0 
34.760304,51.162504,0.0 
34.759732,51.163693,0.0 
34.759175,51.165139,0.0 
34.75861,51.16694,0.0 
</coordinates>
            </LinearRing>
          </outerBoundaryIs>
        </Polygon>
        <Polygon>
          <outerBoundaryIs>
            <LinearRing>
              <tessellate>1</tessellate>
              <coordinates>
              34.379232,51.270572,0.0 
34.381181,51.269843,0.0 
34.382776,51.26927,0.0 
34.384116,51.268806,0.0 
34.385295,51.268403,0.0 
34.386411,51.268013,0.0 
34.387561,51.267589,0.0 
34.38884,51.267082,0.0 
34.390346,51.266445,0.0 
34.392175,51.26563,0.0 
34.392697,51.265338,0.0 
34.393058,51.265032,0.0 
34.393305,51.264723,0.0 
34.393486,51.264421,0.0 
34.393649,51.264135,0.0 
34.393842,51.263876,0.0 
34.394114,51.263654,0.0 
34.394512,51.26348,0.0 
34.395084,51.263362,0.0 
34.39635,51.263252,0.0 
34.397417,51.263255,0.0 
34.398347,51.263343,0.0 
34.399202,51.263486,0.0 
34.400045,51.263658,0.0 
34.400939,51.26383,0.0 
34.401946,51.263973,0.0 
34.403129,51.264059,0.0 
34.40455,51.26406,0.0 
34.40582,51.264,0.0 
34.406841,51.263916,0.0 
34.407685,51.263808,0.0 
34.408421,51.263678,0.0 
34.40912,51.263529,0.0 
34.409853,51.263363,0.0 
34.410689,51.26318,0.0 
34.4117,51.262984,0.0 
34.412955,51.262775,0.0 
34.414286,51.264992,0.0 
34.41171,51.265953,0.0 
34.410511,51.266921,0.0 
34.409217,51.267179,0.0 
34.408602,51.267427,0.0 
34.407809,51.267899,0.0 
34.406988,51.267972,0.0 
34.4064,51.268074,0.0 
34.405687,51.268312,0.0 
34.405134,51.268567,0.0 
34.404639,51.268851,0.0 
34.403608,51.269066,0.0 
34.403154,51.269273,0.0 
34.402919,51.26943,0.0 
34.401625,51.270039,0.0 
34.400688,51.270393,0.0 
34.400185,51.270509,0.0 
34.400117,51.270785,0.0 
34.399265,51.270702,0.0 
34.398385,51.270539,0.0 
34.397408,51.270598,0.0 
34.396706,51.270704,0.0 
34.396264,51.270859,0.0 
34.395866,51.271047,0.0 
34.395468,51.271273,0.0 
34.394536,51.271997,0.0 
34.393228,51.272283,0.0 
34.391749,51.272525,0.0 
34.387304,51.273243,0.0 
34.38418,51.273769,0.0 
34.383054,51.273363,0.0 
34.381924,51.272661,0.0 
34.380578,51.27173,0.0 
34.379232,51.270572,0.0 
              </coordinates>
            </LinearRing>
          </outerBoundaryIs>
        </Polygon>
</MultiGeometry>
    </Placemark>
    
    <Placemark>
      <name>продвижения ВСУ за 25 - 28 августа</name>
      <description>ВСУ</description>
      <styleUrl>#poly-FFFFFF-180-77-nodesc</styleUrl>
      <MultiGeometry>
        <Polygon>
          <outerBoundaryIs>
            <LinearRing>
              <tessellate>1</tessellate>
              <coordinates>
              36.63356,47.95243,0.0 
36.642097,47.954314,0.0 
36.648877,47.956509,0.0 
36.654394,47.958998,0.0 
36.659143,47.961766,0.0 
36.663618,47.964798,0.0 
36.668313,47.968076,0.0 
36.673724,47.971587,0.0 
36.680345,47.975313,0.0 
36.68867,47.97924,0.0 
36.683262,47.979225,0.0 
36.678734,47.979041,0.0 
36.674862,47.978815,0.0 
36.671424,47.978674,0.0 
36.668197,47.978745,0.0 
36.664959,47.979156,0.0 
36.661487,47.980034,0.0 
36.657558,47.981506,0.0 
36.65295,47.9837,0.0 
36.648175,47.986341,0.0 
36.644421,47.9888,0.0 
36.641445,47.991203,0.0 
36.639004,47.993674,0.0 
36.636856,47.99634,0.0 
36.634758,47.999327,0.0 
36.632468,48.00276,0.0 
36.629743,48.006766,0.0 
36.62634,48.01147,0.0 
36.622611,48.017006,0.0 
36.619907,48.022072,0.0 
36.617923,48.026722,0.0 
36.616351,48.031013,0.0 
36.614885,48.034999,0.0 
36.613218,48.038737,0.0 
36.611045,48.042281,0.0 
36.608058,48.045687,0.0 
36.60395,48.04901,0.0 
36.601488,48.050346,0.0 
36.598955,48.051043,0.0 
36.596398,48.051139,0.0 
36.593866,48.050675,0.0 
36.591407,48.049687,0.0 
36.589069,48.048215,0.0 
36.586899,48.046298,0.0 
36.584947,48.043973,0.0 
36.58326,48.04128,0.0 
36.5804,48.035724,0.0 
36.578133,48.030734,0.0 
36.576421,48.026129,0.0 
36.575226,48.021727,0.0 
36.574512,48.017348,0.0 
36.574241,48.012809,0.0 
36.574375,48.00793,0.0 
36.574877,48.002528,0.0 
36.575709,47.996423,0.0 
36.576327,47.994048,0.0 
36.57732,47.992347,0.0 
36.578652,47.991156,0.0 
36.580285,47.990312,0.0 
36.582183,47.989652,0.0 
36.584308,47.989012,0.0 
36.586624,47.988229,0.0 
36.589093,47.987139,0.0 
36.59168,47.98558,0.0 
36.593576,47.984254,0.0 
36.595111,47.983187,0.0 
36.596385,47.982301,0.0 
36.597497,47.98152,0.0 
36.59855,47.980764,0.0 
36.599643,47.979956,0.0 
36.600877,47.979018,0.0 
36.602353,47.977872,0.0 
36.60417,47.97644,0.0 
36.609233,47.972629,0.0 
36.614359,47.969059,0.0 
36.619329,47.965749,0.0 
36.623923,47.962718,0.0 
36.627921,47.959986,0.0 
36.631103,47.957572,0.0 
36.63325,47.955495,0.0 
36.634143,47.953774,0.0 
36.63356,47.95243,0.0 
              </coordinates>
            </LinearRing>
          </outerBoundaryIs>
        </Polygon>
</MultiGeometry>
    </Placemark>
    
  </Document>
</kml>
