<?xml version="1.0" encoding="UTF-8"?>
<kml xmlns="http://www.opengis.net/kml/2.2">
  <Document>
    <name>Слой без названия</name>
    <Style id="poly-FFFFFF-180-77-nodesc-normal">
      <LineStyle>
        <color>ffffffff</color>
        <width>0.18</width>
      </LineStyle>
      <PolyStyle>
        <color>4dffffff</color>
        <fill>1</fill>
        <outline>1</outline>
      </PolyStyle>
      <BalloonStyle>
        <text><![CDATA[<h3>$[name]</h3>]]></text>
      </BalloonStyle>
    </Style>
    <Style id="poly-FFFFFF-180-77-nodesc-highlight">
      <LineStyle>
        <color>ffffffff</color>
        <width>0.27</width>
      </LineStyle>
      <PolyStyle>
        <color>4dffffff</color>
        <fill>1</fill>
        <outline>1</outline>
      </PolyStyle>
      <BalloonStyle>
        <text><![CDATA[<h3>$[name]</h3>]]></text>
      </BalloonStyle>
    </Style>
    <StyleMap id="poly-FFFFFF-180-77-nodesc">
      <Pair>
        <key>normal</key>
        <styleUrl>#poly-FFFFFF-180-77-nodesc-normal</styleUrl>
      </Pair>
      <Pair>
        <key>highlight</key>
        <styleUrl>#poly-FFFFFF-180-77-nodesc-highlight</styleUrl>
      </Pair>
    </StyleMap>
    
    <Placemark>
      <name>продвижения ВС РФ за 17 - 20 августа</name>
      <description>ВС РФ</description>
      <styleUrl>#poly-FFFFFF-180-77-nodesc</styleUrl>
      <MultiGeometry>
        <Polygon>
          <outerBoundaryIs>
            <LinearRing>
              <tessellate>1</tessellate>
              <coordinates>
              36.052214714241295,47.74381197080736,0.0 
36.038704,47.748697,0.0 
36.020996,47.753584,0.0 
36.003904,47.757305,0.0 
35.988269,47.760129,0.0 
35.974932,47.762324,0.0 
35.964733,47.764158,0.0 
35.958512,47.765901,0.0 
35.95711,47.76782,0.0 
35.951611,47.767263,0.0 
35.947082,47.766347,0.0 
35.943303,47.765081,0.0 
35.940053,47.763471,0.0 
35.937113,47.761524,0.0 
35.934261,47.759247,0.0 
35.931279,47.756648,0.0 
35.927945,47.753733,0.0 
35.92404,47.75051,0.0 
35.923349,47.749751,0.0 
35.922942,47.748842,0.0 
35.922801,47.747847,0.0 
35.922906,47.746828,0.0 
35.923239,47.745849,0.0 
35.923783,47.744973,0.0 
35.924518,47.744262,0.0 
35.925427,47.74378,0.0 
35.92649,47.74359,0.0 
35.935351,47.743688,0.0 
35.942674,47.744279,0.0 
35.948921,47.745209,0.0 
35.954551,47.74632,0.0 
35.960023,47.747458,0.0 
35.965799,47.748468,0.0 
35.972337,47.749192,0.0 
35.980098,47.749477,0.0 
35.989542,47.749167,0.0 
36.002354,47.748555,0.0 
36.013253,47.748304,0.0 
36.022673,47.748147,0.0 
36.031053,47.747821,0.0 
36.038828,47.747058,0.0 
36.046434,47.745595,0.0 
36.052214714241295,47.74381197080736,0.0 
</coordinates>
            </LinearRing>
          </outerBoundaryIs>
        </Polygon>
        <Polygon>
          <outerBoundaryIs>
            <LinearRing>
              <tessellate>1</tessellate>
              <coordinates>
              37.1097571679597,48.39897939496123,0.0 
37.109329,48.397489,0.0 
37.108457,48.39531,0.0 
37.107349,48.392943,0.0 
37.106038,48.390287,0.0 
37.10456,48.38724,0.0 
37.102888,48.383511,0.0 
37.101538,48.38025,0.0 
37.100359,48.377398,0.0 
37.099197,48.374894,0.0 
37.097901,48.372681,0.0 
37.096318,48.3707,0.0 
37.094295,48.36889,0.0 
37.09168,48.367193,0.0 
37.08832,48.36555,0.0 
37.091904,48.3665,0.0 
37.09503,48.367363,0.0 
37.097754,48.368235,0.0 
37.100132,48.369213,0.0 
37.102222,48.370394,0.0 
37.10408,48.371874,0.0 
37.105762,48.37375,0.0 
37.107325,48.376119,0.0 
37.108826,48.379076,0.0 
37.110314,48.382932,0.0 
37.111089,48.386271,0.0 
37.111294,48.389271,0.0 
37.111072,48.392115,0.0 
37.110569,48.394983,0.0 
37.109927,48.398056,0.0 
37.1097571679597,48.39897939496123,0.0 
</coordinates>
            </LinearRing>
          </outerBoundaryIs>
        </Polygon>
        <Polygon>
          <outerBoundaryIs>
            <LinearRing>
              <tessellate>1</tessellate>
              <coordinates>
              37.120728257447155,48.4233901333629,0.0 
37.120659,48.423425,0.0 
37.116358,48.424767,0.0 
37.112079,48.425431,0.0 
37.107925,48.425518,0.0 
37.103998,48.425131,0.0 
37.100402,48.424373,0.0 
37.097238,48.423347,0.0 
37.09461,48.422155,0.0 
37.09262,48.4209,0.0 
37.092279,48.420141,0.0 
37.093116,48.419386,0.0 
37.094857,48.418574,0.0 
37.097228,48.417644,0.0 
37.099954,48.416536,0.0 
37.102761,48.415188,0.0 
37.105376,48.41354,0.0 
37.107524,48.411531,0.0 
37.1086387164454,48.40960363465238,0.0 
37.10861,48.41031,0.0 
37.108521,48.41177,0.0 
37.108298,48.413094,0.0 
37.108012,48.414292,0.0 
37.10773,48.415377,0.0 
37.107524,48.416361,0.0 
37.107462,48.417253,0.0 
37.107612,48.418066,0.0 
37.108045,48.418811,0.0 
37.10883,48.4195,0.0 
37.110556,48.420635,0.0 
37.112281,48.421666,0.0 
37.114011,48.422539,0.0 
37.115755,48.423197,0.0 
37.117516,48.423584,0.0 
37.119303,48.423644,0.0 
37.120728257447155,48.4233901333629,0.0 
</coordinates>
            </LinearRing>
          </outerBoundaryIs>
        </Polygon>
        <Polygon>
          <outerBoundaryIs>
            <LinearRing>
              <tessellate>1</tessellate>
              <coordinates>
              37.42612,48.56126,0.0 
37.418208,48.561566,0.0 
37.411792,48.562225,0.0 
37.406448,48.563126,0.0 
37.401753,48.564161,0.0 
37.397281,48.56522,0.0 
37.392608,48.566193,0.0 
37.38731,48.56697,0.0 
37.380962,48.567442,0.0 
37.37314,48.5675,0.0 
37.369178,48.567454,0.0 
37.365329,48.567424,0.0 
37.361694,48.567313,0.0 
37.358373,48.567027,0.0 
37.355467,48.566471,0.0 
37.353077,48.565548,0.0 
37.351303,48.564164,0.0 
37.350248,48.562223,0.0 
37.35001,48.55963,0.0 
37.351393,48.552725,0.0 
37.35424,48.546372,0.0 
37.3581,48.540442,0.0 
37.362524,48.534805,0.0 
37.367063,48.529329,0.0 
37.371268,48.523886,0.0 
37.37469,48.518344,0.0 
37.376878,48.512573,0.0 
37.377384,48.506444,0.0 
37.382558,48.511762,0.0 
37.386167,48.516814,0.0 
37.388646,48.521707,0.0 
37.390426,48.526542,0.0 
37.391941,48.531424,0.0 
37.393625,48.536457,0.0 
37.39591,48.541745,0.0 
37.399231,48.547391,0.0 
37.40402,48.5535,0.0 
37.406345,48.555854,0.0 
37.408475,48.557492,0.0 
37.410507,48.558562,0.0 
37.412539,48.559209,0.0 
37.41467,48.559581,0.0 
37.416995,48.559825,0.0 
37.419614,48.560088,0.0 
37.422623,48.560517,0.0 
37.42612,48.56126,0.0 
</coordinates>
            </LinearRing>
          </outerBoundaryIs>
        </Polygon>
        <Polygon>
          <outerBoundaryIs>
            <LinearRing>
              <tessellate>1</tessellate>
              <coordinates>
              37.522977,48.479058,0.0 
37.528012,48.478238,0.0 
37.531983,48.476984,0.0 
37.535196,48.475376,0.0 
37.537953,48.473495,0.0 
37.54056,48.471422,0.0 
37.543319,48.469238,0.0 
37.546535,48.467023,0.0 
37.550513,48.464859,0.0 
37.555555,48.462827,0.0 
37.559619,48.461485,0.0 
37.56295,48.460493,0.0 
37.565768,48.459791,0.0 
37.568288,48.459316,0.0 
37.570729,48.459007,0.0 
37.573308,48.458802,0.0 
37.576242,48.458638,0.0 
37.57975,48.458454,0.0 
37.584048,48.458189,0.0 
37.586776,48.457916,0.0 
37.589184,48.457551,0.0 
37.591328,48.457181,0.0 
37.593258,48.456893,0.0 
37.595029,48.456771,0.0 
37.596694,48.456901,0.0 
37.598305,48.457371,0.0 
37.599916,48.458265,0.0 
37.60158,48.45967,0.0 
37.603529,48.461755,0.0 
37.605098,48.463802,0.0 
37.606308,48.465857,0.0 
37.60718,48.467969,0.0 
37.607733,48.470185,0.0 
37.607988,48.472553,0.0 
37.607966,48.475121,0.0 
37.607686,48.477936,0.0 
37.607169,48.481047,0.0 
37.606121,48.48418,0.0 
37.604424,48.486887,0.0 
37.602312,48.489236,0.0 
37.600016,48.491292,0.0 
37.59777,48.493123,0.0 
37.595806,48.494795,0.0 
37.594356,48.496374,0.0 
37.593653,48.497927,0.0 
37.59393,48.49952,0.0 
37.588855,48.502208,0.0 
37.584926,48.504895,0.0 
37.581828,48.507615,0.0 
37.579248,48.510404,0.0 
37.576871,48.513297,0.0 
37.574383,48.516327,0.0 
37.571469,48.519529,0.0 
37.567817,48.522939,0.0 
37.56311,48.52659,0.0 
37.562358,48.527061,0.0 
37.561649,48.527376,0.0 
37.560974,48.527539,0.0 
37.560327,48.527554,0.0 
37.5597,48.527424,0.0 
37.559087,48.527152,0.0 
37.558478,48.526741,0.0 
37.557869,48.526196,0.0 
37.55725,48.52552,0.0 
37.551992,48.518802,0.0 
37.548066,48.51289,0.0 
37.545057,48.507606,0.0 
37.54255,48.502771,0.0 
37.540128,48.498205,0.0 
37.537375,48.493729,0.0 
37.533876,48.489166,0.0 
37.529216,48.484335,0.0 
37.522977,48.479058,0.0 
</coordinates>
            </LinearRing>
          </outerBoundaryIs>
        </Polygon>
        <Polygon>
          <outerBoundaryIs>
            <LinearRing>
              <tessellate>1</tessellate>
              <coordinates>
              37.058253,50.298887,0.0 
37.064067,50.291716,0.0 
37.068312,50.285318,0.0 
37.071475,50.279562,0.0 
37.074045,50.274316,0.0 
37.076507,50.269448,0.0 
37.07935,50.264826,0.0 
37.083058,50.260319,0.0 
37.08812,50.255794,0.0 
37.09502,50.25112,0.0 
37.097989,50.249796,0.0 
37.100792,50.249418,0.0 
37.103535,50.249816,0.0 
37.106325,50.250822,0.0 
37.109269,50.252264,0.0 
37.112473,50.253973,0.0 
37.116044,50.25578,0.0 
37.120088,50.257514,0.0 
37.124712,50.259006,0.0 
37.129516,50.260044,0.0 
37.134009,50.260644,0.0 
37.138163,50.260976,0.0 
37.14195,50.26121,0.0 
37.145343,50.261517,0.0 
37.148314,50.262068,0.0 
37.150835,50.263034,0.0 
37.15288,50.264584,0.0 
37.15442,50.26689,0.0 
37.147372,50.265854,0.0 
37.140236,50.266221,0.0 
37.132847,50.267785,0.0 
37.125038,50.270342,0.0 
37.116644,50.273684,0.0 
37.107499,50.277608,0.0 
37.097436,50.281906,0.0 
37.08629,50.286374,0.0 
37.073895,50.290806,0.0 
37.071285,50.291733,0.0 
37.069267,50.292572,0.0 
37.06768,50.293357,0.0 
37.066365,50.294123,0.0 
37.065161,50.294905,0.0 
37.063908,50.295738,0.0 
37.062446,50.296656,0.0 
37.060615,50.297694,0.0 
37.058253,50.298887,0.0 
</coordinates>
            </LinearRing>
          </outerBoundaryIs>
        </Polygon>
        <Polygon>
          <outerBoundaryIs>
            <LinearRing>
              <tessellate>1</tessellate>
              <coordinates>
              35.386414,50.800029,0.0 
35.388516,50.799521,0.0 
35.390313,50.799129,0.0 
35.391863,50.798798,0.0 
35.393219,50.798472,0.0 
35.394438,50.798096,0.0 
35.395575,50.797615,0.0 
35.396686,50.796974,0.0 
35.397826,50.796117,0.0 
35.39905,50.79499,0.0 
35.40232,50.79192,0.0 
35.405487,50.789194,0.0 
35.40842,50.786727,0.0 
35.410989,50.784437,0.0 
35.413062,50.782241,0.0 
35.414509,50.780055,0.0 
35.415199,50.777796,0.0 
35.415003,50.775382,0.0 
35.413789,50.772729,0.0 
35.419036,50.774405,0.0 
35.423304,50.775717,0.0 
35.426878,50.776764,0.0 
35.430043,50.777644,0.0 
35.433081,50.778454,0.0 
35.436279,50.779292,0.0 
35.439919,50.780257,0.0 
35.444287,50.781446,0.0 
35.449667,50.782956,0.0 
35.44656,50.785264,0.0 
35.439366,50.789689,0.0 
35.437,50.791134,0.0 
35.436865,50.791217,0.0 
35.435012,50.792392,0.0 
35.433162,50.794188,0.0 
35.432679,50.794415,0.0 
35.420386,50.797277,0.0 
35.414961,50.799029,0.0 
35.410689,50.799162,0.0 
35.407234,50.79924,0.0 
35.404363,50.799285,0.0 
35.401845,50.799317,0.0 
35.399447,50.799358,0.0 
35.396937,50.799428,0.0 
35.394083,50.79955,0.0 
35.390653,50.799743,0.0 
35.386414,50.800029,0.0 
              </coordinates>
            </LinearRing>
          </outerBoundaryIs>
        </Polygon>
</MultiGeometry>
    </Placemark>
    
  </Document>
</kml>
