<?xml version="1.0" encoding="UTF-8"?>
<kml xmlns="http://www.opengis.net/kml/2.2">
  <Document>
    <name>Слой без названия</name>
    <Style id="poly-FFFFFF-180-77-nodesc-normal">
      <LineStyle>
        <color>ffffffff</color>
        <width>0.18</width>
      </LineStyle>
      <PolyStyle>
        <color>4dffffff</color>
        <fill>1</fill>
        <outline>1</outline>
      </PolyStyle>
      <BalloonStyle>
        <text><![CDATA[<h3>$[name]</h3>]]></text>
      </BalloonStyle>
    </Style>
    <Style id="poly-FFFFFF-180-77-nodesc-highlight">
      <LineStyle>
        <color>ffffffff</color>
        <width>0.27</width>
      </LineStyle>
      <PolyStyle>
        <color>4dffffff</color>
        <fill>1</fill>
        <outline>1</outline>
      </PolyStyle>
      <BalloonStyle>
        <text><![CDATA[<h3>$[name]</h3>]]></text>
      </BalloonStyle>
    </Style>
    <StyleMap id="poly-FFFFFF-180-77-nodesc">
      <Pair>
        <key>normal</key>
        <styleUrl>#poly-FFFFFF-180-77-nodesc-normal</styleUrl>
      </Pair>
      <Pair>
        <key>highlight</key>
        <styleUrl>#poly-FFFFFF-180-77-nodesc-highlight</styleUrl>
      </Pair>
    </StyleMap>
    
    <Placemark>
      <name>продвижения ВС РФ за 29.08 - 01.09</name>
      <description>ВС РФ</description>
      <styleUrl>#poly-FFFFFF-180-77-nodesc</styleUrl>
      <MultiGeometry>
        <Polygon>
          <outerBoundaryIs>
            <LinearRing>
              <tessellate>1</tessellate>
              <coordinates>
              37.220389,48.483792,0.0 
37.209051,48.481939,0.0 
37.195247,48.481801,0.0 
37.179857,48.482882,0.0 
37.163765,48.484686,0.0 
37.147852,48.486715,0.0 
37.133001,48.488473,0.0 
37.120094,48.489462,0.0 
37.110013,48.489187,0.0 
37.10364,48.48715,0.0 
37.102648,48.484872,0.0 
37.10521,48.482309,0.0 
37.110786,48.479414,0.0 
37.118837,48.476138,0.0 
37.128824,48.472435,0.0 
37.140209,48.468255,0.0 
37.152451,48.463551,0.0 
37.165013,48.458275,0.0 
37.177354,48.45238,0.0 
37.180194,48.453735,0.0 
37.183867,48.454313,0.0 
37.188331,48.4543,0.0 
37.193547,48.453884,0.0 
37.199474,48.453249,0.0 
37.206071,48.452585,0.0 
37.213298,48.452076,0.0 
37.221115,48.451909,0.0 
37.22948,48.452272,0.0 
37.236451,48.452798,0.0 
37.242623,48.45324,0.0 
37.248118,48.45367,0.0 
37.253055,48.454162,0.0 
37.257554,48.454786,0.0 
37.261734,48.455617,0.0 
37.265717,48.456727,0.0 
37.269623,48.458188,0.0 
37.27357,48.460072,0.0 
37.27446,48.460908,0.0 
37.274512,48.461943,0.0 
37.273847,48.463112,0.0 
37.272587,48.46435,0.0 
37.270855,48.465591,0.0 
37.268771,48.46677,0.0 
37.266457,48.467821,0.0 
37.264037,48.46868,0.0 
37.26163,48.46928,0.0 
37.256407,48.46996,0.0 
37.25191,48.469987,0.0 
37.247956,48.469568,0.0 
37.244366,48.468908,0.0 
37.240958,48.468214,0.0 
37.237553,48.467692,0.0 
37.23397,48.467547,0.0 
37.230028,48.467987,0.0 
37.225546,48.469216,0.0 
37.223593,48.470213,0.0 
37.221885,48.471667,0.0 
37.220466,48.473449,0.0 
37.219378,48.475429,0.0 
37.218663,48.477479,0.0 
37.218364,48.479469,0.0 
37.218523,48.481271,0.0 
37.219184,48.482755,0.0 
37.220389,48.483792,0.0 
</coordinates>
            </LinearRing>
          </outerBoundaryIs>
        </Polygon>
        <Polygon>
          <outerBoundaryIs>
            <LinearRing>
              <tessellate>1</tessellate>
              <coordinates>
              37.253851,48.483845,0.0 
37.24678,48.486964,0.0 
37.241118,48.490057,0.0 
37.236451,48.493136,0.0 
37.232362,48.496213,0.0 
37.228437,48.499301,0.0 
37.22426,48.50241,0.0 
37.219415,48.505553,0.0 
37.213487,48.508743,0.0 
37.20606,48.51199,0.0 
37.202765,48.513091,0.0 
37.199314,48.513896,0.0 
37.195875,48.514404,0.0 
37.192619,48.51461,0.0 
37.189715,48.514511,0.0 
37.187332,48.514105,0.0 
37.185638,48.513389,0.0 
37.184805,48.512358,0.0 
37.185,48.51101,0.0 
37.187866,48.507663,0.0 
37.192725,48.504093,0.0 
37.198838,48.50043,0.0 
37.205464,48.496805,0.0 
37.211863,48.493347,0.0 
37.217295,48.490187,0.0 
37.221021,48.487454,0.0 
37.222298,48.485279,0.0 
37.220389,48.483792,0.0 
37.223558,48.485038,0.0 
37.226667,48.485558,0.0 
37.2298,48.485531,0.0 
37.233043,48.485135,0.0 
37.23648,48.484547,0.0 
37.240195,48.483946,0.0 
37.244272,48.483511,0.0 
37.248796,48.483417,0.0 
37.253851,48.483845,0.0 
</coordinates>
            </LinearRing>
          </outerBoundaryIs>
        </Polygon>
        <Polygon>
          <outerBoundaryIs>
            <LinearRing>
              <tessellate>1</tessellate>
              <coordinates>
              37.262407,48.489663,0.0 
37.265915,48.490021,0.0 
37.268862,48.490293,0.0 
37.271401,48.490447,0.0 
37.273685,48.490453,0.0 
37.275869,48.490281,0.0 
37.278105,48.489899,0.0 
37.280548,48.489276,0.0 
37.283351,48.488383,0.0 
37.286667,48.487189,0.0 
37.288834,48.486096,0.0 
37.290448,48.484747,0.0 
37.291662,48.483233,0.0 
37.292629,48.481649,0.0 
37.293502,48.480088,0.0 
37.294434,48.478642,0.0 
37.295579,48.477405,0.0 
37.29709,48.47647,0.0 
37.29912,48.47593,0.0 
37.295395,48.47926,0.0 
37.292609,48.482769,0.0 
37.290518,48.486447,0.0 
37.288881,48.490286,0.0 
37.287454,48.494275,0.0 
37.285993,48.498406,0.0 
37.284256,48.502668,0.0 
37.281999,48.507053,0.0 
37.27898,48.51155,0.0 
37.278521,48.511982,0.0 
37.278117,48.512034,0.0 
37.27775,48.511768,0.0 
37.277401,48.511249,0.0 
37.277051,48.51054,0.0 
37.276682,48.509707,0.0 
37.276276,48.508813,0.0 
37.275812,48.507921,0.0 
37.275273,48.507097,0.0 
37.273348,48.504484,0.0 
37.271848,48.502321,0.0 
37.270642,48.500488,0.0 
37.269604,48.498864,0.0 
37.268603,48.497329,0.0 
37.267512,48.495761,0.0 
37.266201,48.494042,0.0 
37.264542,48.492049,0.0 
37.262407,48.489663,0.0 
</coordinates>
            </LinearRing>
          </outerBoundaryIs>
        </Polygon>
        <Polygon>
          <outerBoundaryIs>
            <LinearRing>
              <tessellate>1</tessellate>
              <coordinates>
              37.37314,48.5675,0.0 
37.368014,48.570807,0.0 
37.364228,48.574628,0.0 
37.361443,48.578793,0.0 
37.359318,48.583132,0.0 
37.357515,48.587475,0.0 
37.355692,48.59165,0.0 
37.35351,48.595488,0.0 
37.35063,48.598818,0.0 
37.34671,48.60147,0.0 
37.344752,48.60206,0.0 
37.342985,48.601858,0.0 
37.341378,48.600969,0.0 
37.339902,48.5995,0.0 
37.338527,48.597557,0.0 
37.337224,48.595246,0.0 
37.335963,48.592674,0.0 
37.334715,48.589946,0.0 
37.33345,48.58717,0.0 
37.332514,48.585106,0.0 
37.331751,48.583253,0.0 
37.33118,48.581557,0.0 
37.330821,48.579966,0.0 
37.330694,48.578429,0.0 
37.330821,48.576892,0.0 
37.331221,48.575303,0.0 
37.331914,48.57361,0.0 
37.33292,48.57176,0.0 
37.334573,48.569534,0.0 
37.336336,48.568006,0.0 
37.338189,48.566972,0.0 
37.340111,48.566227,0.0 
37.34208,48.565564,0.0 
37.344076,48.564778,0.0 
37.346077,48.563664,0.0 
37.348062,48.562016,0.0 
37.35001,48.55963,0.0 
37.350248,48.562223,0.0 
37.351303,48.564164,0.0 
37.353077,48.565548,0.0 
37.355467,48.566471,0.0 
37.358373,48.567027,0.0 
37.361694,48.567313,0.0 
37.365329,48.567424,0.0 
37.369178,48.567454,0.0 
37.37314,48.5675,0.0 
</coordinates>
            </LinearRing>
          </outerBoundaryIs>
        </Polygon>
        <Polygon>
          <outerBoundaryIs>
            <LinearRing>
              <tessellate>1</tessellate>
              <coordinates>
              37.45624,48.56662,0.0 
37.456773,48.568315,0.0 
37.456731,48.569985,0.0 
37.456197,48.571573,0.0 
37.455257,48.573025,0.0 
37.453993,48.574283,0.0 
37.45249,48.575293,0.0 
37.450833,48.575998,0.0 
37.449105,48.576342,0.0 
37.44739,48.57627,0.0 
37.444422,48.575333,0.0 
37.442068,48.573822,0.0 
37.440128,48.571906,0.0 
37.438405,48.56975,0.0 
37.436701,48.567524,0.0 
37.434819,48.565394,0.0 
37.43256,48.563529,0.0 
37.429726,48.562095,0.0 
37.42612,48.56126,0.0 
37.43118,48.561632,0.0 
37.436165,48.562678,0.0 
37.440923,48.564133,0.0 
37.445303,48.565732,0.0 
37.449154,48.567211,0.0 
37.452324,48.568304,0.0 
37.454662,48.568747,0.0 
37.456018,48.568273,0.0 
37.45624,48.56662,0.0 
</coordinates>
            </LinearRing>
          </outerBoundaryIs>
        </Polygon>
        <Polygon>
          <outerBoundaryIs>
            <LinearRing>
              <tessellate>1</tessellate>
              <coordinates>
              37.71099,48.56033,0.0 
37.7117,48.563245,0.0 
37.712789,48.56609,0.0 
37.714231,48.568766,0.0 
37.715999,48.571179,0.0 
37.718069,48.573232,0.0 
37.720415,48.574829,0.0 
37.723011,48.575874,0.0 
37.725831,48.576269,0.0 
37.72885,48.57592,0.0 
37.727267,48.577247,0.0 
37.725874,48.57867,0.0 
37.724636,48.580094,0.0 
37.723522,48.581423,0.0 
37.722499,48.582563,0.0 
37.721534,48.583418,0.0 
37.720594,48.583892,0.0 
37.719647,48.583891,0.0 
37.71866,48.58332,0.0 
37.716811,48.581537,0.0 
37.71519,48.579596,0.0 
37.713804,48.577482,0.0 
37.712665,48.575181,0.0 
37.71178,48.572678,0.0 
37.711161,48.569956,0.0 
37.710817,48.567001,0.0 
37.710757,48.563797,0.0 
37.71099,48.56033,0.0 
</coordinates>
            </LinearRing>
          </outerBoundaryIs>
        </Polygon>
        <Polygon>
          <outerBoundaryIs>
            <LinearRing>
              <tessellate>1</tessellate>
              <coordinates>
              37.87806,48.85526,0.0 
37.878239,48.856016,0.0 
37.87836,48.856696,0.0 
37.878411,48.857311,0.0 
37.878379,48.857868,0.0 
37.878252,48.85838,0.0 
37.878016,48.858855,0.0 
37.877658,48.859303,0.0 
37.877167,48.859733,0.0 
37.876529,48.860157,0.0 
37.870531,48.863553,0.0 
37.865511,48.866121,0.0 
37.861189,48.868101,0.0 
37.857287,48.869736,0.0 
37.853524,48.871264,0.0 
37.849622,48.872928,0.0 
37.845302,48.874968,0.0 
37.840284,48.877625,0.0 
37.83429,48.88114,0.0 
37.831175,48.876867,0.0 
37.827196,48.872974,0.0 
37.822761,48.869447,0.0 
37.818277,48.866272,0.0 
37.81415,48.863435,0.0 
37.810789,48.860924,0.0 
37.808601,48.858723,0.0 
37.807992,48.85682,0.0 
37.80937,48.8552,0.0 
37.814728,48.8532,0.0 
37.821099,48.852605,0.0 
37.828293,48.853027,0.0 
37.836119,48.85408,0.0 
37.844386,48.855377,0.0 
37.852904,48.85653,0.0 
37.861483,48.857153,0.0 
37.869932,48.856859,0.0 
37.87806,48.85526,0.0 
</coordinates>
            </LinearRing>
          </outerBoundaryIs>
        </Polygon>
        <Polygon>
          <outerBoundaryIs>
            <LinearRing>
              <tessellate>1</tessellate>
              <coordinates>
              37.71288,49.501577,0.0 
37.709465,49.498928,0.0 
37.70567,49.496738,0.0 
37.70176,49.494919,0.0 
37.698001,49.493381,0.0 
37.694658,49.492035,0.0 
37.691996,49.490791,0.0 
37.69028,49.489561,0.0 
37.689777,49.488253,0.0 
37.69075,49.48678,0.0 
37.695374,49.483735,0.0 
37.701072,49.481498,0.0 
37.707566,49.47986,0.0 
37.714577,49.478614,0.0 
37.721827,49.47755,0.0 
37.729038,49.47646,0.0 
37.735931,49.475136,0.0 
37.742228,49.473368,0.0 
37.74765,49.47095,0.0 
37.748596,49.470043,0.0 
37.748379,49.469157,0.0 
37.747541255409786,49.46855811068175,0.0 
37.748028,49.468698,0.0 
37.751636,49.47,0.0 
37.754539,49.471424,0.0 
37.756584,49.472985,0.0 
37.757615,49.474698,0.0 
37.75748,49.476577,0.0 
37.755892,49.478945,0.0 
37.753337,49.480733,0.0 
37.749936,49.482126,0.0 
37.745813,49.48331,0.0 
37.74109,49.484468,0.0 
37.735887,49.485785,0.0 
37.730327,49.487445,0.0 
37.724533,49.489634,0.0 
37.718626,49.492536,0.0 
37.717255,49.493359,0.0 
37.716141,49.494155,0.0 
37.715254,49.494955,0.0 
37.71456,49.49579,0.0 
37.714028,49.496691,0.0 
37.713626,49.49769,0.0 
37.713321,49.498816,0.0 
37.713084,49.500101,0.0 
37.71288,49.501577,0.0 
</coordinates>
            </LinearRing>
          </outerBoundaryIs>
        </Polygon>
        <Polygon>
          <outerBoundaryIs>
            <LinearRing>
              <tessellate>1</tessellate>
              <coordinates>
              35.39905,50.79499,0.0 
35.399809,50.793725,0.0 
35.400011,50.792582,0.0 
35.399811,50.791523,0.0 
35.399366,50.790505,0.0 
35.398833,50.789489,0.0 
35.398367,50.788435,0.0 
35.398126,50.787303,0.0 
35.398264,50.786051,0.0 
35.39894,50.78464,0.0 
35.400736,50.782638,0.0 
35.403045,50.780992,0.0 
35.405631,50.779621,0.0 
35.408259,50.778446,0.0 
35.410693,50.777388,0.0 
35.412699,50.776367,0.0 
35.41404,50.775303,0.0 
35.414456029668166,50.77418668509855,0.0 
35.415003,50.775382,0.0 
35.415199,50.777796,0.0 
35.414509,50.780055,0.0 
35.413062,50.782241,0.0 
35.410989,50.784437,0.0 
35.40842,50.786727,0.0 
35.405487,50.789194,0.0 
35.40232,50.79192,0.0 
35.39905,50.79499,0.0 
              </coordinates>
            </LinearRing>
          </outerBoundaryIs>
        </Polygon>
</MultiGeometry>
    </Placemark>
    
    <Placemark>
      <name>продвижения ВСУ за 29.08 - 01.09</name>
      <description>ВСУ</description>
      <styleUrl>#poly-FFFFFF-180-77-nodesc</styleUrl>
      <MultiGeometry>
        <Polygon>
          <outerBoundaryIs>
            <LinearRing>
              <tessellate>1</tessellate>
              <coordinates>
              37.91833,49.23638,0.0 
37.911569,49.236132,0.0 
37.905414,49.236481,0.0 
37.899775,49.237218,0.0 
37.894563,49.238134,0.0 
37.88969,49.239019,0.0 
37.885066,49.239664,0.0 
37.880603,49.239861,0.0 
37.87621,49.2394,0.0 
37.8718,49.238072,0.0 
37.870583,49.237177,0.0 
37.870467,49.236016,0.0 
37.871216,49.234594,0.0 
37.872591,49.232914,0.0 
37.874355,49.230983,0.0 
37.876271,49.228805,0.0 
37.8781,49.226383,0.0 
37.879606,49.223723,0.0 
37.88055,49.22083,0.0 
37.8808,49.223087,0.0 
37.880784,49.225172,0.0 
37.88062,49.227085,0.0 
37.880432,49.228822,0.0 
37.880338,49.230384,0.0 
37.88046,49.231768,0.0 
37.880919,49.232973,0.0 
37.881836,49.233998,0.0 
37.88333,49.23484,0.0 
37.887551,49.236244,0.0 
37.891363,49.236898,0.0 
37.894904,49.236992,0.0 
37.898315,49.236716,0.0 
37.901737,49.236257,0.0 
37.90531,49.235805,0.0 
37.909172,49.235549,0.0 
37.913466,49.235678,0.0 
37.91833,49.23638,0.0 
              </coordinates>
            </LinearRing>
          </outerBoundaryIs>
        </Polygon>
</MultiGeometry>
    </Placemark>
    
  </Document>
</kml>
