<?xml version="1.0" encoding="UTF-8"?>
<kml xmlns="http://www.opengis.net/kml/2.2">
  <Document>
    <name>Слой без названия</name>
    <Style id="poly-FFFFFF-180-77-nodesc-normal">
      <LineStyle>
        <color>ffffffff</color>
        <width>0.18</width>
      </LineStyle>
      <PolyStyle>
        <color>4dffffff</color>
        <fill>1</fill>
        <outline>1</outline>
      </PolyStyle>
      <BalloonStyle>
        <text><![CDATA[<h3>$[name]</h3>]]></text>
      </BalloonStyle>
    </Style>
    <Style id="poly-FFFFFF-180-77-nodesc-highlight">
      <LineStyle>
        <color>ffffffff</color>
        <width>0.27</width>
      </LineStyle>
      <PolyStyle>
        <color>4dffffff</color>
        <fill>1</fill>
        <outline>1</outline>
      </PolyStyle>
      <BalloonStyle>
        <text><![CDATA[<h3>$[name]</h3>]]></text>
      </BalloonStyle>
    </Style>
    <StyleMap id="poly-FFFFFF-180-77-nodesc">
      <Pair>
        <key>normal</key>
        <styleUrl>#poly-FFFFFF-180-77-nodesc-normal</styleUrl>
      </Pair>
      <Pair>
        <key>highlight</key>
        <styleUrl>#poly-FFFFFF-180-77-nodesc-highlight</styleUrl>
      </Pair>
    </StyleMap>
    
    <Placemark>
      <name>продвижения ВС РФ за 6 - 9 сентября</name>
      <description>ВС РФ</description>
      <styleUrl>#poly-FFFFFF-180-77-nodesc</styleUrl>
      <MultiGeometry>
        <Polygon>
          <outerBoundaryIs>
            <LinearRing>
              <tessellate>1</tessellate>
              <coordinates>
              37.09729,48.42142,0.0 
37.088906,48.421313,0.0 
37.08112,48.421382,0.0 
37.073955,48.421536,0.0 
37.067432,48.421687,0.0 
37.061576,48.421743,0.0 
37.056407,48.421616,0.0 
37.051949,48.421216,0.0 
37.048224,48.420453,0.0 
37.045255,48.419236,0.0 
37.044593,48.418396,0.0 
37.045422,48.417545,0.0 
37.047504,48.416637,0.0 
37.050598,48.415627,0.0 
37.054465,48.414471,0.0 
37.058864,48.413124,0.0 
37.063556,48.411542,0.0 
37.068301,48.409678,0.0 
37.07286,48.40749,0.0 
37.071473,48.408698,0.0 
37.070159,48.409964,0.0 
37.068979,48.411254,0.0 
37.06799,48.412536,0.0 
37.067252,48.413775,0.0 
37.066825,48.41494,0.0 
37.066768,48.415996,0.0 
37.06714,48.41691,0.0 
37.068,48.41765,0.0 
37.070849,48.419076,0.0 
37.073568,48.42005,0.0 
37.076256,48.420659,0.0 
37.079013,48.420986,0.0 
37.081936,48.42112,0.0 
37.085127,48.421144,0.0 
37.088683,48.421145,0.0 
37.092704,48.421208,0.0 
37.09729,48.42142,0.0 
</coordinates>
            </LinearRing>
          </outerBoundaryIs>
        </Polygon>
        <Polygon>
          <outerBoundaryIs>
            <LinearRing>
              <tessellate>1</tessellate>
              <coordinates>
              37.20694249600918,48.41338113567148,0.0 
37.207044,48.413401,0.0 
37.210764,48.414128,0.0 
37.214082,48.414895,0.0 
37.21697,48.415816,0.0 
37.219401,48.417005,0.0 
37.221345,48.418574,0.0 
37.222774,48.420637,0.0 
37.22314,48.422227,0.0 
37.222659,48.423684,0.0 
37.221453,48.425058,0.0 
37.21964,48.426402,0.0 
37.217343,48.427766,0.0 
37.21468,48.429203,0.0 
37.211774,48.430763,0.0 
37.208744,48.432499,0.0 
37.20571,48.434462,0.0 
37.201613,48.43735,0.0 
37.198311,48.439706,0.0 
37.196256933988884,48.44116987734296,0.0 
37.198868,48.438967,0.0 
37.20216,48.43607,0.0 
37.204708,48.433864,0.0 
37.207121,48.43184,0.0 
37.209334,48.429954,0.0 
37.21128,48.428161,0.0 
37.212896,48.426418,0.0 
37.214116,48.42468,0.0 
37.214875,48.422902,0.0 
37.215108,48.42104,0.0 
37.21475,48.41905,0.0 
37.213812,48.41711,0.0 
37.212464,48.415662,0.0 
37.210734,48.414598,0.0 
37.208646,48.413813,0.0 
37.20694249600918,48.41338113567148,0.0 
</coordinates>
            </LinearRing>
          </outerBoundaryIs>
        </Polygon>
        <Polygon>
          <outerBoundaryIs>
            <LinearRing>
              <tessellate>1</tessellate>
              <coordinates>
              37.645453,48.529194,0.0 
37.645606,48.525765,0.0 
37.645825,48.52273,0.0 
37.646017,48.520022,0.0 
37.646089,48.517572,0.0 
37.645949,48.515311,0.0 
37.645504,48.513171,0.0 
37.644661,48.511083,0.0 
37.643327,48.508979,0.0 
37.64141,48.50679,0.0 
37.639077,48.504731,0.0 
37.636861,48.503336,0.0 
37.634676,48.502471,0.0 
37.632439,48.502007,0.0 
37.630064,48.50181,0.0 
37.627467,48.501749,0.0 
37.624564,48.501692,0.0 
37.62127,48.501507,0.0 
37.6175,48.501063,0.0 
37.622805,48.499724,0.0 
37.62715,48.498082,0.0 
37.630788,48.496257,0.0 
37.633969,48.494369,0.0 
37.636945,48.492539,0.0 
37.639967,48.490887,0.0 
37.643287,48.489533,0.0 
37.647156,48.488597,0.0 
37.651825,48.488199,0.0 
37.65383,48.488354,0.0 
37.655514,48.488876,0.0 
37.656915,48.489734,0.0 
37.658071,48.490899,0.0 
37.659019,48.492343,0.0 
37.659797,48.494034,0.0 
37.660442,48.495945,0.0 
37.660991,48.498046,0.0 
37.661482,48.500307,0.0 
37.662056,48.503304,0.0 
37.662453,48.505913,0.0 
37.662653,48.508232,0.0 
37.662637,48.510358,0.0 
37.662383,48.51239,0.0 
37.661874,48.514425,0.0 
37.661088,48.516562,0.0 
37.660007,48.518897,0.0 
37.65861,48.52153,0.0 
37.657444,48.5232,0.0 
37.656176,48.52431,0.0 
37.654817,48.525013,0.0 
37.65338,48.525461,0.0 
37.651877,48.525805,0.0 
37.650321,48.526199,0.0 
37.648723,48.526793,0.0 
37.647097,48.527741,0.0 
37.645453,48.529194,0.0 
</coordinates>
            </LinearRing>
          </outerBoundaryIs>
        </Polygon>
        <Polygon>
          <outerBoundaryIs>
            <LinearRing>
              <tessellate>1</tessellate>
              <coordinates>
              37.71866,48.58332,0.0 
37.717724,48.585025,0.0 
37.717226,48.586698,0.0 
37.717032,48.588321,0.0 
37.71701,48.589876,0.0 
37.717026,48.591344,0.0 
37.716947,48.592708,0.0 
37.716641,48.593949,0.0 
37.715972,48.595049,0.0 
37.71481,48.59599,0.0 
37.713279,48.596713,0.0 
37.711864,48.59704,0.0 
37.710505,48.59704,0.0 
37.709145,48.596785,0.0 
37.707725,48.596343,0.0 
37.706188,48.595785,0.0 
37.704475,48.595182,0.0 
37.702529,48.594604,0.0 
37.70029,48.59412,0.0 
37.694475,48.59338,0.0 
37.689278,48.59313,0.0 
37.684617,48.593156,0.0 
37.680414,48.593245,0.0 
37.67659,48.593185,0.0 
37.673065,48.592761,0.0 
37.669759,48.591761,0.0 
37.666594,48.589972,0.0 
37.66349,48.58718,0.0 
37.668942,48.589364,0.0 
37.674178,48.590538,0.0 
37.679364,48.590853,0.0 
37.684664,48.590464,0.0 
37.690244,48.589524,0.0 
37.696269,48.588186,0.0 
37.702903,48.586604,0.0 
37.710312,48.584931,0.0 
37.71866,48.58332,0.0 
</coordinates>
            </LinearRing>
          </outerBoundaryIs>
        </Polygon>
        <Polygon>
          <outerBoundaryIs>
            <LinearRing>
              <tessellate>1</tessellate>
              <coordinates>
              37.78162,48.56469,0.0 
37.77586,48.564777,0.0 
37.771155,48.564939,0.0 
37.767203,48.565195,0.0 
37.763702,48.565565,0.0 
37.760352,48.56607,0.0 
37.756852,48.56673,0.0 
37.752898,48.567565,0.0 
37.748192,48.568595,0.0 
37.74243,48.56984,0.0 
37.740276,48.570333,0.0 
37.738548,48.570806,0.0 
37.737133,48.571288,0.0 
37.735917,48.571806,0.0 
37.734786,48.572388,0.0 
37.733628,48.573063,0.0 
37.732328,48.573857,0.0 
37.730773,48.574801,0.0 
37.72885,48.57592,0.0 
37.734766,48.571373,0.0 
37.739451,48.567472,0.0 
37.743274,48.564075,0.0 
37.746603,48.561039,0.0 
37.749805,48.558224,0.0 
37.753249,48.555488,0.0 
37.757303,48.552689,0.0 
37.762334,48.549686,0.0 
37.768711,48.546337,0.0 
37.772287,48.544684,0.0 
37.775795,48.543316,0.0 
37.779176,48.542256,0.0 
37.782368,48.54153,0.0 
37.785314,48.541164,0.0 
37.787952,48.541181,0.0 
37.790223,48.541607,0.0 
37.792068,48.542466,0.0 
37.793425,48.543784,0.0 
37.793889,48.545392,0.0 
37.793331,48.547202,0.0 
37.791999,48.549204,0.0 
37.790141,48.551389,0.0 
37.788003,48.553745,0.0 
37.785835,48.556264,0.0 
37.783883,48.558934,0.0 
37.782396,48.561746,0.0 
37.78162,48.56469,0.0 
              </coordinates>
            </LinearRing>
          </outerBoundaryIs>
        </Polygon>
</MultiGeometry>
    </Placemark>
    
    <Placemark>
      <name>продвижения ВСУ за 6 - 9 сентября</name>
      <description>ВСУ</description>
      <styleUrl>#poly-FFFFFF-180-77-nodesc</styleUrl>
      <MultiGeometry>
        <Polygon>
          <outerBoundaryIs>
            <LinearRing>
              <tessellate>1</tessellate>
              <coordinates>
              37.83475,48.962601,0.0 
37.834399,48.962132,0.0 
37.833663,48.961751,0.0 
37.832643,48.961413,0.0 
37.831438,48.961073,0.0 
37.830151,48.960685,0.0 
37.828882,48.960202,0.0 
37.827731,48.959581,0.0 
37.8268,48.958774,0.0 
37.826189,48.957737,0.0 
37.828043,48.958558,0.0 
37.830227,48.958946,0.0 
37.832624,48.959008,0.0 
37.835114,48.958848,0.0 
37.83758,48.958574,0.0 
37.839904,48.95829,0.0 
37.841967,48.958103,0.0 
37.843652,48.958118,0.0 
37.84484,48.95844,0.0 
37.845081,48.958771,0.0 
37.844803,48.959161,0.0 
37.844082,48.959597,0.0 
37.842995,48.960069,0.0 
37.841618,48.960567,0.0 
37.840029,48.961079,0.0 
37.838303,48.961597,0.0 
37.836518,48.962107,0.0 
37.83475,48.962601,0.0 
              </coordinates>
            </LinearRing>
          </outerBoundaryIs>
        </Polygon>
</MultiGeometry>
    </Placemark>
    
  </Document>
</kml>
