<?xml version="1.0" encoding="UTF-8"?>
<kml xmlns="http://www.opengis.net/kml/2.2">
  <Document>
    <name>Слой без названия</name>
    <Style id="poly-FFFFFF-180-77-nodesc-normal">
      <LineStyle>
        <color>ffffffff</color>
        <width>0.18</width>
      </LineStyle>
      <PolyStyle>
        <color>4dffffff</color>
        <fill>1</fill>
        <outline>1</outline>
      </PolyStyle>
      <BalloonStyle>
        <text><![CDATA[<h3>$[name]</h3>]]></text>
      </BalloonStyle>
    </Style>
    <Style id="poly-FFFFFF-180-77-nodesc-highlight">
      <LineStyle>
        <color>ffffffff</color>
        <width>0.27</width>
      </LineStyle>
      <PolyStyle>
        <color>4dffffff</color>
        <fill>1</fill>
        <outline>1</outline>
      </PolyStyle>
      <BalloonStyle>
        <text><![CDATA[<h3>$[name]</h3>]]></text>
      </BalloonStyle>
    </Style>
    <StyleMap id="poly-FFFFFF-180-77-nodesc">
      <Pair>
        <key>normal</key>
        <styleUrl>#poly-FFFFFF-180-77-nodesc-normal</styleUrl>
      </Pair>
      <Pair>
        <key>highlight</key>
        <styleUrl>#poly-FFFFFF-180-77-nodesc-highlight</styleUrl>
      </Pair>
    </StyleMap>
    
    <Placemark>
      <name>продвижения ВС РФ за 5 - 8 августа</name>
      <description>ВС РФ</description>
      <styleUrl>#poly-FFFFFF-180-77-nodesc</styleUrl>
      <MultiGeometry>
        <Polygon>
          <outerBoundaryIs>
            <LinearRing>
              <tessellate>1</tessellate>
              <coordinates>
              35.85199,47.503206,0.0 
35.851313,47.508559,0.0 
35.851153,47.513014,0.0 
35.851378,47.516831,0.0 
35.851859,47.520268,0.0 
35.852464,47.523582,0.0 
35.853063,47.527032,0.0 
35.853524,47.530876,0.0 
35.853716,47.535373,0.0 
35.85351,47.54078,0.0 
35.853385,47.541629,0.0 
35.853156,47.542291,0.0 
35.852826,47.5428,0.0 
35.852396,47.543193,0.0 
35.851871,47.543503,0.0 
35.851252,47.543766,0.0 
35.850542,47.544017,0.0 
35.849744,47.54429,0.0 
35.84886,47.54462,0.0 
35.843409,47.547082,0.0 
35.838548,47.549714,0.0 
35.834184,47.552327,0.0 
35.830227,47.554728,0.0 
35.826583,47.556727,0.0 
35.823159,47.558133,0.0 
35.819864,47.558754,0.0 
35.816605,47.5584,0.0 
35.81329,47.55688,0.0 
35.816296,47.555431,0.0 
35.818934,47.552647,0.0 
35.821371,47.548704,0.0 
35.823773,47.543778,0.0 
35.826308,47.538044,0.0 
35.829143,47.53168,0.0 
35.832444,47.52486,0.0 
35.836377,47.51776,0.0 
35.841111,47.510556,0.0 
35.84233,47.509073,0.0 
35.843484,47.508042,0.0 
35.8446,47.507339,0.0 
35.845704,47.506844,0.0 
35.846824,47.506434,0.0 
35.847985,47.505987,0.0 
35.849215,47.505381,0.0 
35.850541,47.504495,0.0 
35.85199,47.503206,0.0 
</coordinates>
            </LinearRing>
          </outerBoundaryIs>
        </Polygon>
        <Polygon>
          <outerBoundaryIs>
            <LinearRing>
              <tessellate>1</tessellate>
              <coordinates>
              36.05275,47.63983,0.0 
36.048933,47.641715,0.0 
36.045685,47.643866,0.0 
36.042882,47.646105,0.0 
36.040402,47.648255,0.0 
36.038121,47.650139,0.0 
36.035916,47.651579,0.0 
36.033663,47.652397,0.0 
36.031239,47.652417,0.0 
36.02852,47.65146,0.0 
36.02504,47.649071,0.0 
36.022581,47.646178,0.0 
36.020867,47.642856,0.0 
36.019624,47.639181,0.0 
36.018575,47.635228,0.0 
36.017445,47.631071,0.0 
36.015957,47.626785,0.0 
36.013838,47.622447,0.0 
36.01081,47.61813,0.0 
36.017157,47.621085,0.0 
36.02222,47.624215,0.0 
36.026369,47.627387,0.0 
36.029974,47.630468,0.0 
36.033403,47.633323,0.0 
36.037026,47.635821,0.0 
36.041212,47.637827,0.0 
36.04633,47.639207,0.0 
36.05275,47.63983,0.0 
</coordinates>
            </LinearRing>
          </outerBoundaryIs>
        </Polygon>
        <Polygon>
          <outerBoundaryIs>
            <LinearRing>
              <tessellate>1</tessellate>
              <coordinates>
              36.08296,47.84341,0.0 
36.071866,47.83906,0.0 
36.060986,47.835453,0.0 
36.050597,47.832439,0.0 
36.040975,47.829871,0.0 
36.032396,47.827603,0.0 
36.025137,47.825485,0.0 
36.019474,47.82337,0.0 
36.015683,47.821111,0.0 
36.01404,47.81856,0.0 
36.014844,47.816534,0.0 
36.017893,47.815154,0.0 
36.022894,47.81429,0.0 
36.029558,47.81381,0.0 
36.037592,47.813583,0.0 
36.046706,47.813477,0.0 
36.056608,47.81336,0.0 
36.067006,47.813101,0.0 
36.077611,47.812569,0.0 
36.075898,47.815215,0.0 
36.075034,47.817989,0.0 
36.074904,47.820921,0.0 
36.07539,47.824039,0.0 
36.076374,47.82737,0.0 
36.07774,47.830945,0.0 
36.079371,47.834791,0.0 
36.08115,47.838936,0.0 
36.08296,47.84341,0.0 
</coordinates>
            </LinearRing>
          </outerBoundaryIs>
        </Polygon>
        <Polygon>
          <outerBoundaryIs>
            <LinearRing>
              <tessellate>1</tessellate>
              <coordinates>
              36.88772,48.243678,0.0 
36.88591,48.240536,0.0 
36.885445,48.237348,0.0 
36.88615,48.234112,0.0 
36.887853,48.230824,0.0 
36.890381,48.227483,0.0 
36.893562,48.224085,0.0 
36.897223,48.220629,0.0 
36.901189,48.217111,0.0 
36.90529,48.21353,0.0 
36.9089,48.210916,0.0 
36.91251,48.209236,0.0 
36.916073,48.208244,0.0 
36.919546,48.207694,0.0 
36.922881,48.207344,0.0 
36.926035,48.206946,0.0 
36.928962,48.206257,0.0 
36.931616,48.205031,0.0 
36.933952,48.203023,0.0 
36.934578,48.201869,0.0 
36.93444,48.200798,0.0 
36.933687,48.19976,0.0 
36.932469,48.198705,0.0 
36.930933,48.19758,0.0 
36.929231,48.196335,0.0 
36.92751,48.194919,0.0 
36.925921,48.193281,0.0 
36.924611,48.19137,0.0 
36.925979,48.193002,0.0 
36.927399,48.194218,0.0 
36.928832,48.195143,0.0 
36.93024,48.195902,0.0 
36.931586,48.196621,0.0 
36.932831,48.197423,0.0 
36.933939,48.198433,0.0 
36.93487,48.199777,0.0 
36.935587,48.20158,0.0 
36.936138,48.203652,0.0 
36.936522,48.205557,0.0 
36.936708,48.207326,0.0 
36.936666,48.20899,0.0 
36.936364,48.21058,0.0 
36.935772,48.212125,0.0 
36.934857,48.213656,0.0 
36.93359,48.215205,0.0 
36.93194,48.2168,0.0 
36.925457,48.22161,0.0 
36.918506,48.225421,0.0 
36.911455,48.228467,0.0 
36.904673,48.230978,0.0 
36.89853,48.233189,0.0 
36.893394,48.235332,0.0 
36.889634,48.237639,0.0 
36.88762,48.240344,0.0 
36.88772,48.243678,0.0 
</coordinates>
            </LinearRing>
          </outerBoundaryIs>
        </Polygon>
        <Polygon>
          <outerBoundaryIs>
            <LinearRing>
              <tessellate>1</tessellate>
              <coordinates>
              37.157371,48.381081,0.0 
37.152295,48.386869,0.0 
37.148404,48.391958,0.0 
37.145345,48.396508,0.0 
37.14277,48.400675,0.0 
37.140327,48.404617,0.0 
37.137667,48.408493,0.0 
37.134439,48.412461,0.0 
37.130294,48.416677,0.0 
37.12488,48.4213,0.0 
37.122979,48.422558,0.0 
37.121122,48.42332,0.0 
37.119303,48.423644,0.0 
37.117516,48.423584,0.0 
37.115755,48.423197,0.0 
37.114011,48.422539,0.0 
37.112281,48.421666,0.0 
37.110556,48.420635,0.0 
37.10883,48.4195,0.0 
37.108045,48.418811,0.0 
37.107612,48.418066,0.0 
37.107462,48.417253,0.0 
37.107524,48.416361,0.0 
37.10773,48.415377,0.0 
37.108012,48.414292,0.0 
37.108298,48.413094,0.0 
37.108521,48.41177,0.0 
37.10861,48.41031,0.0 
37.113596,48.409939,0.0 
37.118239,48.408496,0.0 
37.122732,48.406132,0.0 
37.127268,48.402999,0.0 
37.132042,48.399247,0.0 
37.137245,48.395028,0.0 
37.143073,48.390493,0.0 
37.149717,48.385794,0.0 
37.157371,48.381081,0.0 
</coordinates>
            </LinearRing>
          </outerBoundaryIs>
        </Polygon>
        <Polygon>
          <outerBoundaryIs>
            <LinearRing>
              <tessellate>1</tessellate>
              <coordinates>
              37.377384,48.506444,0.0 
37.385446,48.512398,0.0 
37.392357,48.519,0.0 
37.398302,48.525859,0.0 
37.403466,48.532585,0.0 
37.408032,48.538786,0.0 
37.412186,48.544073,0.0 
37.41611,48.548055,0.0 
37.41999,48.550341,0.0 
37.42401,48.55054,0.0 
37.422839,48.552889,0.0 
37.421156,48.554744,0.0 
37.419066,48.5561,0.0 
37.416678,48.556953,0.0 
37.414099,48.557297,0.0 
37.411436,48.557128,0.0 
37.408797,48.556443,0.0 
37.406289,48.555235,0.0 
37.40402,48.5535,0.0 
37.399239,48.548201,0.0 
37.395923,48.542985,0.0 
37.393639,48.537823,0.0 
37.391954,48.532689,0.0 
37.390436,48.527554,0.0 
37.388653,48.52239,0.0 
37.386171,48.517169,0.0 
37.382559,48.511863,0.0 
37.377384,48.506444,0.0 
</coordinates>
            </LinearRing>
          </outerBoundaryIs>
        </Polygon>
        <Polygon>
          <outerBoundaryIs>
            <LinearRing>
              <tessellate>1</tessellate>
              <coordinates>
              37.63618,48.57075,0.0 
37.633651,48.57151,0.0 
37.63099,48.572249,0.0 
37.628344,48.572915,0.0 
37.625859,48.57346,0.0 
37.623683,48.573833,0.0 
37.621963,48.573986,0.0 
37.620846,48.573868,0.0 
37.620479,48.573429,0.0 
37.62101,48.57262,0.0 
37.624437,48.569554,0.0 
37.628036,48.566849,0.0 
37.631861,48.564349,0.0 
37.635964,48.561898,0.0 
37.640397,48.559339,0.0 
37.645215,48.556515,0.0 
37.65047,48.55327,0.0 
37.656214,48.549447,0.0 
37.6625,48.54489,0.0 
37.663864,48.543843,0.0 
37.66521,48.542766,0.0 
37.666472,48.541684,0.0 
37.667583,48.540625,0.0 
37.668478,48.539617,0.0 
37.66909,48.538686,0.0 
37.669352,48.537859,0.0 
37.669199,48.537164,0.0 
37.668563,48.536627,0.0 
37.669213,48.537005,0.0 
37.669529,48.537539,0.0 
37.669554,48.538203,0.0 
37.669332,48.53897,0.0 
37.668908,48.539814,0.0 
37.668326,48.540708,0.0 
37.667629,48.541624,0.0 
37.666863,48.542537,0.0 
37.66607,48.54342,0.0 
37.664344,48.54519,0.0 
37.662844,48.546532,0.0 
37.661499,48.547565,0.0 
37.660236,48.548407,0.0 
37.658984,48.549178,0.0 
37.65767,48.549996,0.0 
37.656222,48.55098,0.0 
37.65457,48.552248,0.0 
37.65264,48.55392,0.0 
37.649694,48.556556,0.0 
37.646721,48.559139,0.0 
37.643853,48.56161,0.0 
37.641221,48.56391,0.0 
37.638955,48.565979,0.0 
37.637187,48.567757,0.0 
37.636048,48.569184,0.0 
37.635669,48.570202,0.0 
37.63618,48.57075,0.0 
</coordinates>
            </LinearRing>
          </outerBoundaryIs>
        </Polygon>
        <Polygon>
          <outerBoundaryIs>
            <LinearRing>
              <tessellate>1</tessellate>
              <coordinates>
              37.4984,50.23923,0.0 
37.501266,50.241932,0.0 
37.507465,50.24376,0.0 
37.516601,50.244932,0.0 
37.528279,50.245666,0.0 
37.542103,50.246179,0.0 
37.557677,50.24669,0.0 
37.574606,50.247416,0.0 
37.592495,50.248577,0.0 
37.61095,50.25039,0.0 
37.598927,50.250358,0.0 
37.589068,50.250738,0.0 
37.580769,50.251381,0.0 
37.573431,50.252139,0.0 
37.566449,50.252862,0.0 
37.559224,50.253402,0.0 
37.551154,50.253609,0.0 
37.541636,50.253335,0.0 
37.53007,50.25243,0.0 
37.523976,50.251677,0.0 
37.517831,50.250637,0.0 
37.511933,50.249355,0.0 
37.50658,50.247879,0.0 
37.502069,50.246256,0.0 
37.498698,50.244533,0.0 
37.496764,50.242756,0.0 
37.496566,50.240973,0.0 
37.4984,50.23923,0.0 
</coordinates>
            </LinearRing>
          </outerBoundaryIs>
        </Polygon>
        <Polygon>
          <outerBoundaryIs>
            <LinearRing>
              <tessellate>1</tessellate>
              <coordinates>
              36.20255686135037,50.33398053996794,0.0 
36.203333,50.334214,0.0 
36.206594,50.334518,0.0 
36.209329,50.334332,0.0 
36.211711,50.333771,0.0 
36.213914,50.332949,0.0 
36.216109,50.331983,0.0 
36.21847,50.330985,0.0 
36.22117,50.330073,0.0 
36.224383,50.329359,0.0 
36.22828,50.32896,0.0 
36.235685,50.328681,0.0 
36.241694,50.328602,0.0 
36.246711,50.328687,0.0 
36.251138,50.328901,0.0 
36.255379,50.329207,0.0 
36.259838,50.32957,0.0 
36.264917,50.329953,0.0 
36.27102,50.33032,0.0 
36.278551,50.330636,0.0 
36.280727,50.332752,0.0 
36.283866,50.335549,0.0 
36.283129,50.336009,0.0 
36.283048,50.336068,0.0 
36.26621,50.34828,0.0 
36.264212,50.349592,0.0 
36.258294,50.353476,0.0 
36.255416,50.35539,0.0 
36.253537,50.355754,0.0 
36.24252,50.35789,0.0 
36.23342,50.36373,0.0 
36.225565,50.356664,0.0 
36.218179,50.349589,0.0 
36.211325,50.342769,0.0 
36.205071,50.336465,0.0 
36.20255686135037,50.33398053996794,0.0 
              </coordinates>
            </LinearRing>
          </outerBoundaryIs>
        </Polygon>
</MultiGeometry>
    </Placemark>
    
    <Placemark>
      <name>продвижения ВСУ за 5 - 8 августа</name>
      <description>ВСУ</description>
      <styleUrl>#poly-FFFFFF-180-77-nodesc</styleUrl>
      <MultiGeometry>
        <Polygon>
          <outerBoundaryIs>
            <LinearRing>
              <tessellate>1</tessellate>
              <coordinates>
              36.70444217848044,48.00572251519122,0.0 
36.704315,48.006022,0.0 
36.701899,48.008792,0.0 
36.698787,48.011209,0.0 
36.69533,48.013364,0.0 
36.691883,48.015348,0.0 
36.688798,48.017251,0.0 
36.68643,48.019164,0.0 
36.68513,48.021177,0.0 
36.685254,48.023381,0.0 
36.686906,48.025708,0.0 
36.68948,48.027286,0.0 
36.692795,48.028306,0.0 
36.696672,48.028958,0.0 
36.700931,48.029433,0.0 
36.705391,48.029922,0.0 
36.709873,48.030616,0.0 
36.714196,48.031705,0.0 
36.71818,48.03338,0.0 
36.718737,48.033858,0.0 
36.718846,48.034406,0.0 
36.718574,48.035001,0.0 
36.717984,48.035618,0.0 
36.717145,48.036232,0.0 
36.716121,48.03682,0.0 
36.714978,48.037356,0.0 
36.713783,48.037818,0.0 
36.7126,48.03818,0.0 
36.70877,48.039158,0.0 
36.705633,48.039884,0.0 
36.702983,48.040407,0.0 
36.700615,48.040773,0.0 
36.698322,48.04103,0.0 
36.695899,48.041226,0.0 
36.693138,48.041408,0.0 
36.689833,48.041623,0.0 
36.68578,48.04192,0.0 
36.67291,48.042915,0.0 
36.662514,48.043685,0.0 
36.653885,48.044279,0.0 
36.646314,48.04475,0.0 
36.639094,48.045149,0.0 
36.631517,48.045527,0.0 
36.622874,48.045936,0.0 
36.612457,48.046427,0.0 
36.59956,48.047051,0.0 
36.612731,48.046004,0.0 
36.625074,48.045135,0.0 
36.6365,48.044379,0.0 
36.64692,48.043673,0.0 
36.656245,48.042952,0.0 
36.664386,48.042152,0.0 
36.671256,48.04121,0.0 
36.676764,48.04006,0.0 
36.680822,48.038639,0.0 
36.68055,48.037863,0.0 
36.676433,48.037379,0.0 
36.669559,48.037063,0.0 
36.66102,48.036793,0.0 
36.651903,48.036444,0.0 
36.6433,48.035895,0.0 
36.636301,48.035021,0.0 
36.631994,48.033701,0.0 
36.63147,48.03181,0.0 
36.635556,48.028521,0.0 
36.641822,48.02579,0.0 
36.649811,48.023393,0.0 
36.659063,48.021106,0.0 
36.669122,48.018705,0.0 
36.67953,48.015966,0.0 
36.689829,48.012665,0.0 
36.699562,48.008579,0.0 
36.70444217848044,48.00572251519122,0.0 
</coordinates>
            </LinearRing>
          </outerBoundaryIs>
        </Polygon>
        <Polygon>
          <outerBoundaryIs>
            <LinearRing>
              <tessellate>1</tessellate>
              <coordinates>
              36.709064,48.081795,0.0 
36.709679,48.076771,0.0 
36.709397,48.071609,0.0 
36.70786,48.06628,0.0 
36.706479,48.063818,0.0 
36.704667,48.061846,0.0 
36.702498,48.060364,0.0 
36.700047,48.059375,0.0 
36.697389,48.058878,0.0 
36.69523043150302,48.058876453747494,0.0 
36.698627,48.058112,0.0 
36.704299,48.05763,0.0 
36.709709,48.057861,0.0 
36.714939,48.058645,0.0 
36.720072,48.059824,0.0 
36.725188,48.061238,0.0 
36.73037,48.06273,0.0 
36.7357,48.06414,0.0 
36.736541,48.064503,0.0 
36.73657,48.064967,0.0 
36.735935,48.065539,0.0 
36.734786,48.066226,0.0 
36.733272,48.067036,0.0 
36.73154,48.067974,0.0 
36.729741,48.069048,0.0 
36.728023,48.070264,0.0 
36.726534,48.07163,0.0 
36.724932,48.073559,0.0 
36.723734,48.075338,0.0 
36.722821,48.076982,0.0 
36.722075,48.078506,0.0 
36.721377,48.079924,0.0 
36.720609,48.081253,0.0 
36.719652,48.082507,0.0 
36.718387,48.0837,0.0 
36.716697,48.084848,0.0 
36.715706,48.085095,0.0 
36.714689,48.084816,0.0 
36.713671,48.084175,0.0 
36.712681,48.083332,0.0 
36.711744,48.082451,0.0 
36.710888,48.081695,0.0 
36.710138,48.081225,0.0 
36.709521,48.081204,0.0 
36.709064,48.081795,0.0 
              </coordinates>
            </LinearRing>
          </outerBoundaryIs>
        </Polygon>
</MultiGeometry>
    </Placemark>
    
  </Document>
</kml>
