<?xml version="1.0" encoding="UTF-8"?>
<kml xmlns="http://www.opengis.net/kml/2.2">
  <Document>
    <name>Слой без названия</name>
    <Style id="poly-FFFFFF-180-77-nodesc-normal">
      <LineStyle>
        <color>ffffffff</color>
        <width>0.18</width>
      </LineStyle>
      <PolyStyle>
        <color>4dffffff</color>
        <fill>1</fill>
        <outline>1</outline>
      </PolyStyle>
      <BalloonStyle>
        <text><![CDATA[<h3>$[name]</h3>]]></text>
      </BalloonStyle>
    </Style>
    <Style id="poly-FFFFFF-180-77-nodesc-highlight">
      <LineStyle>
        <color>ffffffff</color>
        <width>0.27</width>
      </LineStyle>
      <PolyStyle>
        <color>4dffffff</color>
        <fill>1</fill>
        <outline>1</outline>
      </PolyStyle>
      <BalloonStyle>
        <text><![CDATA[<h3>$[name]</h3>]]></text>
      </BalloonStyle>
    </Style>
    <StyleMap id="poly-FFFFFF-180-77-nodesc">
      <Pair>
        <key>normal</key>
        <styleUrl>#poly-FFFFFF-180-77-nodesc-normal</styleUrl>
      </Pair>
      <Pair>
        <key>highlight</key>
        <styleUrl>#poly-FFFFFF-180-77-nodesc-highlight</styleUrl>
      </Pair>
    </StyleMap>
    
    <Placemark>
      <name>продвижения ВС РФ за 18 - 21 сентября</name>
      <description>ВС РФ</description>
      <styleUrl>#poly-FFFFFF-180-77-nodesc</styleUrl>
      <MultiGeometry>
        <Polygon>
          <outerBoundaryIs>
            <LinearRing>
              <tessellate>1</tessellate>
              <coordinates>
              36.21199908578349,47.878556448712686,0.0 
36.210244,47.878885,0.0 
36.20328,47.880795,0.0 
36.197119,47.882879,0.0 
36.192243,47.884763,0.0 
36.189139,47.886076,0.0 
36.188289,47.886442,0.0 
36.19018,47.88549,0.0 
36.202184,47.879963,0.0 
36.214845,47.875032,0.0 
36.228162,47.870395,0.0 
36.242131,47.865753,0.0 
36.25675,47.860806,0.0 
36.272017,47.855254,0.0 
36.287929,47.848798,0.0 
36.304484,47.841136,0.0 
36.32168,47.83197,0.0 
36.307573,47.840147,0.0 
36.294226,47.846783,0.0 
36.281479,47.852235,0.0 
36.269171,47.856863,0.0 
36.257142,47.861022,0.0 
36.245232,47.865073,0.0 
36.23328,47.869372,0.0 
36.221126,47.874277,0.0 
36.21199908578349,47.878556448712686,0.0 
</coordinates>
            </LinearRing>
          </outerBoundaryIs>
        </Polygon>
        <Polygon>
          <outerBoundaryIs>
            <LinearRing>
              <tessellate>1</tessellate>
              <coordinates>
              37.01253,48.36731,0.0 
37.006244,48.368132,0.0 
36.999962,48.369099,0.0 
36.993911,48.370107,0.0 
36.98832,48.371051,0.0 
36.983414,48.371829,0.0 
36.979423,48.372335,0.0 
36.976574,48.372467,0.0 
36.975094,48.37212,0.0 
36.97521,48.37119,0.0 
36.977598,48.369416,0.0 
36.981547,48.367813,0.0 
36.986754,48.366225,0.0 
36.992917,48.364496,0.0 
36.999735,48.362472,0.0 
37.006906,48.359997,0.0 
37.014128,48.356915,0.0 
37.021099,48.35307,0.0 
37.027517,48.348308,0.0 
37.026023,48.351659,0.0 
37.023856,48.35465,0.0 
37.021287,48.357302,0.0 
37.018586,48.359637,0.0 
37.016021,48.361677,0.0 
37.013863,48.363443,0.0 
37.012382,48.364956,0.0 
37.011848,48.366238,0.0 
37.01253,48.36731,0.0 
</coordinates>
            </LinearRing>
          </outerBoundaryIs>
        </Polygon>
        <Polygon>
          <outerBoundaryIs>
            <LinearRing>
              <tessellate>1</tessellate>
              <coordinates>
              37.08832,48.36555,0.0 
37.091973,48.367297,0.0 
37.095319,48.369255,0.0 
37.098294,48.371403,0.0 
37.100828,48.373724,0.0 
37.102856,48.376197,0.0 
37.10431,48.378805,0.0 
37.105124,48.381527,0.0 
37.105229,48.384345,0.0 
37.10456,48.38724,0.0 
37.102845,48.390882,0.0 
37.100692,48.393793,0.0 
37.098094,48.396136,0.0 
37.095047,48.398076,0.0 
37.091544,48.399777,0.0 
37.087579,48.401405,0.0 
37.083148,48.403123,0.0 
37.078243,48.405097,0.0 
37.07286,48.40749,0.0 
37.066791,48.410014,0.0 
37.060513,48.412088,0.0 
37.054325,48.413781,0.0 
37.04852,48.415163,0.0 
37.043395,48.416302,0.0 
37.039246,48.417268,0.0 
37.036368,48.41813,0.0 
37.035057,48.418958,0.0 
37.03561,48.41982,0.0 
37.032956,48.418458,0.0 
37.030772,48.416578,0.0 
37.029088,48.414288,0.0 
37.027928,48.411698,0.0 
37.027321,48.408919,0.0 
37.027294,48.406059,0.0 
37.027873,48.40323,0.0 
37.029086,48.40054,0.0 
37.03096,48.3981,0.0 
37.037945,48.391998,0.0 
37.045539,48.387067,0.0 
37.053415,48.383072,0.0 
37.061248,48.379777,0.0 
37.068709,48.376946,0.0 
37.075474,48.374344,0.0 
37.081215,48.371734,0.0 
37.085606,48.368881,0.0 
37.08832,48.36555,0.0 
</coordinates>
            </LinearRing>
          </outerBoundaryIs>
        </Polygon>
        <Polygon>
          <outerBoundaryIs>
            <LinearRing>
              <tessellate>1</tessellate>
              <coordinates>
              37.11705014848836,48.424387723209186,0.0 
37.116522,48.424596,0.0 
37.109199,48.429015,0.0 
37.102795,48.434154,0.0 
37.097195,48.439606,0.0 
37.092284,48.444968,0.0 
37.087946,48.449834,0.0 
37.084066,48.4538,0.0 
37.080529,48.45646,0.0 
37.07722,48.45741,0.0 
37.076336,48.456391,0.0 
37.077554,48.453658,0.0 
37.080251,48.449621,0.0 
37.083805,48.444689,0.0 
37.087592,48.43927,0.0 
37.09099,48.433773,0.0 
37.093376,48.428606,0.0 
37.094127,48.424179,0.0 
37.09284897932273,48.42139822375531,0.0 
37.09729,48.42142,0.0 
37.101524,48.421707,0.0 
37.10513,48.422306,0.0 
37.10825,48.42305,0.0 
37.11103,48.423775,0.0 
37.113614,48.424313,0.0 
37.116146,48.424501,0.0 
37.11705014848836,48.424387723209186,0.0 
</coordinates>
            </LinearRing>
          </outerBoundaryIs>
        </Polygon>
        <Polygon>
          <outerBoundaryIs>
            <LinearRing>
              <tessellate>1</tessellate>
              <coordinates>
              37.177354,48.45238,0.0 
37.180294,48.449738,0.0 
37.182743,48.446763,0.0 
37.184655,48.443576,0.0 
37.185981,48.440299,0.0 
37.186676,48.437053,0.0 
37.186693,48.433959,0.0 
37.185985,48.431138,0.0 
37.184505,48.428711,0.0 
37.182207,48.4268,0.0 
37.17633,48.423546,0.0 
37.170653,48.420925,0.0 
37.165037,48.418949,0.0 
37.159344,48.41763,0.0 
37.153436,48.41698,0.0 
37.147174,48.417011,0.0 
37.140419,48.417733,0.0 
37.133034,48.419159,0.0 
37.12488,48.4213,0.0 
37.130582,48.417068,0.0 
37.134881,48.41306,0.0 
37.138153,48.409154,0.0 
37.140777,48.405229,0.0 
37.14313,48.401164,0.0 
37.145588,48.396838,0.0 
37.14853,48.392129,0.0 
37.152332,48.386917,0.0 
37.157371,48.381081,0.0 
37.158297,48.380115,0.0 
37.159218,48.379226,0.0 
37.16013,48.378451,0.0 
37.161027,48.377826,0.0 
37.161906,48.377386,0.0 
37.162762,48.377168,0.0 
37.163591,48.377209,0.0 
37.164388,48.377544,0.0 
37.16515,48.37821,0.0 
37.167209,48.380747,0.0 
37.168762,48.38308,0.0 
37.169934,48.385309,0.0 
37.170849,48.387537,0.0 
37.171632,48.389863,0.0 
37.172409,48.392389,0.0 
37.173304,48.395216,0.0 
37.174443,48.398446,0.0 
37.17595,48.40218,0.0 
37.176127,48.402603,0.0 
37.17626,48.402949,0.0 
37.176359,48.40324,0.0 
37.176432,48.403501,0.0 
37.17649,48.403753,0.0 
37.176543,48.40402,0.0 
37.176599,48.404325,0.0 
37.176668,48.404691,0.0 
37.17676,48.40514,0.0 
37.176788,48.405413,0.0 
37.176767,48.40567,0.0 
37.176716,48.405908,0.0 
37.176657,48.406126,0.0 
37.17661,48.406323,0.0 
37.176595,48.406496,0.0 
37.176633,48.406644,0.0 
37.176744,48.406766,0.0 
37.17695,48.40686,0.0 
37.179292,48.407513,0.0 
37.181248,48.407946,0.0 
37.182932,48.408223,0.0 
37.18446,48.408412,0.0 
37.185945,48.408578,0.0 
37.187502,48.408786,0.0 
37.189247,48.409104,0.0 
37.191294,48.409595,0.0 
37.193758,48.410327,0.0 
37.197243,48.411321,0.0 
37.2005,48.412061,0.0 
37.203503,48.412651,0.0 
37.206228,48.4132,0.0 
37.208646,48.413813,0.0 
37.210734,48.414598,0.0 
37.212464,48.415662,0.0 
37.213812,48.41711,0.0 
37.21475,48.41905,0.0 
37.215108,48.42104,0.0 
37.214875,48.422902,0.0 
37.214116,48.42468,0.0 
37.212896,48.426418,0.0 
37.21128,48.428161,0.0 
37.209334,48.429954,0.0 
37.207121,48.43184,0.0 
37.204708,48.433864,0.0 
37.20216,48.43607,0.0 
37.198868,48.438967,0.0 
37.196143,48.441266,0.0 
37.193801,48.443107,0.0 
37.191654,48.44463,0.0 
37.189518,48.445975,0.0 
37.187205,48.447283,0.0 
37.184531,48.448692,0.0 
37.181309,48.450345,0.0 
37.177354,48.45238,0.0 
</coordinates>
            </LinearRing>
          </outerBoundaryIs>
        </Polygon>
        <Polygon>
          <outerBoundaryIs>
            <LinearRing>
              <tessellate>1</tessellate>
              <coordinates>
              37.74243,48.56984,0.0 
37.739461,48.573279,0.0 
37.7378,48.576798,0.0 
37.737124,48.580434,0.0 
37.737109,48.584222,0.0 
37.737433,48.588199,0.0 
37.737771,48.592402,0.0 
37.737801,48.596867,0.0 
37.737198,48.601631,0.0 
37.73564,48.60673,0.0 
37.734981,48.608028,0.0 
37.734171,48.609086,0.0 
37.733231,48.609906,0.0 
37.732185,48.610493,0.0 
37.731053,48.610849,0.0 
37.729857,48.610977,0.0 
37.728621,48.610881,0.0 
37.727364,48.610564,0.0 
37.72611,48.61003,0.0 
37.724198,48.608786,0.0 
37.722812,48.607375,0.0 
37.721795,48.605835,0.0 
37.720995,48.604203,0.0 
37.720255,48.602518,0.0 
37.719422,48.600816,0.0 
37.718339,48.599135,0.0 
37.716854,48.597514,0.0 
37.71481,48.59599,0.0 
37.715972,48.595049,0.0 
37.716641,48.593949,0.0 
37.716947,48.592708,0.0 
37.717026,48.591344,0.0 
37.71701,48.589876,0.0 
37.717032,48.588321,0.0 
37.717226,48.586698,0.0 
37.717724,48.585025,0.0 
37.71866,48.58332,0.0 
37.719731,48.58188,0.0 
37.720698,48.580769,0.0 
37.721612,48.579914,0.0 
37.722524,48.579238,0.0 
37.723485,48.578667,0.0 
37.724547,48.578125,0.0 
37.725761,48.577536,0.0 
37.727178,48.576826,0.0 
37.72885,48.57592,0.0 
37.730773,48.574801,0.0 
37.732328,48.573857,0.0 
37.733628,48.573063,0.0 
37.734786,48.572388,0.0 
37.735917,48.571806,0.0 
37.737133,48.571288,0.0 
37.738548,48.570806,0.0 
37.740276,48.570333,0.0 
37.74243,48.56984,0.0 
</coordinates>
            </LinearRing>
          </outerBoundaryIs>
        </Polygon>
        <Polygon>
          <outerBoundaryIs>
            <LinearRing>
              <tessellate>1</tessellate>
              <coordinates>
              37.762156,49.632693,0.0 
37.756134,49.631216,0.0 
37.751098,49.630512,0.0 
37.746749,49.630393,0.0 
37.742785,49.63067,0.0 
37.738905,49.631155,0.0 
37.734808,49.631659,0.0 
37.730194,49.631993,0.0 
37.724761,49.63197,0.0 
37.718209,49.6314,0.0 
37.714532,49.630844,0.0 
37.711591,49.630213,0.0 
37.709179,49.629512,0.0 
37.707087,49.628747,0.0 
37.70511,49.627924,0.0 
37.70304,49.627048,0.0 
37.70067,49.626125,0.0 
37.697794,49.62516,0.0 
37.694203,49.624158,0.0 
37.698763,49.624273,0.0 
37.702454,49.624317,0.0 
37.705521,49.624327,0.0 
37.708212,49.624338,0.0 
37.710776,49.624383,0.0 
37.713458,49.624498,0.0 
37.716506,49.624717,0.0 
37.720168,49.625076,0.0 
37.72469,49.62561,0.0 
37.73039,49.626238,0.0 
37.735088,49.626624,0.0 
37.739048,49.626889,0.0 
37.742534,49.627152,0.0 
37.745814,49.627536,0.0 
37.74915,49.628161,0.0 
37.752809,49.629148,0.0 
37.757056,49.630619,0.0 
37.762156,49.632693,0.0 
              </coordinates>
            </LinearRing>
          </outerBoundaryIs>
        </Polygon>
</MultiGeometry>
    </Placemark>
    
    <Placemark>
      <name>продвижения ВСУ за 18 - 21 сентября</name>
      <description>ВСУ</description>
      <styleUrl>#poly-FFFFFF-180-77-nodesc</styleUrl>
      <MultiGeometry>
        <Polygon>
          <outerBoundaryIs>
            <LinearRing>
              <tessellate>1</tessellate>
              <coordinates>
              36.50753,47.96467,0.0 
36.508377,47.965625,0.0 
36.509908,47.966229,0.0 
36.512043,47.96651,0.0 
36.514698,47.966499,0.0 
36.517792,47.966226,0.0 
36.521241,47.965718,0.0 
36.524965,47.965006,0.0 
36.528881,47.96412,0.0 
36.532906,47.963088,0.0 
36.540706,47.960658,0.0 
36.54693,47.958137,0.0 
36.552028,47.955596,0.0 
36.556453,47.953107,0.0 
36.560656,47.950741,0.0 
36.565089,47.948569,0.0 
36.570203,47.946665,0.0 
36.576449,47.945098,0.0 
36.58428,47.94394,0.0 
36.591521,47.943301,0.0 
36.597478,47.943072,0.0 
36.602514,47.943249,0.0 
36.606988,47.943823,0.0 
36.611262,47.944789,0.0 
36.615695,47.946139,0.0 
36.620649,47.947867,0.0 
36.626484,47.949966,0.0 
36.63356,47.95243,0.0 
36.626605,47.95148,0.0 
36.620904,47.95131,0.0 
36.616086,47.951786,0.0 
36.611779,47.952771,0.0 
36.607614,47.954129,0.0 
36.60322,47.955725,0.0 
36.598226,47.957423,0.0 
36.592261,47.959087,0.0 
36.584955,47.960581,0.0 
36.577337,47.961962,0.0 
36.571187,47.963242,0.0 
36.566085,47.96442,0.0 
36.561612,47.965493,0.0 
36.557349,47.966458,0.0 
36.552877,47.967313,0.0 
36.547776,47.968055,0.0 
36.541627,47.968682,0.0 
36.53401,47.96919,0.0 
36.529672,47.969387,0.0 
36.52553,47.969489,0.0 
36.52165,47.969462,0.0 
36.518096,47.969272,0.0 
36.514935,47.968884,0.0 
36.512233,47.968264,0.0 
36.510054,47.967378,0.0 
36.508465,47.966191,0.0 
36.50753,47.96467,0.0 
</coordinates>
            </LinearRing>
          </outerBoundaryIs>
        </Polygon>
        <Polygon>
          <outerBoundaryIs>
            <LinearRing>
              <tessellate>1</tessellate>
              <coordinates>
              37.813920591767406,48.99830566501306,0.0 
37.814139,48.997857,0.0 
37.814415,48.996589,0.0 
37.814424,48.995252,0.0 
37.814177,48.993906,0.0 
37.813686,48.992613,0.0 
37.812962,48.991435,0.0 
37.812016,48.990432,0.0 
37.809957,48.988984,0.0 
37.807869,48.98803,0.0 
37.805759,48.987446,0.0 
37.803634,48.98711,0.0 
37.801501,48.986899,0.0 
37.799367,48.98669,0.0 
37.797239,48.986361,0.0 
37.795124,48.985788,0.0 
37.79303,48.98485,0.0 
37.792697,48.984567,0.0 
37.792651,48.984266,0.0 
37.792847,48.983949,0.0 
37.793239,48.983619,0.0 
37.793783,48.983276,0.0 
37.794434,48.982922,0.0 
37.795146,48.98256,0.0 
37.795876,48.98219,0.0 
37.796577,48.981815,0.0 
37.797866,48.981049,0.0 
37.798916,48.98036,0.0 
37.7998,48.979748,0.0 
37.80059,48.979214,0.0 
37.801358,48.978761,0.0 
37.802177,48.978388,0.0 
37.803117,48.978096,0.0 
37.804252,48.977888,0.0 
37.805654,48.977763,0.0 
37.807264,48.977779,0.0 
37.808571,48.977986,0.0 
37.809662,48.978335,0.0 
37.810628,48.978779,0.0 
37.811557,48.97927,0.0 
37.812537,48.97976,0.0 
37.813659,48.980203,0.0 
37.81501,48.98055,0.0 
37.81668,48.980753,0.0 
37.818272,48.980853,0.0 
37.8196,48.980922,0.0 
37.820733,48.980944,0.0 
37.82174,48.980902,0.0 
37.822689,48.980777,0.0 
37.82365,48.980553,0.0 
37.82469,48.980212,0.0 
37.825879,48.979738,0.0 
37.827285,48.979111,0.0 
37.826539,48.980194,0.0 
37.825938,48.981086,0.0 
37.825451,48.981846,0.0 
37.825048,48.982534,0.0 
37.824698,48.983208,0.0 
37.824372,48.983927,0.0 
37.82404,48.98475,0.0 
37.82367,48.985735,0.0 
37.823233,48.986942,0.0 
37.823164,48.987289,0.0 
37.823202,48.987593,0.0 
37.823313,48.987866,0.0 
37.823462,48.988116,0.0 
37.823616,48.988352,0.0 
37.82374,48.988585,0.0 
37.823802,48.988825,0.0 
37.823766,48.98908,0.0 
37.8236,48.98936,0.0 
37.822382,48.99079,0.0 
37.821329,48.991919,0.0 
37.820387,48.992831,0.0 
37.819497,48.993607,0.0 
37.818602,48.994331,0.0 
37.817648,48.995087,0.0 
37.816575,48.995957,0.0 
37.815328,48.997023,0.0 
37.813920591767406,48.99830566501306,0.0 
</coordinates>
            </LinearRing>
          </outerBoundaryIs>
        </Polygon>
        <Polygon>
          <outerBoundaryIs>
            <LinearRing>
              <tessellate>1</tessellate>
              <coordinates>
              37.81455,49.049104,0.0 
37.81,49.047223,0.0 
37.806098,49.045732,0.0 
37.802715,49.044475,0.0 
37.799725,49.043299,0.0 
37.797,49.042047,0.0 
37.794412,49.040567,0.0 
37.791835,49.038702,0.0 
37.78914,49.036298,0.0 
37.7862,49.0332,0.0 
37.785201,49.031698,0.0 
37.784868,49.030278,0.0 
37.785037,49.028895,0.0 
37.78555,49.027502,0.0 
37.786244,49.026053,0.0 
37.786959,49.024502,0.0 
37.787533,49.022802,0.0 
37.787805,49.020907,0.0 
37.787615,49.018772,0.0 
37.795378,49.021687,0.0 
37.802913,49.02355,0.0 
37.810126,49.024653,0.0 
37.816922,49.025283,0.0 
37.823209,49.025732,0.0 
37.828893,49.026287,0.0 
37.833881,49.027239,0.0 
37.838077,49.028877,0.0 
37.84139,49.03149,0.0 
37.841905,49.033334,0.0 
37.840462,49.035161,0.0 
37.837524,49.036992,0.0 
37.833558,49.038845,0.0 
37.829026,49.040739,0.0 
37.824395,49.042693,0.0 
37.820129,49.044726,0.0 
37.816692,49.046857,0.0 
37.81455,49.049104,0.0 
</coordinates>
            </LinearRing>
          </outerBoundaryIs>
        </Polygon>
        <Polygon>
          <outerBoundaryIs>
            <LinearRing>
              <tessellate>1</tessellate>
              <coordinates>
              37.72607016457852,49.04495335781466,0.0 
37.725454,49.047914,0.0 
37.725221,49.050541,0.0 
37.72529,49.052838,0.0 
37.725548,49.054956,0.0 
37.725884,49.057041,0.0 
37.726187,49.059243,0.0 
37.726343,49.061709,0.0 
37.726241,49.064589,0.0 
37.72577,49.06803,0.0 
37.72477,49.073173,0.0 
37.72385,49.077312,0.0 
37.72296,49.080729,0.0 
37.722055,49.083707,0.0 
37.721085,49.086527,0.0 
37.720003,49.089471,0.0 
37.718762,49.092822,0.0 
37.717313,49.096861,0.0 
37.71561,49.10187,0.0 
37.714256,49.105309,0.0 
37.712752,49.108201,0.0 
37.711207,49.110676,0.0 
37.709731,49.112865,0.0 
37.708434,49.114899,0.0 
37.707426,49.116909,0.0 
37.706818,49.119025,0.0 
37.706719,49.121378,0.0 
37.70724,49.1241,0.0 
37.689389,49.121978,0.0 
37.67209,49.12091,0.0 
37.655699,49.120575,0.0 
37.640574,49.120652,0.0 
37.62707,49.12082,0.0 
37.615545,49.120757,0.0 
37.606356,49.120143,0.0 
37.599859,49.118656,0.0 
37.596411,49.115976,0.0 
37.596828,49.113208,0.0 
37.60084,49.110624,0.0 
37.607941,49.10809,0.0 
37.617626,49.105471,0.0 
37.62939,49.102631,0.0 
37.642727,49.099435,0.0 
37.65713,49.095749,0.0 
37.672096,49.091437,0.0 
37.687117,49.086365,0.0 
37.691223,49.084912,0.0 
37.694678,49.083771,0.0 
37.697624,49.082805,0.0 
37.700203,49.081879,0.0 
37.702557,49.080855,0.0 
37.704829,49.079598,0.0 
37.70716,49.077971,0.0 
37.709693,49.075837,0.0 
37.71257,49.07306,0.0 
37.714126,49.071138,0.0 
37.715007,49.069311,0.0 
37.715394,49.067535,0.0 
37.715467,49.065768,0.0 
37.715405,49.063969,0.0 
37.715389,49.062096,0.0 
37.715597,49.060105,0.0 
37.716211,49.057956,0.0 
37.717409,49.055605,0.0 
37.719105,49.052944,0.0 
37.720566,49.050767,0.0 
37.721897,49.048974,0.0 
37.723202,49.047464,0.0 
37.724583,49.046137,0.0 
37.72607016457852,49.04495335781466,0.0 
              </coordinates>
            </LinearRing>
          </outerBoundaryIs>
        </Polygon>
</MultiGeometry>
    </Placemark>
    
  </Document>
</kml>
