<?xml version="1.0" encoding="UTF-8"?>
<kml xmlns="http://www.opengis.net/kml/2.2">
  <Document>
    <name>Слой без названия</name>
    <Style id="poly-FFFFFF-180-77-nodesc-normal">
      <LineStyle>
        <color>ffffffff</color>
        <width>0.18</width>
      </LineStyle>
      <PolyStyle>
        <color>4dffffff</color>
        <fill>1</fill>
        <outline>1</outline>
      </PolyStyle>
      <BalloonStyle>
        <text><![CDATA[<h3>$[name]</h3>]]></text>
      </BalloonStyle>
    </Style>
    <Style id="poly-FFFFFF-180-77-nodesc-highlight">
      <LineStyle>
        <color>ffffffff</color>
        <width>0.27</width>
      </LineStyle>
      <PolyStyle>
        <color>4dffffff</color>
        <fill>1</fill>
        <outline>1</outline>
      </PolyStyle>
      <BalloonStyle>
        <text><![CDATA[<h3>$[name]</h3>]]></text>
      </BalloonStyle>
    </Style>
    <StyleMap id="poly-FFFFFF-180-77-nodesc">
      <Pair>
        <key>normal</key>
        <styleUrl>#poly-FFFFFF-180-77-nodesc-normal</styleUrl>
      </Pair>
      <Pair>
        <key>highlight</key>
        <styleUrl>#poly-FFFFFF-180-77-nodesc-highlight</styleUrl>
      </Pair>
    </StyleMap>
    
    <Placemark>
      <name>продвижения ВС РФ за 10 - 13 сентября</name>
      <description>ВС РФ</description>
      <styleUrl>#poly-FFFFFF-180-77-nodesc</styleUrl>
      <MultiGeometry>
        <Polygon>
          <outerBoundaryIs>
            <LinearRing>
              <tessellate>1</tessellate>
              <coordinates>
              36.249810998529,50.290687689882475,0.0 
36.249929,50.290217,0.0 
36.250649,50.289252,0.0 
36.251776,50.288387,0.0 
36.25327,50.287617,0.0 
36.255089,50.286934,0.0 
36.257192,50.286331,0.0 
36.259538,50.285803,0.0 
36.262084,50.285341,0.0 
36.26479,50.28494,0.0 
36.267667,50.28459,0.0 
36.270089,50.284385,0.0 
36.272187,50.284317,0.0 
36.274088,50.284383,0.0 
36.275922,50.284576,0.0 
36.277819,50.284891,0.0 
36.279908,50.285322,0.0 
36.282319,50.285864,0.0 
36.28518,50.28651,0.0 
36.287188,50.28701,0.0 
36.28875,50.287509,0.0 
36.289985,50.288021,0.0 
36.291013,50.288559,0.0 
36.291951,50.28914,0.0 
36.292919,50.289775,0.0 
36.294036,50.29048,0.0 
36.295419,50.29127,0.0 
36.297188,50.292157,0.0 
36.29194,50.291724,0.0 
36.287699,50.291317,0.0 
36.284177,50.29094,0.0 
36.281089,50.290596,0.0 
36.278146,50.290288,0.0 
36.275064,50.290019,0.0 
36.271555,50.289793,0.0 
36.267333,50.289612,0.0 
36.26211,50.28948,0.0 
36.260006,50.28945,0.0 
36.257941,50.289446,0.0 
36.255975,50.289481,0.0 
36.254169,50.28957,0.0 
36.252583,50.289726,0.0 
36.251279,50.289962,0.0 
36.250316,50.290292,0.0 
36.249810998529,50.290687689882475,0.0 
</coordinates>
            </LinearRing>
          </outerBoundaryIs>
        </Polygon>
        <Polygon>
          <outerBoundaryIs>
            <LinearRing>
              <tessellate>1</tessellate>
              <coordinates>
              37.53007,50.25243,0.0 
37.542172,50.251965,0.0 
37.551974,50.251512,0.0 
37.560128,50.25109,0.0 
37.567286,50.250721,0.0 
37.574099,50.250426,0.0 
37.581221,50.250225,0.0 
37.589301,50.250139,0.0 
37.598994,50.250187,0.0 
37.61095,50.25039,0.0 
37.613442,50.250512,0.0 
37.615416,50.250748,0.0 
37.617015,50.251085,0.0 
37.61838,50.251512,0.0 
37.619655,50.252015,0.0 
37.620982,50.252582,0.0 
37.622503,50.2532,0.0 
37.624361,50.253857,0.0 
37.626699,50.25454,0.0 
37.6236,50.254284,0.0 
37.621101,50.254045,0.0 
37.61903,50.253825,0.0 
37.617216,50.253624,0.0 
37.615485,50.253444,0.0 
37.613667,50.253286,0.0 
37.611587,50.25315,0.0 
37.609076,50.253038,0.0 
37.60596,50.25295,0.0 
37.594626,50.252694,0.0 
37.58547,50.252477,0.0 
37.577868,50.252303,0.0 
37.571199,50.252176,0.0 
37.56484,50.252103,0.0 
37.55817,50.252088,0.0 
37.550566,50.252134,0.0 
37.541407,50.252247,0.0 
37.53007,50.25243,0.0 
</coordinates>
            </LinearRing>
          </outerBoundaryIs>
        </Polygon>
        <Polygon>
          <outerBoundaryIs>
            <LinearRing>
              <tessellate>1</tessellate>
              <coordinates>
              37.643847068783124,48.558714181755285,0.0 
37.646227,48.557354,0.0 
37.650469,48.554492,0.0 
37.65411,48.551324,0.0 
37.65692,48.54777,0.0 
37.657216,48.546494,0.0 
37.656387,48.545652,0.0 
37.654689,48.545111,0.0 
37.652378,48.544738,0.0 
37.64971,48.544401,0.0 
37.64694,48.543966,0.0 
37.644324,48.543301,0.0 
37.642119,48.542273,0.0 
37.64058,48.54075,0.0 
37.642868,48.542053,0.0 
37.645895,48.542731,0.0 
37.64936,48.542962,0.0 
37.652961,48.542923,0.0 
37.656399,48.542792,0.0 
37.659373,48.542745,0.0 
37.661581,48.542961,0.0 
37.662724,48.543617,0.0 
37.6625,48.54489,0.0 
37.659628,48.548415,0.0 
37.655698,48.55169,0.0 
37.650977,48.554774,0.0 
37.645732,48.557727,0.0 
37.643847068783124,48.558714181755285,0.0 
</coordinates>
            </LinearRing>
          </outerBoundaryIs>
        </Polygon>
        <Polygon>
          <outerBoundaryIs>
            <LinearRing>
              <tessellate>1</tessellate>
              <coordinates>
              36.988411,48.2696,0.0 
36.996861,48.268881,0.0 
37.003854,48.267967,0.0 
37.00977,48.266926,0.0 
37.014992,48.265822,0.0 
37.019901,48.264724,0.0 
37.024879,48.263697,0.0 
37.030308,48.262807,0.0 
37.036569,48.262121,0.0 
37.044045,48.261706,0.0 
37.044664,48.261835,0.0 
37.044788,48.262242,0.0 
37.044552,48.262865,0.0 
37.04409,48.263648,0.0 
37.043539,48.264531,0.0 
37.043034,48.265454,0.0 
37.042708,48.266359,0.0 
37.042699,48.267188,0.0 
37.04314,48.26788,0.0 
37.046455,48.270236,0.0 
37.05001,48.272062,0.0 
37.053632,48.273494,0.0 
37.05715,48.274665,0.0 
37.060391,48.275711,0.0 
37.063183,48.276765,0.0 
37.065353,48.277962,0.0 
37.066729,48.279437,0.0 
37.067138,48.281324,0.0 
37.066183,48.283235,0.0 
37.063849,48.284636,0.0 
37.060526,48.285691,0.0 
37.0566,48.286566,0.0 
37.052461,48.287427,0.0 
37.048496,48.288439,0.0 
37.045094,48.289768,0.0 
37.042643,48.29158,0.0 
37.04153,48.29404,0.0 
37.035284,48.293826,0.0 
37.029618,48.295055,0.0 
37.024418,48.297277,0.0 
37.019574,48.300043,0.0 
37.014973,48.302905,0.0 
37.010503,48.305412,0.0 
37.006052,48.307116,0.0 
37.001508,48.307569,0.0 
36.99676,48.30632,0.0 
36.993723,48.303931,0.0 
36.992248,48.300569,0.0 
36.991891,48.29647,0.0 
36.992208,48.29187,0.0 
36.992758,48.287005,0.0 
36.993096,48.282109,0.0 
36.99278,48.277419,0.0 
36.991366,48.273171,0.0 
36.988411,48.2696,0.0 
</coordinates>
            </LinearRing>
          </outerBoundaryIs>
        </Polygon>
        <Polygon>
          <outerBoundaryIs>
            <LinearRing>
              <tessellate>1</tessellate>
              <coordinates>
              36.924611,48.19137,0.0 
36.925921,48.193281,0.0 
36.92751,48.194919,0.0 
36.929231,48.196335,0.0 
36.930933,48.19758,0.0 
36.932469,48.198705,0.0 
36.933687,48.19976,0.0 
36.93444,48.200798,0.0 
36.934578,48.201869,0.0 
36.933952,48.203023,0.0 
36.931616,48.205031,0.0 
36.928962,48.206257,0.0 
36.926035,48.206946,0.0 
36.922881,48.207344,0.0 
36.919546,48.207694,0.0 
36.916073,48.208244,0.0 
36.91251,48.209236,0.0 
36.9089,48.210916,0.0 
36.90529,48.21353,0.0 
36.904391,48.211449,0.0 
36.902241,48.209983,0.0 
36.899237,48.208992,0.0 
36.895776,48.20834,0.0 
36.892254,48.207887,0.0 
36.889067,48.207495,0.0 
36.886613,48.207027,0.0 
36.885289,48.206345,0.0 
36.88549,48.20531,0.0 
36.88792,48.203181,0.0 
36.890933,48.201561,0.0 
36.894485,48.200294,0.0 
36.898531,48.199224,0.0 
36.903026,48.198196,0.0 
36.907926,48.197052,0.0 
36.913187,48.195637,0.0 
36.918763,48.193795,0.0 
36.924611,48.19137,0.0 
</coordinates>
            </LinearRing>
          </outerBoundaryIs>
        </Polygon>
        <Polygon>
          <outerBoundaryIs>
            <LinearRing>
              <tessellate>1</tessellate>
              <coordinates>
              35.993382,47.572471,0.0 
35.993688,47.574171,0.0 
35.995666,47.575335,0.0 
35.999061,47.576143,0.0 
36.003613,47.576774,0.0 
36.009068,47.577406,0.0 
36.015167,47.578218,0.0 
36.021653,47.579391,0.0 
36.02827,47.581102,0.0 
36.03476,47.58353,0.0 
36.037988,47.585017,0.0 
36.041248,47.586621,0.0 
36.044366,47.588305,0.0 
36.047168,47.590033,0.0 
36.04948,47.591769,0.0 
36.051129,47.593474,0.0 
36.05194,47.595114,0.0 
36.051739,47.596652,0.0 
36.050354,47.59805,0.0 
36.043183,47.601967,0.0 
36.035506,47.604978,0.0 
36.027487,47.60729,0.0 
36.019289,47.60911,0.0 
36.011078,47.610644,0.0 
36.003015,47.6121,0.0 
35.995266,47.613683,0.0 
35.987993,47.615601,0.0 
35.98136,47.61806,0.0 
35.965641,47.616788,0.0 
35.950177,47.616044,0.0 
35.935421,47.615617,0.0 
35.921829,47.615296,0.0 
35.909855,47.614873,0.0 
35.899954,47.614136,0.0 
35.892582,47.612875,0.0 
35.888192,47.61088,0.0 
35.88724,47.60794,0.0 
35.889988,47.604048,0.0 
35.895825,47.600503,0.0 
35.904397,47.59715,0.0 
35.915348,47.593837,0.0 
35.928324,47.590408,0.0 
35.94297,47.586712,0.0 
35.958931,47.582592,0.0 
35.975854,47.577897,0.0 
35.993382,47.572471,0.0 
</coordinates>
            </LinearRing>
          </outerBoundaryIs>
        </Polygon>
        <Polygon>
          <outerBoundaryIs>
            <LinearRing>
              <tessellate>1</tessellate>
              <coordinates>
              35.922429829049484,47.53112249785208,0.0 
35.920529,47.53145,0.0 
35.918102,47.531948,0.0 
35.915349,47.532535,0.0 
35.912061,47.5332,0.0 
35.90803,47.53393,0.0 
35.902493,47.534795,0.0 
35.897971,47.535384,0.0 
35.894185,47.535812,0.0 
35.89086,47.536196,0.0 
35.887717,47.536651,0.0 
35.88448,47.537294,0.0 
35.880871,47.538241,0.0 
35.876613,47.539608,0.0 
35.87143,47.54151,0.0 
35.866203,47.543811,0.0 
35.862134,47.546142,0.0 
35.85889,47.548472,0.0 
35.856138,47.550773,0.0 
35.853544,47.553018,0.0 
35.850777,47.555176,0.0 
35.847502,47.55722,0.0 
35.843387,47.559121,0.0 
35.8381,47.56085,0.0 
35.832756,47.562175,0.0 
35.828307,47.562993,0.0 
35.824491,47.56338,0.0 
35.821047,47.563413,0.0 
35.817713,47.563168,0.0 
35.814228,47.562722,0.0 
35.81033,47.562151,0.0 
35.805758,47.561531,0.0 
35.80025,47.56094,0.0 
35.807366,47.55919,0.0 
35.813184,47.557642,0.0 
35.818077,47.556203,0.0 
35.822417,47.554779,0.0 
35.826576,47.553278,0.0 
35.830927,47.551604,0.0 
35.835843,47.549666,0.0 
35.841697,47.547369,0.0 
35.84886,47.54462,0.0 
35.849743,47.544302,0.0 
35.850526,47.544033,0.0 
35.851212,47.54378,0.0 
35.851806,47.543511,0.0 
35.85231,47.543193,0.0 
35.852729,47.542793,0.0 
35.853066,47.54228,0.0 
35.853325,47.54162,0.0 
35.85351,47.54078,0.0 
35.853823,47.536695,0.0 
35.85354,47.533065,0.0 
35.852888,47.529803,0.0 
35.852091,47.526817,0.0 
35.851378,47.52402,0.0 
35.850972,47.521321,0.0 
35.851102,47.518631,0.0 
35.851993,47.51586,0.0 
35.85387,47.51292,0.0 
35.857007,47.50928,0.0 
35.860051,47.506341,0.0 
35.863105,47.50402,0.0 
35.866275,47.502232,0.0 
35.869664,47.500892,0.0 
35.873376,47.499917,0.0 
35.877517,47.499222,0.0 
35.88219,47.498722,0.0 
35.8875,47.498333,0.0 
35.892137,47.498176,0.0 
35.89654,47.498318,0.0 
35.900655,47.498774,0.0 
35.904428,47.49956,0.0 
35.907805,47.500689,0.0 
35.91073,47.502177,0.0 
35.913151,47.504038,0.0 
35.915012,47.506288,0.0 
35.91626,47.50894,0.0 
35.916197,47.511703,0.0 
35.91457,47.514539,0.0 
35.911842,47.517392,0.0 
35.908475,47.520207,0.0 
35.904934,47.522926,0.0 
35.90168,47.525494,0.0 
35.899178,47.527855,0.0 
35.89789,47.529953,0.0 
35.89828,47.53173,0.0 
35.900339,47.533247,0.0 
35.902985,47.533879,0.0 
35.906185,47.533831,0.0 
35.909903,47.533307,0.0 
35.914106,47.532511,0.0 
35.91876,47.531648,0.0 
35.922429829049484,47.53112249785208,0.0 
              </coordinates>
            </LinearRing>
          </outerBoundaryIs>
        </Polygon>
</MultiGeometry>
    </Placemark>
    
    <Placemark>
      <name>продвижения ВСУ за 10 - 13 сентября</name>
      <description>ВСУ</description>
      <styleUrl>#poly-FFFFFF-180-77-nodesc</styleUrl>
      <MultiGeometry>
        <Polygon>
          <outerBoundaryIs>
            <LinearRing>
              <tessellate>1</tessellate>
              <coordinates>
              36.127344,47.790333,0.0 
36.131191,47.79362,0.0 
36.134842,47.796283,0.0 
36.13828,47.798468,0.0 
36.141485,47.800323,0.0 
36.144438,47.801991,0.0 
36.14712,47.80362,0.0 
36.149511,47.805356,0.0 
36.151595,47.807344,0.0 
36.15335,47.80973,0.0 
36.153628,47.810645,0.0 
36.153259,47.811309,0.0 
36.152338,47.811764,0.0 
36.150964,47.812052,0.0 
36.149232,47.812216,0.0 
36.147238,47.812296,0.0 
36.145081,47.812336,0.0 
36.142856,47.812377,0.0 
36.14066,47.81246,0.0 
36.135985,47.812676,0.0 
36.132204,47.812768,0.0 
36.129059,47.812762,0.0 
36.126295,47.812684,0.0 
36.123655,47.812563,0.0 
36.120883,47.812423,0.0 
36.117723,47.812293,0.0 
36.113919,47.812199,0.0 
36.109214,47.812168,0.0 
36.113658,47.811678,0.0 
36.117682,47.811331,0.0 
36.121317,47.811034,0.0 
36.124595,47.810693,0.0 
36.127548,47.810215,0.0 
36.130205,47.809505,0.0 
36.1326,47.80847,0.0 
36.134762,47.807016,0.0 
36.136724,47.805049,0.0 
36.137481,47.803681,0.0 
36.137528,47.802324,0.0 
36.136975,47.800945,0.0 
36.135936,47.79951,0.0 
36.134521,47.797986,0.0 
36.132842,47.796339,0.0 
36.131012,47.794537,0.0 
36.129142,47.792546,0.0 
36.127344,47.790333,0.0 
              </coordinates>
            </LinearRing>
          </outerBoundaryIs>
        </Polygon>
</MultiGeometry>
    </Placemark>
    
  </Document>
</kml>
