<?xml version="1.0" encoding="UTF-8"?>
<kml xmlns="http://www.opengis.net/kml/2.2">
  <Document>
    <name>Слой без названия</name>
    <Style id="poly-FFFFFF-180-77-nodesc-normal">
      <LineStyle>
        <color>ffffffff</color>
        <width>0.18</width>
      </LineStyle>
      <PolyStyle>
        <color>4dffffff</color>
        <fill>1</fill>
        <outline>1</outline>
      </PolyStyle>
      <BalloonStyle>
        <text><![CDATA[<h3>$[name]</h3>]]></text>
      </BalloonStyle>
    </Style>
    <Style id="poly-FFFFFF-180-77-nodesc-highlight">
      <LineStyle>
        <color>ffffffff</color>
        <width>0.27</width>
      </LineStyle>
      <PolyStyle>
        <color>4dffffff</color>
        <fill>1</fill>
        <outline>1</outline>
      </PolyStyle>
      <BalloonStyle>
        <text><![CDATA[<h3>$[name]</h3>]]></text>
      </BalloonStyle>
    </Style>
    <StyleMap id="poly-FFFFFF-180-77-nodesc">
      <Pair>
        <key>normal</key>
        <styleUrl>#poly-FFFFFF-180-77-nodesc-normal</styleUrl>
      </Pair>
      <Pair>
        <key>highlight</key>
        <styleUrl>#poly-FFFFFF-180-77-nodesc-highlight</styleUrl>
      </Pair>
    </StyleMap>
    
    <Placemark>
      <name>продвижения ВС РФ за 28 - 31 июля</name>
      <description>ВС РФ</description>
      <styleUrl>#poly-FFFFFF-180-77-nodesc</styleUrl>
      <MultiGeometry>
        <Polygon>
          <outerBoundaryIs>
            <LinearRing>
              <tessellate>1</tessellate>
              <coordinates>
              37.108826,48.379076,0.0 
37.109239,48.379676,0.0 
37.109741,48.380063,0.0 
37.110317,48.380258,0.0 
37.110953,48.380282,0.0 
37.111633,48.380157,0.0 
37.112341,48.379902,0.0 
37.113062,48.379541,0.0 
37.113781,48.379093,0.0 
37.114483,48.37858,0.0 
37.11578,48.377559,0.0 
37.11686,48.376674,0.0 
37.117761,48.375864,0.0 
37.118519,48.375069,0.0 
37.119171,48.374228,0.0 
37.119754,48.37328,0.0 
37.120305,48.372165,0.0 
37.12086,48.370824,0.0 
37.121456,48.369194,0.0 
37.122224,48.366018,0.0 
37.122385,48.363025,0.0 
37.122162,48.360228,0.0 
37.121775,48.357639,0.0 
37.121445,48.35527,0.0 
37.121394,48.353133,0.0 
37.121842,48.351239,0.0 
37.123012,48.349602,0.0 
37.125123,48.348233,0.0 
37.13093,48.345767,0.0 
37.13616,48.344026,0.0 
37.141026,48.34292,0.0 
37.145738,48.342362,0.0 
37.150508,48.342261,0.0 
37.155546,48.342529,0.0 
37.161064,48.343078,0.0 
37.167273,48.343819,0.0 
37.174383,48.344662,0.0 
37.176453,48.345098,0.0 
37.178343,48.345874,0.0 
37.180023,48.346918,0.0 
37.181457,48.348161,0.0 
37.182614,48.349531,0.0 
37.18346,48.35096,0.0 
37.183961,48.352375,0.0 
37.184086,48.353707,0.0 
37.183801,48.354885,0.0 
37.182924,48.355852,0.0 
37.181556,48.356308,0.0 
37.179811,48.356416,0.0 
37.177803,48.356336,0.0 
37.175647,48.356231,0.0 
37.173455,48.356262,0.0 
37.171344,48.35659,0.0 
37.169425,48.357378,0.0 
37.167815,48.358788,0.0 
37.166254,48.360872,0.0 
37.164965,48.362914,0.0 
37.163965,48.364941,0.0 
37.163276,48.366977,0.0 
37.162916,48.369049,0.0 
37.162904,48.371183,0.0 
37.163259,48.373404,0.0 
37.164002,48.375737,0.0 
37.16515,48.37821,0.0 
37.164131,48.37776,0.0 
37.163249,48.3776,0.0 
37.162463,48.377688,0.0 
37.16173,48.377982,0.0 
37.161007,48.378441,0.0 
37.160252,48.379022,0.0 
37.159423,48.379684,0.0 
37.158477,48.380384,0.0 
37.157371,48.381081,0.0 
37.149717,48.385794,0.0 
37.143073,48.390493,0.0 
37.137245,48.395028,0.0 
37.132042,48.399247,0.0 
37.127268,48.402999,0.0 
37.122732,48.406132,0.0 
37.118239,48.408496,0.0 
37.113596,48.409939,0.0 
37.10861,48.41031,0.0 
37.106395,48.409654,0.0 
37.105323,48.408006,0.0 
37.105143,48.405489,0.0 
37.105606,48.402227,0.0 
37.106462,48.398345,0.0 
37.107462,48.393964,0.0 
37.108356,48.38921,0.0 
37.108894,48.384206,0.0 
37.108826,48.379076,0.0 
</coordinates>
            </LinearRing>
          </outerBoundaryIs>
        </Polygon>
        <Polygon>
          <outerBoundaryIs>
            <LinearRing>
              <tessellate>1</tessellate>
              <coordinates>
              37.65264,48.55392,0.0 
37.652992,48.555045,0.0 
37.653829,48.556083,0.0 
37.655077,48.557001,0.0 
37.656665,48.557768,0.0 
37.65852,48.55835,0.0 
37.66057,48.558715,0.0 
37.662743,48.55883,0.0 
37.664967,48.558662,0.0 
37.66717,48.55818,0.0 
37.662407,48.560728,0.0 
37.65787,48.563089,0.0 
37.653602,48.56522,0.0 
37.64965,48.567077,0.0 
37.646057,48.568617,0.0 
37.642869,48.569798,0.0 
37.64013,48.570576,0.0 
37.637886,48.570908,0.0 
37.63618,48.57075,0.0 
37.635669,48.570202,0.0 
37.636048,48.569184,0.0 
37.637187,48.567757,0.0 
37.638955,48.565979,0.0 
37.641221,48.56391,0.0 
37.643853,48.56161,0.0 
37.646721,48.559139,0.0 
37.649694,48.556556,0.0 
37.65264,48.55392,0.0 
</coordinates>
            </LinearRing>
          </outerBoundaryIs>
        </Polygon>
        <Polygon>
          <outerBoundaryIs>
            <LinearRing>
              <tessellate>1</tessellate>
              <coordinates>
              37.61095,50.25039,0.0 
37.592495,50.248577,0.0 
37.574606,50.247416,0.0 
37.557677,50.24669,0.0 
37.542103,50.246179,0.0 
37.528279,50.245666,0.0 
37.516601,50.244932,0.0 
37.507465,50.24376,0.0 
37.501266,50.241932,0.0 
37.4984,50.23923,0.0 
37.499387,50.236356,0.0 
37.504049,50.233754,0.0 
37.511895,50.231301,0.0 
37.522435,50.228874,0.0 
37.535178,50.22635,0.0 
37.549635,50.223606,0.0 
37.565313,50.220518,0.0 
37.581723,50.216965,0.0 
37.598374,50.212823,0.0 
37.598075,50.213549,0.0 
37.598587,50.214142,0.0 
37.599787,50.214642,0.0 
37.601554,50.215087,0.0 
37.603764,50.215515,0.0 
37.606298,50.215967,0.0 
37.609031,50.216481,0.0 
37.611844,50.217096,0.0 
37.614613,50.217851,0.0 
37.614584,50.218781,0.0 
37.61444,50.219668,0.0 
37.615012,50.2224,0.0 
37.621472,50.231671,0.0 
37.623504,50.234524,0.0 
37.62473,50.236535,0.0 
37.626458,50.239247,0.0 
37.624956,50.239652,0.0 
37.623659,50.239926,0.0 
37.622526,50.240117,0.0 
37.621512,50.240272,0.0 
37.620575,50.240438,0.0 
37.619673,50.240663,0.0 
37.618762,50.240994,0.0 
37.617799,50.24148,0.0 
37.616742,50.242167,0.0 
37.615311,50.243189,0.0 
37.613978,50.244156,0.0 
37.612785,50.245081,0.0 
37.611775,50.245975,0.0 
37.61099,50.246849,0.0 
37.610473,50.247716,0.0 
37.610266,50.248587,0.0 
37.610411,50.249475,0.0 
37.61095,50.25039,0.0 
</coordinates>
            </LinearRing>
          </outerBoundaryIs>
        </Polygon>
        <Polygon>
          <outerBoundaryIs>
            <LinearRing>
              <tessellate>1</tessellate>
              <coordinates>
              37.135807,50.306428,0.0 
37.134534,50.306972,0.0 
37.133639,50.30767,0.0 
37.133007,50.308462,0.0 
37.132523,50.309291,0.0 
37.132071,50.310097,0.0 
37.131538,50.310824,0.0 
37.130807,50.311413,0.0 
37.129764,50.311805,0.0 
37.128294,50.311942,0.0 
37.122705,50.311921,0.0 
37.117889,50.311884,0.0 
37.113648,50.311772,0.0 
37.109785,50.311525,0.0 
37.106102,50.311082,0.0 
37.102403,50.310385,0.0 
37.098491,50.309372,0.0 
37.094167,50.307985,0.0 
37.089235,50.306162,0.0 
37.092368,50.30715,0.0 
37.095127,50.30768,0.0 
37.097653,50.307846,0.0 
37.100086,50.307738,0.0 
37.102566,50.307448,0.0 
37.105233,50.307069,0.0 
37.108228,50.306692,0.0 
37.11169,50.306408,0.0 
37.11576,50.30631,0.0 
37.118759,50.306316,0.0 
37.121184,50.306302,0.0 
37.123197,50.306277,0.0 
37.124963,50.30625,0.0 
37.126646,50.306232,0.0 
37.128407,50.306232,0.0 
37.130413,50.306258,0.0 
37.132825,50.30632,0.0 
37.135807,50.306428,0.0 
              </coordinates>
            </LinearRing>
          </outerBoundaryIs>
        </Polygon>
</MultiGeometry>
    </Placemark>
    
  </Document>
</kml>
