<?xml version="1.0" encoding="UTF-8"?>
<kml xmlns="http://www.opengis.net/kml/2.2">
  <Document>
    <name>Слой без названия</name>
    <Style id="poly-FFFFFF-180-77-nodesc-normal">
      <LineStyle>
        <color>ffffffff</color>
        <width>0.18</width>
      </LineStyle>
      <PolyStyle>
        <color>4dffffff</color>
        <fill>1</fill>
        <outline>1</outline>
      </PolyStyle>
      <BalloonStyle>
        <text><![CDATA[<h3>$[name]</h3>]]></text>
      </BalloonStyle>
    </Style>
    <Style id="poly-FFFFFF-180-77-nodesc-highlight">
      <LineStyle>
        <color>ffffffff</color>
        <width>0.27</width>
      </LineStyle>
      <PolyStyle>
        <color>4dffffff</color>
        <fill>1</fill>
        <outline>1</outline>
      </PolyStyle>
      <BalloonStyle>
        <text><![CDATA[<h3>$[name]</h3>]]></text>
      </BalloonStyle>
    </Style>
    <StyleMap id="poly-FFFFFF-180-77-nodesc">
      <Pair>
        <key>normal</key>
        <styleUrl>#poly-FFFFFF-180-77-nodesc-normal</styleUrl>
      </Pair>
      <Pair>
        <key>highlight</key>
        <styleUrl>#poly-FFFFFF-180-77-nodesc-highlight</styleUrl>
      </Pair>
    </StyleMap>
    
    <Placemark>
      <name>продвижения ВС РФ за 1 - 4 августа</name>
      <description>ВС РФ</description>
      <styleUrl>#poly-FFFFFF-180-77-nodesc</styleUrl>
      <MultiGeometry>
        <Polygon>
          <outerBoundaryIs>
            <LinearRing>
              <tessellate>1</tessellate>
              <coordinates>
              35.780792,47.480743,0.0 
35.787679,47.484403,0.0 
35.793043,47.488202,0.0 
35.797312,47.492172,0.0 
35.800912,47.496346,0.0 
35.80427,47.500756,0.0 
35.807813,47.505434,0.0 
35.811968,47.510413,0.0 
35.817161,47.515724,0.0 
35.823821,47.521401,0.0 
35.824949,47.522198,0.0 
35.826002,47.522767,0.0 
35.826999,47.523121,0.0 
35.827964,47.523274,0.0 
35.828916,47.523237,0.0 
35.829879,47.523023,0.0 
35.830873,47.522646,0.0 
35.831921,47.522118,0.0 
35.833043,47.521451,0.0 
35.834516,47.52038,0.0 
35.835439802277286,47.5194518646914,0.0 
35.832444,47.52486,0.0 
35.829143,47.53168,0.0 
35.826308,47.538044,0.0 
35.823773,47.543778,0.0 
35.821371,47.548704,0.0 
35.818934,47.552647,0.0 
35.816296,47.555431,0.0 
35.81329,47.55688,0.0 
35.811475,47.556542,0.0 
35.810569,47.554638,0.0 
35.810307,47.551415,0.0 
35.810427,47.547116,0.0 
35.810663,47.541986,0.0 
35.810752,47.53627,0.0 
35.810429,47.530212,0.0 
35.80943,47.524057,0.0 
35.80749,47.51805,0.0 
35.804804,47.511659,0.0 
35.802463,47.506089,0.0 
35.80029,47.501228,0.0 
35.798107,47.496966,0.0 
35.795734,47.49319,0.0 
35.792995,47.489791,0.0 
35.78971,47.486658,0.0 
35.785702,47.483679,0.0 
35.780792,47.480743,0.0 
</coordinates>
            </LinearRing>
          </outerBoundaryIs>
        </Polygon>
        <Polygon>
          <outerBoundaryIs>
            <LinearRing>
              <tessellate>1</tessellate>
              <coordinates>
              36.08881,47.76073,0.0 
36.067078,47.760838,0.0 
36.045595,47.761874,0.0 
36.025016,47.763514,0.0 
36.005993,47.765433,0.0 
35.989181,47.767304,0.0 
35.975233,47.768804,0.0 
35.964803,47.769606,0.0 
35.958544,47.769387,0.0 
35.95711,47.76782,0.0 
35.960825,47.765028,0.0 
35.968879,47.762024,0.0 
35.980766,47.758753,0.0 
35.995979,47.755158,0.0 
36.014015,47.751186,0.0 
36.034365,47.746781,0.0 
36.056525,47.741887,0.0 
36.079989,47.73645,0.0 
36.10425,47.730414,0.0 
36.097155,47.733097,0.0 
36.090819,47.735447,0.0 
36.085162,47.737582,0.0 
36.080106,47.739618,0.0 
36.075572,47.741674,0.0 
36.071479,47.743865,0.0 
36.067749,47.74631,0.0 
36.064302,47.749126,0.0 
36.06106,47.75243,0.0 
36.060391,47.753697,0.0 
36.060714,47.754772,0.0 
36.061875,47.755694,0.0 
36.063724,47.756502,0.0 
36.066108,47.757235,0.0 
36.068876,47.757931,0.0 
36.071875,47.75863,0.0 
36.074954,47.75937,0.0 
36.07796,47.76019,0.0 
36.079512,47.760557,0.0 
36.080806,47.760685,0.0 
36.081916,47.760643,0.0 
36.082915,47.760501,0.0 
36.083876,47.760329,0.0 
36.084872,47.760196,0.0 
36.085978,47.760172,0.0 
36.087266,47.760327,0.0 
36.08881,47.76073,0.0 
</coordinates>
            </LinearRing>
          </outerBoundaryIs>
        </Polygon>
        <Polygon>
          <outerBoundaryIs>
            <LinearRing>
              <tessellate>1</tessellate>
              <coordinates>
              37.048052,48.362806,0.0 
37.042346,48.363583,0.0 
37.037094,48.364608,0.0 
37.03229,48.365746,0.0 
37.027928,48.366859,0.0 
37.024002,48.367812,0.0 
37.020505,48.36847,0.0 
37.017432,48.368696,0.0 
37.014776,48.368355,0.0 
37.01253,48.36731,0.0 
37.011682,48.366176,0.0 
37.011801,48.36474,0.0 
37.012742,48.363026,0.0 
37.014359,48.36106,0.0 
37.016509,48.358866,0.0 
37.019044,48.356469,0.0 
37.021821,48.353893,0.0 
37.024694,48.351165,0.0 
37.027517,48.348308,0.0 
37.027587,48.349678,0.0 
37.027992,48.350851,0.0 
37.028697,48.351879,0.0 
37.029667,48.35281,0.0 
37.030871,48.353694,0.0 
37.032272,48.354583,0.0 
37.033839,48.355525,0.0 
37.035536,48.356571,0.0 
37.03733,48.35777,0.0 
37.038764,48.35883,0.0 
37.039939,48.359763,0.0 
37.040941,48.36057,0.0 
37.041854,48.361252,0.0 
37.042763,48.361809,0.0 
37.043752,48.362243,0.0 
37.044907,48.362553,0.0 
37.046312,48.36274,0.0 
37.048052,48.362806,0.0 
</coordinates>
            </LinearRing>
          </outerBoundaryIs>
        </Polygon>
        <Polygon>
          <outerBoundaryIs>
            <LinearRing>
              <tessellate>1</tessellate>
              <coordinates>
              37.71099,48.56033,0.0 
37.716436,48.560407,0.0 
37.721699,48.559794,0.0 
37.726961,48.558613,0.0 
37.732405,48.556985,0.0 
37.738211,48.555028,0.0 
37.744563,48.552865,0.0 
37.751642,48.550615,0.0 
37.759631,48.548399,0.0 
37.768711,48.546337,0.0 
37.764811,48.547706,0.0 
37.761747,48.549102,0.0 
37.759279,48.550518,0.0 
37.757171,48.551948,0.0 
37.755185,48.553386,0.0 
37.753083,48.554826,0.0 
37.750626,48.556261,0.0 
37.747578,48.557684,0.0 
37.7437,48.55909,0.0 
37.740975,48.559885,0.0 
37.738732,48.560386,0.0 
37.736825,48.56065,0.0 
37.735112,48.560734,0.0 
37.733448,48.560697,0.0 
37.731688,48.560595,0.0 
37.72969,48.560486,0.0 
37.727308,48.560427,0.0 
37.7244,48.560476,0.0 
37.722186,48.560651,0.0 
37.720039,48.560957,0.0 
37.718008,48.561317,0.0 
37.716142,48.561654,0.0 
37.714489,48.561892,0.0 
37.713099,48.561956,0.0 
37.71202,48.561767,0.0 
37.711301,48.561251,0.0 
37.71099,48.56033,0.0 
</coordinates>
            </LinearRing>
          </outerBoundaryIs>
        </Polygon>
        <Polygon>
          <outerBoundaryIs>
            <LinearRing>
              <tessellate>1</tessellate>
              <coordinates>
              37.870566,48.836776,0.0 
37.875477,48.840921,0.0 
37.881137,48.844306,0.0 
37.887208,48.847072,0.0 
37.893355,48.849363,0.0 
37.899241,48.85132,0.0 
37.904529,48.853084,0.0 
37.908884,48.854798,0.0 
37.911968,48.856605,0.0 
37.913446,48.858645,0.0 
37.913093,48.859871,0.0 
37.911312,48.860314,0.0 
37.908314,48.860195,0.0 
37.904308,48.859738,0.0 
37.899505,48.859165,0.0 
37.894115,48.858697,0.0 
37.888349,48.858559,0.0 
37.882417,48.858971,0.0 
37.876529,48.860157,0.0 
37.877167,48.859733,0.0 
37.877658,48.859303,0.0 
37.878016,48.858855,0.0 
37.878252,48.85838,0.0 
37.878379,48.857868,0.0 
37.878411,48.857311,0.0 
37.87836,48.856696,0.0 
37.878239,48.856016,0.0 
37.87806,48.85526,0.0 
37.877182,48.852478,0.0 
37.876169,48.85023,0.0 
37.875085,48.848366,0.0 
37.873991,48.846734,0.0 
37.872951,48.845183,0.0 
37.872025,48.843563,0.0 
37.871278,48.841722,0.0 
37.870771,48.83951,0.0 
37.870566,48.836776,0.0 
</coordinates>
            </LinearRing>
          </outerBoundaryIs>
        </Polygon>
        <Polygon>
          <outerBoundaryIs>
            <LinearRing>
              <tessellate>1</tessellate>
              <coordinates>
              37.66147818379131,49.65123395014539,0.0 
37.662664,49.651042,0.0 
37.665086,49.650776,0.0 
37.667232,49.650639,0.0 
37.66929,49.65056,0.0 
37.671448,49.650468,0.0 
37.673894,49.650291,0.0 
37.676815,49.649959,0.0 
37.6804,49.6494,0.0 
37.682137,49.649158,0.0 
37.683816,49.64901,0.0 
37.685397,49.648905,0.0 
37.686841,49.648789,0.0 
37.68811,49.648611,0.0 
37.689163,49.648318,0.0 
37.689771852624176,49.647968233598874,0.0 
37.689789,49.648166,0.0 
37.68889,49.64961,0.0 
37.686299,49.651239,0.0 
37.683511,49.652025,0.0 
37.680499,49.652187,0.0 
37.677237,49.651942,0.0 
37.673699,49.651508,0.0 
37.669856,49.651104,0.0 
37.665684,49.650947,0.0 
37.66147818379131,49.65123395014539,0.0 
</coordinates>
            </LinearRing>
          </outerBoundaryIs>
        </Polygon>
        <Polygon>
          <outerBoundaryIs>
            <LinearRing>
              <tessellate>1</tessellate>
              <coordinates>
              37.656243,49.652247,0.0 
37.653129,49.653241,0.0 
37.650159,49.654443,0.0 
37.647402,49.655787,0.0 
37.644927,49.65721,0.0 
37.642805,49.658648,0.0 
37.641106,49.660036,0.0 
37.639899,49.66131,0.0 
37.639254,49.662406,0.0 
37.63924,49.663259,0.0 
37.638587,49.663117,0.0 
37.637989,49.662814,0.0 
37.637466,49.662386,0.0 
37.637042,49.661871,0.0 
37.636738,49.661306,0.0 
37.636577,49.660728,0.0 
37.63658,49.660175,0.0 
37.636771,49.659683,0.0 
37.63717,49.65929,0.0 
37.639335,49.657934,0.0 
37.641253,49.656841,0.0 
37.643025,49.655959,0.0 
37.644751,49.655237,0.0 
37.646533,49.654625,0.0 
37.648473,49.654071,0.0 
37.65067,49.653524,0.0 
37.653226,49.652933,0.0 
37.656243,49.652247,0.0 
</coordinates>
            </LinearRing>
          </outerBoundaryIs>
        </Polygon>
        <Polygon>
          <outerBoundaryIs>
            <LinearRing>
              <tessellate>1</tessellate>
              <coordinates>
              37.600573,49.722897,0.0 
37.601393,49.722184,0.0 
37.602115,49.721658,0.0 
37.602761,49.721259,0.0 
37.603351,49.720932,0.0 
37.603906,49.720618,0.0 
37.604448,49.72026,0.0 
37.604998,49.719801,0.0 
37.605576,49.719183,0.0 
37.606203,49.71835,0.0 
37.606852,49.717151,0.0 
37.607247,49.71592,0.0 
37.607465,49.714702,0.0 
37.607581,49.71354,0.0 
37.607674,49.712479,0.0 
37.60782,49.711562,0.0 
37.608094,49.710834,0.0 
37.608576,49.710339,0.0 
37.60934,49.71012,0.0 
37.610588,49.710259,0.0 
37.611661,49.710802,0.0 
37.612626,49.711647,0.0 
37.61355,49.712692,0.0 
37.614502,49.713837,0.0 
37.61555,49.714979,0.0 
37.616761,49.716018,0.0 
37.618204,49.716851,0.0 
37.619946,49.717378,0.0 
37.617987,49.717941,0.0 
37.616407,49.718403,0.0 
37.615099,49.718795,0.0 
37.613954,49.719143,0.0 
37.612863,49.719478,0.0 
37.611718,49.719826,0.0 
37.61041,49.720218,0.0 
37.608831,49.720681,0.0 
37.606872,49.721244,0.0 
37.605918,49.721481,0.0 
37.605119,49.721621,0.0 
37.604435,49.721699,0.0 
37.603827,49.721753,0.0 
37.603257,49.721817,0.0 
37.602685,49.721927,0.0 
37.602073,49.72212,0.0 
37.601382,49.722432,0.0 
37.600573,49.722897,0.0 
</coordinates>
            </LinearRing>
          </outerBoundaryIs>
        </Polygon>
        <Polygon>
          <outerBoundaryIs>
            <LinearRing>
              <tessellate>1</tessellate>
              <coordinates>
              37.206675,50.333136,0.0 
37.203345,50.333462,0.0 
37.200633,50.33416,0.0 
37.198353,50.335112,0.0 
37.196323,50.336204,0.0 
37.194359,50.33732,0.0 
37.192275,50.338344,0.0 
37.18989,50.33916,0.0 
37.187019,50.339654,0.0 
37.183478,50.339708,0.0 
37.1767,50.339362,0.0 
37.170585,50.339009,0.0 
37.16506,50.338571,0.0 
37.160052,50.337968,0.0 
37.155491,50.33712,0.0 
37.151304,50.335948,0.0 
37.14742,50.334372,0.0 
37.143765,50.332312,0.0 
37.140269,50.32969,0.0 
37.138614,50.327705,0.0 
37.138253,50.325794,0.0 
37.138906,50.323902,0.0 
37.140293,50.321975,0.0 
37.142134,50.319957,0.0 
37.14415,50.317795,0.0 
37.14606,50.315433,0.0 
37.147586,50.312818,0.0 
37.148447,50.309894,0.0 
37.152022,50.312491,0.0 
37.154735,50.314759,0.0 
37.156855,50.316765,0.0 
37.158655,50.318576,0.0 
37.160405,50.32026,0.0 
37.162378,50.321886,0.0 
37.164843,50.323519,0.0 
37.168074,50.325228,0.0 
37.17234,50.32708,0.0 
37.176796,50.328676,0.0 
37.180634,50.329703,0.0 
37.184049,50.330307,0.0 
37.187239,50.330632,0.0 
37.1904,50.330822,0.0 
37.193727,50.331023,0.0 
37.197418,50.33138,0.0 
37.201668,50.332036,0.0 
37.206675,50.333136,0.0 
</coordinates>
            </LinearRing>
          </outerBoundaryIs>
        </Polygon>
        <Polygon>
          <outerBoundaryIs>
            <LinearRing>
              <tessellate>1</tessellate>
              <coordinates>
              34.328649,51.834705,0.0 
34.328965,51.83323,0.0 
34.328915,51.831769,0.0 
34.328641,51.830365,0.0 
34.328284,51.829065,0.0 
34.327987,51.827913,0.0 
34.327892,51.826955,0.0 
34.328141,51.826235,0.0 
34.328876,51.825798,0.0 
34.33024,51.82569,0.0 
34.334935,51.826003,0.0 
34.339126,51.826531,0.0 
34.342989,51.827275,0.0 
34.346697,51.828237,0.0 
34.350426,51.829418,0.0 
34.35435,51.83082,0.0 
34.358643,51.832444,0.0 
34.363481,51.834292,0.0 
34.369038,51.836366,0.0 
34.367764,51.836111,0.0 
34.366663,51.836091,0.0 
34.365674,51.836251,0.0 
34.364737,51.836532,0.0 
34.363791,51.836878,0.0 
34.362776,51.83723,0.0 
34.36163,51.837533,0.0 
34.360293,51.837728,0.0 
34.358704,51.837758,0.0 
34.354068,51.837389,0.0 
34.350064,51.836768,0.0 
34.346562,51.836005,0.0 
34.343427,51.835212,0.0 
34.340529,51.834501,0.0 
34.337734,51.833983,0.0 
34.334911,51.83377,0.0 
34.331927,51.833974,0.0 
34.328649,51.834705,0.0 
              </coordinates>
            </LinearRing>
          </outerBoundaryIs>
        </Polygon>
</MultiGeometry>
    </Placemark>
    
    <Placemark>
      <name>продвижения ВСУ за 1 - 4 августа</name>
      <description>ВСУ</description>
      <styleUrl>#poly-FFFFFF-180-77-nodesc</styleUrl>
      <MultiGeometry>
        <Polygon>
          <outerBoundaryIs>
            <LinearRing>
              <tessellate>1</tessellate>
              <coordinates>
              36.206537,47.832923,0.0 
36.195699,47.836113,0.0 
36.186624,47.838246,0.0 
36.178792,47.839488,0.0 
36.171683,47.840005,0.0 
36.164776,47.83996,0.0 
36.157551,47.839521,0.0 
36.149488,47.838851,0.0 
36.140067,47.838116,0.0 
36.128767,47.837481,0.0 
36.127283,47.837071,0.0 
36.126193,47.836108,0.0 
36.125404,47.834775,0.0 
36.124823,47.833258,0.0 
36.124358,47.831738,0.0 
36.123915,47.8304,0.0 
36.123402,47.829426,0.0 
36.122725,47.829001,0.0 
36.121793,47.829308,0.0 
36.124156,47.828037,0.0 
36.126246,47.82738,0.0 
36.128167,47.827216,0.0 
36.130024,47.827428,0.0 
36.131921,47.827896,0.0 
36.133963,47.828499,0.0 
36.136253,47.829119,0.0 
36.138898,47.829635,0.0 
36.142,47.82993,0.0 
36.151748,47.830673,0.0 
36.159782,47.831836,0.0 
36.16656,47.833194,0.0 
36.172541,47.834524,0.0 
36.178184,47.835603,0.0 
36.183946,47.836206,0.0 
36.190287,47.836109,0.0 
36.197664,47.835089,0.0 
36.206537,47.832923,0.0 
              </coordinates>
            </LinearRing>
          </outerBoundaryIs>
        </Polygon>
</MultiGeometry>
    </Placemark>
    
  </Document>
</kml>
