<?xml version="1.0" encoding="UTF-8"?>
<kml xmlns="http://www.opengis.net/kml/2.2">
  <Document>
    <name>Слой без названия</name>
    <Style id="poly-FFFFFF-180-77-nodesc-normal">
      <LineStyle>
        <color>ffffffff</color>
        <width>0.18</width>
      </LineStyle>
      <PolyStyle>
        <color>4dffffff</color>
        <fill>1</fill>
        <outline>1</outline>
      </PolyStyle>
      <BalloonStyle>
        <text><![CDATA[<h3>$[name]</h3>]]></text>
      </BalloonStyle>
    </Style>
    <Style id="poly-FFFFFF-180-77-nodesc-highlight">
      <LineStyle>
        <color>ffffffff</color>
        <width>0.27</width>
      </LineStyle>
      <PolyStyle>
        <color>4dffffff</color>
        <fill>1</fill>
        <outline>1</outline>
      </PolyStyle>
      <BalloonStyle>
        <text><![CDATA[<h3>$[name]</h3>]]></text>
      </BalloonStyle>
    </Style>
    <StyleMap id="poly-FFFFFF-180-77-nodesc">
      <Pair>
        <key>normal</key>
        <styleUrl>#poly-FFFFFF-180-77-nodesc-normal</styleUrl>
      </Pair>
      <Pair>
        <key>highlight</key>
        <styleUrl>#poly-FFFFFF-180-77-nodesc-highlight</styleUrl>
      </Pair>
    </StyleMap>
    
    <Placemark>
      <name>продвижения ВС РФ за 22 - 25 сентября</name>
      <description>ВС РФ</description>
      <styleUrl>#poly-FFFFFF-180-77-nodesc</styleUrl>
      <MultiGeometry>
        <Polygon>
          <outerBoundaryIs>
            <LinearRing>
              <tessellate>1</tessellate>
              <coordinates>
              36.226239817276415,47.87729203145899,0.0 
36.222835,47.877538,0.0 
36.219542,47.878553,0.0 
36.216514,47.880113,0.0 
36.213529,47.88202,0.0 
36.210365,47.884074,0.0 
36.206799,47.886079,0.0 
36.202611,47.887836,0.0 
36.197578,47.889146,0.0 
36.196192,47.889261,0.0 
36.19469,47.889154,0.0 
36.193181,47.888865,0.0 
36.191777,47.888433,0.0 
36.190587,47.887896,0.0 
36.189723,47.887295,0.0 
36.189293,47.886667,0.0 
36.189408,47.886053,0.0 
36.18970442828333,47.88583682237886,0.0 
36.192243,47.884763,0.0 
36.197119,47.882879,0.0 
36.20328,47.880795,0.0 
36.210244,47.878885,0.0 
36.217525,47.877522,0.0 
36.224639,47.877081,0.0 
36.226239817276415,47.87729203145899,0.0 
</coordinates>
            </LinearRing>
          </outerBoundaryIs>
        </Polygon>
        <Polygon>
          <outerBoundaryIs>
            <LinearRing>
              <tessellate>1</tessellate>
              <coordinates>
              37.6402152029716,48.5397953688153,0.0 
37.64058,48.54075,0.0 
37.642119,48.542273,0.0 
37.644324,48.543301,0.0 
37.64694,48.543966,0.0 
37.64971,48.544401,0.0 
37.652378,48.544738,0.0 
37.654689,48.545111,0.0 
37.656387,48.545652,0.0 
37.657216,48.546494,0.0 
37.65692,48.54777,0.0 
37.65411,48.551324,0.0 
37.650469,48.554492,0.0 
37.646227,48.557354,0.0 
37.641613,48.559991,0.0 
37.636857,48.562483,0.0 
37.632189,48.564911,0.0 
37.627839,48.567356,0.0 
37.624036,48.569899,0.0 
37.62101,48.57262,0.0 
37.62094,48.571945,0.0 
37.621449,48.57123,0.0 
37.622418,48.570444,0.0 
37.623729,48.569557,0.0 
37.625262,48.568537,0.0 
37.626898,48.567354,0.0 
37.628519,48.565975,0.0 
37.630006,48.564371,0.0 
37.63124,48.56251,0.0 
37.631918,48.560965,0.0 
37.63224,48.559619,0.0 
37.632304,48.558411,0.0 
37.632208,48.55728,0.0 
37.632049,48.556165,0.0 
37.631926,48.555003,0.0 
37.631936,48.553734,0.0 
37.632178,48.552297,0.0 
37.63275,48.55063,0.0 
37.634375,48.547309,0.0 
37.636028,48.544707,0.0 
37.637674,48.542618,0.0 
37.639278,48.540832,0.0 
37.6402152029716,48.5397953688153,0.0 
</coordinates>
            </LinearRing>
          </outerBoundaryIs>
        </Polygon>
        <Polygon>
          <outerBoundaryIs>
            <LinearRing>
              <tessellate>1</tessellate>
              <coordinates>
              37.45911685964181,50.248035352751046,0.0 
37.458806,50.247675,0.0 
37.453712,50.239044,0.0 
37.450154,50.22988,0.0 
37.448097,50.220553,0.0 
37.447509,50.211435,0.0 
37.448355,50.202898,0.0 
37.450601,50.195312,0.0 
37.454214,50.189049,0.0 
37.45916,50.18448,0.0 
37.46351,50.183233,0.0 
37.468243,50.184524,0.0 
37.473505,50.187793,0.0 
37.479442,50.192479,0.0 
37.4862,50.198024,0.0 
37.493926,50.203866,0.0 
37.502766,50.209445,0.0 
37.512864,50.214201,0.0 
37.52105823384712,50.21660398650377,0.0 
37.514572,50.21692,0.0 
37.502659,50.21831,0.0 
37.489589,50.220914,0.0 
37.47471,50.22511,0.0 
37.469144,50.227511,0.0 
37.464742,50.230641,0.0 
37.46149,50.234291,0.0 
37.459377,50.238251,0.0 
37.458391,50.242313,0.0 
37.458519,50.246268,0.0 
37.45911685964181,50.248035352751046,0.0 
</coordinates>
            </LinearRing>
          </outerBoundaryIs>
        </Polygon>
        <Polygon>
          <outerBoundaryIs>
            <LinearRing>
              <tessellate>1</tessellate>
              <coordinates>
              34.290432,51.731568,0.0 
34.290754,51.732118,0.0 
34.291399,51.732358,0.0 
34.29232,51.732365,0.0 
34.293469,51.732216,0.0 
34.294802,51.73199,0.0 
34.296271,51.731762,0.0 
34.297829,51.731611,0.0 
34.29943,51.731615,0.0 
34.301028,51.731849,0.0 
34.302805,51.732441,0.0 
34.304326,51.733241,0.0 
34.305635,51.734153,0.0 
34.306774,51.735079,0.0 
34.307786,51.735924,0.0 
34.308715,51.736591,0.0 
34.309604,51.736984,0.0 
34.310494,51.737006,0.0 
34.31143,51.73656,0.0 
34.310165,51.739908,0.0 
34.309275,51.743248,0.0 
34.30865,51.746464,0.0 
34.308184,51.749443,0.0 
34.307767,51.75207,0.0 
34.307292,51.754232,0.0 
34.306649,51.755814,0.0 
34.305732,51.756701,0.0 
34.30443,51.75678,0.0 
34.302458,51.75596,0.0 
34.300508,51.754484,0.0 
34.298617,51.75242,0.0 
34.296818,51.749837,0.0 
34.295146,51.746805,0.0 
34.293637,51.743394,0.0 
34.292325,51.739671,0.0 
34.291245,51.735706,0.0 
34.290432,51.731568,0.0 
</coordinates>
            </LinearRing>
          </outerBoundaryIs>
        </Polygon>
        <Polygon>
          <outerBoundaryIs>
            <LinearRing>
              <tessellate>1</tessellate>
              <coordinates>
              35.98334993293496,47.61814423987025,0.0 
35.97956,47.618685,0.0 
35.973378,47.620374,0.0 
35.967204,47.622426,0.0 
35.960652,47.624451,0.0 
35.953341,47.626061,0.0 
35.944884,47.626867,0.0 
35.9349,47.62648,0.0 
35.926446,47.625456,0.0 
35.917849,47.624095,0.0 
35.909508,47.62243,0.0 
35.901823,47.620495,0.0 
35.895194,47.618323,0.0 
35.890021,47.615948,0.0 
35.886705,47.613404,0.0 
35.885644,47.610723,0.0 
35.88724,47.60794,0.0 
35.888192,47.61088,0.0 
35.892582,47.612875,0.0 
35.899954,47.614136,0.0 
35.909855,47.614873,0.0 
35.921829,47.615296,0.0 
35.935421,47.615617,0.0 
35.950177,47.616044,0.0 
35.965641,47.616788,0.0 
35.98136,47.61806,0.0 
35.98334993293496,47.61814423987025,0.0 
</coordinates>
            </LinearRing>
          </outerBoundaryIs>
        </Polygon>
        <Polygon>
          <outerBoundaryIs>
            <LinearRing>
              <tessellate>1</tessellate>
              <coordinates>
              36.90033,48.1756,0.0 
36.898443,48.177363,0.0 
36.895545,48.17916,0.0 
36.892006,48.180945,0.0 
36.888197,48.182672,0.0 
36.884488,48.184292,0.0 
36.881251,48.18576,0.0 
36.878854,48.187028,0.0 
36.87767,48.18805,0.0 
36.878069,48.188778,0.0 
36.880602,48.189422,0.0 
36.883757,48.18952,0.0 
36.887514,48.189191,0.0 
36.89185,48.188549,0.0 
36.896746,48.187711,0.0 
36.90218,48.186794,0.0 
36.908131,48.185913,0.0 
36.914578,48.185184,0.0 
36.9215,48.184724,0.0 
36.922157,48.184723,0.0 
36.92273,48.184777,0.0 
36.923228,48.184888,0.0 
36.923661,48.185059,0.0 
36.92404,48.185292,0.0 
36.924373,48.185589,0.0 
36.924671,48.185953,0.0 
36.924943,48.186385,0.0 
36.9252,48.186888,0.0 
36.925454,48.187461,0.0 
36.925672,48.188037,0.0 
36.925835,48.188607,0.0 
36.925925,48.189161,0.0 
36.925922,48.18969,0.0 
36.925807,48.190185,0.0 
36.925563,48.190636,0.0 
36.925171,48.191034,0.0 
36.924611,48.19137,0.0 
36.918763,48.193795,0.0 
36.913187,48.195637,0.0 
36.907926,48.197052,0.0 
36.903026,48.198196,0.0 
36.898531,48.199224,0.0 
36.894485,48.200294,0.0 
36.890933,48.201561,0.0 
36.88792,48.203181,0.0 
36.88549,48.20531,0.0 
36.885156,48.204219,0.0 
36.885589,48.203121,0.0 
36.886575,48.202017,0.0 
36.887899,48.200908,0.0 
36.889346,48.199795,0.0 
36.890701,48.198678,0.0 
36.89175,48.197558,0.0 
36.892278,48.196435,0.0 
36.89207,48.19531,0.0 
36.890722,48.193917,0.0 
36.888715,48.19294,0.0 
36.886285,48.19227,0.0 
36.883666,48.191802,0.0 
36.881093,48.191429,0.0 
36.878801,48.191043,0.0 
36.877025,48.190537,0.0 
36.876,48.189805,0.0 
36.87596,48.18874,0.0 
36.877312,48.186869,0.0 
36.879529,48.18525,0.0 
36.882384,48.183817,0.0 
36.885653,48.182509,0.0 
36.889111,48.181261,0.0 
36.892533,48.180009,0.0 
36.895693,48.178691,0.0 
36.898367,48.177243,0.0 
36.90033,48.1756,0.0 
</coordinates>
            </LinearRing>
          </outerBoundaryIs>
        </Polygon>
        <Polygon>
          <outerBoundaryIs>
            <LinearRing>
              <tessellate>1</tessellate>
              <coordinates>
              37.03096,48.3981,0.0 
37.032617,48.394277,0.0 
37.035031,48.391019,0.0 
37.037905,48.388227,0.0 
37.040944,48.385798,0.0 
37.04385,48.383631,0.0 
37.046328,48.381624,0.0 
37.048081,48.379676,0.0 
37.048814,48.377685,0.0 
37.04823,48.37555,0.0 
37.046232,48.373019,0.0 
37.04371,48.371137,0.0 
37.040676,48.369799,0.0 
37.037145,48.3689,0.0 
37.033131,48.368334,0.0 
37.028649,48.367998,0.0 
37.023712,48.367785,0.0 
37.018334,48.367591,0.0 
37.01253,48.36731,0.0 
37.017846,48.36663,0.0 
37.022133,48.365964,0.0 
37.025685,48.365324,0.0 
37.028797,48.364726,0.0 
37.031763,48.364181,0.0 
37.034877,48.363703,0.0 
37.038434,48.363305,0.0 
37.042727,48.363002,0.0 
37.048052,48.362806,0.0 
37.054828,48.362557,0.0 
37.061606,48.362192,0.0 
37.068138,48.361821,0.0 
37.074176,48.361553,0.0 
37.079474,48.361495,0.0 
37.083784,48.361757,0.0 
37.08686,48.362448,0.0 
37.088455,48.363676,0.0 
37.08832,48.36555,0.0 
37.085606,48.368881,0.0 
37.081215,48.371734,0.0 
37.075474,48.374344,0.0 
37.068709,48.376946,0.0 
37.061248,48.379777,0.0 
37.053415,48.383072,0.0 
37.045539,48.387067,0.0 
37.037945,48.391998,0.0 
37.03096,48.3981,0.0 
</coordinates>
            </LinearRing>
          </outerBoundaryIs>
        </Polygon>
        <Polygon>
          <outerBoundaryIs>
            <LinearRing>
              <tessellate>1</tessellate>
              <coordinates>
              37.73564,48.60673,0.0 
37.737198,48.601631,0.0 
37.737801,48.596867,0.0 
37.737771,48.592402,0.0 
37.737433,48.588199,0.0 
37.737109,48.584222,0.0 
37.737124,48.580434,0.0 
37.7378,48.576798,0.0 
37.739461,48.573279,0.0 
37.74243,48.56984,0.0 
37.74625,48.566828,0.0 
37.749925,48.56486,0.0 
37.753575,48.563749,0.0 
37.757318,48.56331,0.0 
37.761275,48.563357,0.0 
37.765564,48.563705,0.0 
37.770305,48.564166,0.0 
37.775617,48.564557,0.0 
37.78162,48.56469,0.0 
37.783066,48.564769,0.0 
37.784197,48.565019,0.0 
37.785098,48.565413,0.0 
37.785858,48.565928,0.0 
37.786562,48.566537,0.0 
37.787297,48.567215,0.0 
37.788149,48.567937,0.0 
37.789204,48.568677,0.0 
37.79055,48.56941,0.0 
37.792248,48.570233,0.0 
37.793615,48.570921,0.0 
37.794747,48.571503,0.0 
37.795743,48.572009,0.0 
37.796702,48.572468,0.0 
37.797721,48.572909,0.0 
37.798898,48.573362,0.0 
37.800332,48.573856,0.0 
37.80212,48.57442,0.0 
37.795614,48.5738,0.0 
37.790113,48.572882,0.0 
37.785376,48.571853,0.0 
37.781159,48.570897,0.0 
37.777221,48.570201,0.0 
37.773318,48.56995,0.0 
37.769208,48.570329,0.0 
37.76465,48.571524,0.0 
37.7594,48.57372,0.0 
37.754755,48.576448,0.0 
37.751401,48.579387,0.0 
37.748999,48.582547,0.0 
37.747212,48.585938,0.0 
37.7457,48.589572,0.0 
37.744125,48.593457,0.0 
37.74215,48.597605,0.0 
37.739434,48.602026,0.0 
37.73564,48.60673,0.0 
</coordinates>
            </LinearRing>
          </outerBoundaryIs>
        </Polygon>
        <Polygon>
          <outerBoundaryIs>
            <LinearRing>
              <tessellate>1</tessellate>
              <coordinates>
              37.75658,48.69457,0.0 
37.752526,48.689869,0.0 
37.747213,48.68585,0.0 
37.741183,48.682405,0.0 
37.734976,48.679421,0.0 
37.729134,48.676788,0.0 
37.724197,48.674397,0.0 
37.720707,48.672135,0.0 
37.719204,48.669893,0.0 
37.72023,48.66756,0.0 
37.725161,48.66423,0.0 
37.731382,48.662263,0.0 
37.738723,48.661286,0.0 
37.747014,48.660924,0.0 
37.756085,48.660803,0.0 
37.765768,48.660551,0.0 
37.775892,48.659792,0.0 
37.786288,48.658153,0.0 
37.796786,48.65526,0.0 
37.799062,48.657592,0.0 
37.801172,48.659271,0.0 
37.803182,48.660473,0.0 
37.805157,48.661376,0.0 
37.807165,48.662157,0.0 
37.809271,48.662993,0.0 
37.811541,48.664062,0.0 
37.814042,48.665541,0.0 
37.81684,48.667607,0.0 
37.817947,48.668513,0.0 
37.819066,48.669457,0.0 
37.820122,48.670413,0.0 
37.821043,48.671358,0.0 
37.821755,48.672267,0.0 
37.822187,48.673115,0.0 
37.822263,48.673877,0.0 
37.821912,48.674529,0.0 
37.82106,48.675045,0.0 
37.813738,48.677679,0.0 
37.807376,48.679537,0.0 
37.801652,48.680834,0.0 
37.796243,48.681783,0.0 
37.790825,48.682598,0.0 
37.785077,48.683495,0.0 
37.778675,48.684686,0.0 
37.771297,48.686387,0.0 
37.762619,48.688811,0.0 
37.761454,48.689211,0.0 
37.760545,48.689629,0.0 
37.759835,48.690083,0.0 
37.759268,48.690591,0.0 
37.758786,48.691171,0.0 
37.758333,48.69184,0.0 
37.757852,48.692618,0.0 
37.757286,48.693522,0.0 
37.75658,48.69457,0.0 
</coordinates>
            </LinearRing>
          </outerBoundaryIs>
        </Polygon>
        <Polygon>
          <outerBoundaryIs>
            <LinearRing>
              <tessellate>1</tessellate>
              <coordinates>
              35.329819,50.952039,0.0 
35.319573,50.949878,0.0 
35.309539,50.947988,0.0 
35.299993,50.94632,0.0 
35.291206,50.944822,0.0 
35.283454,50.943445,0.0 
35.277011,50.942139,0.0 
35.272149,50.940853,0.0 
35.269145,50.939536,0.0 
35.26827,50.93814,0.0 
35.269649,50.936933,0.0 
35.273061,50.936147,0.0 
35.27826,50.93569,0.0 
35.284998,50.935468,0.0 
35.293031,50.935388,0.0 
35.302111,50.935357,0.0 
35.311992,50.935281,0.0 
35.322428,50.935069,0.0 
35.333172,50.934626,0.0 
35.331824,50.936896,0.0 
35.329334,50.937451,0.0 
35.327151,50.937861,0.0 
35.325219,50.938177,0.0 
35.323484,50.938444,0.0 
35.321892,50.938712,0.0 
35.320388,50.939029,0.0 
35.318917,50.939442,0.0 
35.317424,50.939999,0.0 
35.315854,50.940749,0.0 
35.315466,50.941038,0.0 
35.315352,50.941336,0.0 
35.31547,50.941644,0.0 
35.315782,50.941964,0.0 
35.316247,50.942297,0.0 
35.316826,50.942643,0.0 
35.317478,50.943005,0.0 
35.318164,50.943383,0.0 
35.318844,50.943779,0.0 
35.319736,50.944302,0.0 
35.320493,50.944703,0.0 
35.321158,50.945013,0.0 
35.321775,50.945264,0.0 
35.322388,50.945489,0.0 
35.323042,50.945717,0.0 
35.32378,50.945983,0.0 
35.324647,50.946317,0.0 
35.325686,50.946752,0.0 
35.329306,50.947865,0.0 
35.329819,50.952039,0.0 
              </coordinates>
            </LinearRing>
          </outerBoundaryIs>
        </Polygon>
</MultiGeometry>
    </Placemark>
    
    <Placemark>
      <name>продвижения ВСУ за 22 - 25 сентября</name>
      <description>ВСУ</description>
      <styleUrl>#poly-FFFFFF-180-77-nodesc</styleUrl>
      <MultiGeometry>
        <Polygon>
          <outerBoundaryIs>
            <LinearRing>
              <tessellate>1</tessellate>
              <coordinates>
              36.68467,48.03558,0.0 
36.685477,48.034055,0.0 
36.685748,48.032661,0.0 
36.685631,48.031359,0.0 
36.685279,48.030113,0.0 
36.684842,48.028884,0.0 
36.68447,48.027634,0.0 
36.684314,48.026325,0.0 
36.684525,48.02492,0.0 
36.685254,48.023381,0.0 
36.687677,48.020026,0.0 
36.69003,48.01749,0.0 
36.692325,48.015536,0.0 
36.694578,48.013928,0.0 
36.696801,48.01243,0.0 
36.699008,48.010806,0.0 
36.701215,48.008818,0.0 
36.703434,48.006232,0.0 
36.705679,48.00281,0.0 
36.706635,48.004661,0.0 
36.708007,48.006137,0.0 
36.709623,48.007326,0.0 
36.711312,48.008318,0.0 
36.712905,48.0092,0.0 
36.714228,48.010063,0.0 
36.715113,48.010995,0.0 
36.715387,48.012084,0.0 
36.71488,48.01342,0.0 
36.712284,48.016903,0.0 
36.709568,48.019569,0.0 
36.706703,48.021658,0.0 
36.703657,48.023411,0.0 
36.700402,48.025069,0.0 
36.696906,48.026874,0.0 
36.693139,48.029067,0.0 
36.68907,48.031889,0.0 
36.68467,48.03558,0.0 
</coordinates>
            </LinearRing>
          </outerBoundaryIs>
        </Polygon>
        <Polygon>
          <outerBoundaryIs>
            <LinearRing>
              <tessellate>1</tessellate>
              <coordinates>
              37.872122,48.781153,0.0 
37.87324,48.7839,0.0 
37.873285,48.78656,0.0 
37.872408,48.789178,0.0 
37.87076,48.791804,0.0 
37.868493,48.794482,0.0 
37.865759,48.797261,0.0 
37.86271,48.800187,0.0 
37.859496,48.803308,0.0 
37.85627,48.80667,0.0 
37.85524,48.807692,0.0 
37.85418,48.808528,0.0 
37.853104,48.809175,0.0 
37.852022,48.809628,0.0 
37.850948,48.809882,0.0 
37.849893,48.809933,0.0 
37.848868,48.809775,0.0 
37.847887,48.809406,0.0 
37.84696,48.80882,0.0 
37.846156,48.80777,0.0 
37.845847,48.806411,0.0 
37.845876,48.804851,0.0 
37.846083,48.803199,0.0 
37.846312,48.801562,0.0 
37.846403,48.800049,0.0 
37.846199,48.798769,0.0 
37.84554,48.79783,0.0 
37.84427,48.79734,0.0 
37.838247,48.796654,0.0 
37.832206,48.796278,0.0 
37.83169097274781,48.79627225425986,0.0 
37.83613,48.795769,0.0 
37.843479,48.794491,0.0 
37.8513,48.792501,0.0 
37.855092,48.79138,0.0 
37.858871,48.790259,0.0 
37.862484,48.789123,0.0 
37.865778,48.787956,0.0 
37.868601,48.786745,0.0 
37.870799,48.785474,0.0 
37.872221,48.784128,0.0 
37.872713,48.782693,0.0 
37.872122,48.781153,0.0 
</coordinates>
            </LinearRing>
          </outerBoundaryIs>
        </Polygon>
        <Polygon>
          <outerBoundaryIs>
            <LinearRing>
              <tessellate>1</tessellate>
              <coordinates>
              37.72577,49.06803,0.0 
37.725651,49.073083,0.0 
37.725745,49.07724,0.0 
37.725946,49.080742,0.0 
37.726148,49.083829,0.0 
37.726244,49.086744,0.0 
37.726128,49.089726,0.0 
37.725695,49.093017,0.0 
37.724838,49.096858,0.0 
37.72345,49.10149,0.0 
37.721768,49.105296,0.0 
37.719642,49.108361,0.0 
37.717248,49.110864,0.0 
37.714766,49.112983,0.0 
37.712372,49.114898,0.0 
37.710245,49.116788,0.0 
37.708562,49.118832,0.0 
37.707501,49.12121,0.0 
37.70724,49.1241,0.0 
37.706719,49.121378,0.0 
37.706818,49.119025,0.0 
37.707426,49.116909,0.0 
37.708434,49.114899,0.0 
37.709731,49.112865,0.0 
37.711207,49.110676,0.0 
37.712752,49.108201,0.0 
37.714256,49.105309,0.0 
37.71561,49.10187,0.0 
37.717313,49.096861,0.0 
37.718762,49.092822,0.0 
37.720003,49.089471,0.0 
37.721085,49.086527,0.0 
37.722055,49.083707,0.0 
37.72296,49.080729,0.0 
37.72385,49.077312,0.0 
37.72477,49.073173,0.0 
37.72577,49.06803,0.0 
</coordinates>
            </LinearRing>
          </outerBoundaryIs>
        </Polygon>
        <Polygon>
          <outerBoundaryIs>
            <LinearRing>
              <tessellate>1</tessellate>
              <coordinates>
              37.56812,49.78427,0.0 
37.574634,49.785705,0.0 
37.580848,49.786258,0.0 
37.586726,49.786169,0.0 
37.592229,49.785675,0.0 
37.597321,49.785017,0.0 
37.601964,49.784431,0.0 
37.606119,49.784158,0.0 
37.609751,49.784434,0.0 
37.61282,49.7855,0.0 
37.613398,49.786284,0.0 
37.612479,49.787078,0.0 
37.610412,49.787947,0.0 
37.607545,49.788954,0.0 
37.604228,49.790164,0.0 
37.60081,49.79164,0.0 
37.597638,49.793447,0.0 
37.595062,49.795649,0.0 
37.59343,49.79831,0.0 
37.590575,49.79547,0.0 
37.587933,49.793485,0.0 
37.585417,49.792124,0.0 
37.58294,49.79116,0.0 
37.580416,49.790363,0.0 
37.577759,49.789504,0.0 
37.574881,49.788355,0.0 
37.571697,49.786687,0.0 
37.56812,49.78427,0.0 
              </coordinates>
            </LinearRing>
          </outerBoundaryIs>
        </Polygon>
</MultiGeometry>
    </Placemark>
    
  </Document>
</kml>
