<?xml version="1.0" encoding="UTF-8"?>
<kml xmlns="http://www.opengis.net/kml/2.2">
  <Document>
    <name>Слой без названия</name>
    <Style id="poly-FFFFFF-180-77-nodesc-normal">
      <LineStyle>
        <color>ffffffff</color>
        <width>0.18</width>
      </LineStyle>
      <PolyStyle>
        <color>4dffffff</color>
        <fill>1</fill>
        <outline>1</outline>
      </PolyStyle>
      <BalloonStyle>
        <text><![CDATA[<h3>$[name]</h3>]]></text>
      </BalloonStyle>
    </Style>
    <Style id="poly-FFFFFF-180-77-nodesc-highlight">
      <LineStyle>
        <color>ffffffff</color>
        <width>0.27</width>
      </LineStyle>
      <PolyStyle>
        <color>4dffffff</color>
        <fill>1</fill>
        <outline>1</outline>
      </PolyStyle>
      <BalloonStyle>
        <text><![CDATA[<h3>$[name]</h3>]]></text>
      </BalloonStyle>
    </Style>
    <StyleMap id="poly-FFFFFF-180-77-nodesc">
      <Pair>
        <key>normal</key>
        <styleUrl>#poly-FFFFFF-180-77-nodesc-normal</styleUrl>
      </Pair>
      <Pair>
        <key>highlight</key>
        <styleUrl>#poly-FFFFFF-180-77-nodesc-highlight</styleUrl>
      </Pair>
    </StyleMap>
    
    <Placemark>
      <name>продвижения ВС РФ за 14 - 17 сентября</name>
      <description>ВС РФ</description>
      <styleUrl>#poly-FFFFFF-180-77-nodesc</styleUrl>
      <MultiGeometry>
        <Polygon>
          <outerBoundaryIs>
            <LinearRing>
              <tessellate>1</tessellate>
              <coordinates>
              35.355533,47.58527,0.0 
35.356201,47.585262,0.0 
35.356716,47.585101,0.0 
35.357124,47.584818,0.0 
35.35747,47.584446,0.0 
35.3578,47.584017,0.0 
35.358157,47.583564,0.0 
35.358589,47.583119,0.0 
35.359139,47.582714,0.0 
35.359854,47.582382,0.0 
35.363115,47.581115,0.0 
35.365778,47.579882,0.0 
35.368013,47.578728,0.0 
35.369994,47.577697,0.0 
35.371892,47.576833,0.0 
35.373881,47.576181,0.0 
35.376133,47.575786,0.0 
35.37882,47.575691,0.0 
35.382115,47.575941,0.0 
35.379461,47.576119,0.0 
35.377398,47.576836,0.0 
35.375761,47.577975,0.0 
35.374382,47.579419,0.0 
35.373095,47.58105,0.0 
35.371731,47.582752,0.0 
35.370123,47.584407,0.0 
35.368105,47.585899,0.0 
35.36551,47.58711,0.0 
35.364148,47.587511,0.0 
35.362998,47.58769,0.0 
35.361998,47.587676,0.0 
35.361083,47.5875,0.0 
35.360189,47.587194,0.0 
35.359251,47.586787,0.0 
35.358205,47.58631,0.0 
35.356987,47.585794,0.0 
35.355533,47.58527,0.0 
</coordinates>
            </LinearRing>
          </outerBoundaryIs>
        </Polygon>
        <Polygon>
          <outerBoundaryIs>
            <LinearRing>
              <tessellate>1</tessellate>
              <coordinates>
              36.99676,48.30632,0.0 
37.001508,48.307569,0.0 
37.006052,48.307116,0.0 
37.010503,48.305412,0.0 
37.014973,48.302905,0.0 
37.019574,48.300043,0.0 
37.024418,48.297277,0.0 
37.029618,48.295055,0.0 
37.035284,48.293826,0.0 
37.04153,48.29404,0.0 
37.045847,48.295056,0.0 
37.04978,48.296585,0.0 
37.053289,48.298576,0.0 
37.056333,48.300975,0.0 
37.058873,48.303731,0.0 
37.060866,48.306792,0.0 
37.062273,48.310105,0.0 
37.063053,48.313617,0.0 
37.063165,48.317277,0.0 
37.062542,48.320755,0.0 
37.061215,48.323546,0.0 
37.059261,48.325837,0.0 
37.056755,48.327818,0.0 
37.053776,48.329676,0.0 
37.050399,48.331599,0.0 
37.0467,48.333777,0.0 
37.042757,48.336398,0.0 
37.038646,48.339649,0.0 
37.037023,48.340997,0.0 
37.035652,48.342021,0.0 
37.034467,48.342818,0.0 
37.033401,48.343487,0.0 
37.032387,48.344125,0.0 
37.031358,48.344828,0.0 
37.030248,48.345695,0.0 
37.02899,48.346822,0.0 
37.027517,48.348308,0.0 
37.028296,48.34554,0.0 
37.028835,48.343095,0.0 
37.029115,48.340893,0.0 
37.029118,48.338855,0.0 
37.028823,48.336902,0.0 
37.028212,48.334954,0.0 
37.027266,48.332933,0.0 
37.025965,48.330758,0.0 
37.02429,48.32835,0.0 
37.021057,48.324548,0.0 
37.017873,48.321825,0.0 
37.014736,48.319865,0.0 
37.011643,48.318349,0.0 
37.008592,48.316959,0.0 
37.005581,48.315379,0.0 
37.002607,48.313291,0.0 
36.999667,48.310377,0.0 
36.99676,48.30632,0.0 
</coordinates>
            </LinearRing>
          </outerBoundaryIs>
        </Polygon>
        <Polygon>
          <outerBoundaryIs>
            <LinearRing>
              <tessellate>1</tessellate>
              <coordinates>
              37.573618,49.764153,0.0 
37.571839,49.76491,0.0 
37.570146,49.765399,0.0 
37.56856,49.765712,0.0 
37.567101,49.765944,0.0 
37.56579,49.766187,0.0 
37.564647,49.766535,0.0 
37.563692,49.767081,0.0 
37.562946,49.767918,0.0 
37.56243,49.76914,0.0 
37.56203,49.770994,0.0 
37.561877,49.772755,0.0 
37.561976,49.774444,0.0 
37.562331,49.776084,0.0 
37.562947,49.777694,0.0 
37.563829,49.779296,0.0 
37.564982,49.780912,0.0 
37.56641,49.782563,0.0 
37.56812,49.78427,0.0 
37.56527,49.782153,0.0 
37.562565,49.780165,0.0 
37.560072,49.778282,0.0 
37.557854,49.776483,0.0 
37.555979,49.774746,0.0 
37.554512,49.773049,0.0 
37.553517,49.77137,0.0 
37.553062,49.769688,0.0 
37.55321,49.76798,0.0 
37.553936,49.766657,0.0 
37.555187,49.765853,0.0 
37.556902,49.765443,0.0 
37.559023,49.765298,0.0 
37.56149,49.765294,0.0 
37.564242,49.765304,0.0 
37.567221,49.765201,0.0 
37.570366,49.76486,0.0 
37.573618,49.764153,0.0 
</coordinates>
            </LinearRing>
          </outerBoundaryIs>
        </Polygon>
        <Polygon>
          <outerBoundaryIs>
            <LinearRing>
              <tessellate>1</tessellate>
              <coordinates>
              35.71655,47.51649,0.0 
35.713508,47.520355,0.0 
35.71115,47.524192,0.0 
35.709277,47.527888,0.0 
35.707689,47.531329,0.0 
35.706187,47.534402,0.0 
35.704571,47.536994,0.0 
35.70264,47.538992,0.0 
35.700197,47.540282,0.0 
35.69704,47.54075,0.0 
35.693363,47.540217,0.0 
35.690439,47.5387,0.0 
35.68802,47.536393,0.0 
35.685858,47.533488,0.0 
35.683707,47.530178,0.0 
35.681319,47.526656,0.0 
35.678447,47.523116,0.0 
35.674843,47.519749,0.0 
35.67026,47.51675,0.0 
35.674906,47.51888,0.0 
35.678666,47.521164,0.0 
35.681775,47.523493,0.0 
35.684466,47.52576,0.0 
35.686975,47.527854,0.0 
35.689534,47.529667,0.0 
35.692378,47.531089,0.0 
35.695741,47.532012,0.0 
35.699857,47.532327,0.0 
35.702632,47.532022,0.0 
35.704782,47.531191,0.0 
35.706475,47.529902,0.0 
35.707882,47.528226,0.0 
35.709172,47.526233,0.0 
35.710514,47.523993,0.0 
35.712078,47.521576,0.0 
35.714034,47.519052,0.0 
35.71655,47.51649,0.0 
</coordinates>
            </LinearRing>
          </outerBoundaryIs>
        </Polygon>
        <Polygon>
          <outerBoundaryIs>
            <LinearRing>
              <tessellate>1</tessellate>
              <coordinates>
              36.00199,47.61968,0.0 
36.00338,47.619529,0.0 
36.004604,47.619138,0.0 
36.005688,47.618606,0.0 
36.006661,47.618035,0.0 
36.007549,47.617526,0.0 
36.008381,47.61718,0.0 
36.009184,47.617098,0.0 
36.009984,47.617381,0.0 
36.01081,47.61813,0.0 
36.013838,47.622447,0.0 
36.015957,47.626785,0.0 
36.017445,47.631071,0.0 
36.018575,47.635228,0.0 
36.019624,47.639181,0.0 
36.020867,47.642856,0.0 
36.022581,47.646178,0.0 
36.02504,47.649071,0.0 
36.02852,47.65146,0.0 
36.027123,47.651903,0.0 
36.025864,47.652284,0.0 
36.024721,47.652568,0.0 
36.023671,47.652725,0.0 
36.022692,47.652721,0.0 
36.02176,47.652523,0.0 
36.020852,47.652098,0.0 
36.019947,47.651415,0.0 
36.01902,47.65044,0.0 
36.016079,47.64643,0.0 
36.01403,47.642693,0.0 
36.012603,47.639177,0.0 
36.011528,47.635826,0.0 
36.010536,47.632588,0.0 
36.009356,47.629408,0.0 
36.007718,47.626232,0.0 
36.005353,47.623008,0.0 
36.00199,47.61968,0.0 
</coordinates>
            </LinearRing>
          </outerBoundaryIs>
        </Polygon>
        <Polygon>
          <outerBoundaryIs>
            <LinearRing>
              <tessellate>1</tessellate>
              <coordinates>
              36.31185,47.80296,0.0 
36.316611,47.803812,0.0 
36.320573,47.804478,0.0 
36.323935,47.805057,0.0 
36.326893,47.80565,0.0 
36.329644,47.806358,0.0 
36.332388,47.807281,0.0 
36.33532,47.808521,0.0 
36.338638,47.810177,0.0 
36.34254,47.81235,0.0 
36.343947,47.813318,0.0 
36.345161,47.814455,0.0 
36.34616,47.815712,0.0 
36.346921,47.817038,0.0 
36.347422,47.818383,0.0 
36.347642,47.819697,0.0 
36.347558,47.82093,0.0 
36.347148,47.822031,0.0 
36.34639,47.82295,0.0 
36.344649,47.823979,0.0 
36.34268,47.824407,0.0 
36.340539,47.824411,0.0 
36.338283,47.824171,0.0 
36.335969,47.823865,0.0 
36.333653,47.823672,0.0 
36.331391,47.823771,0.0 
36.329242,47.824341,0.0 
36.32726,47.82556,0.0 
36.326325,47.826958,0.0 
36.326102,47.828735,0.0 
36.326382,47.830745,0.0 
36.326957,47.832841,0.0 
36.327618,47.834879,0.0 
36.328157,47.836713,0.0 
36.328366,47.838197,0.0 
36.328036,47.839184,0.0 
36.32696,47.83953,0.0 
36.323411,47.83882,0.0 
36.320181,47.837048,0.0 
36.31716134810053,47.834589197319204,0.0 
36.32168,47.83197,0.0 
36.323157,47.830618,0.0 
36.323254,47.829343,0.0 
36.322259,47.828082,0.0 
36.320458,47.826771,0.0 
36.318139,47.825349,0.0 
36.315589,47.823751,0.0 
36.313097,47.821916,0.0 
36.310948,47.81978,0.0 
36.30943,47.81728,0.0 
36.308959,47.81586,0.0 
36.308783,47.814658,0.0 
36.308846,47.813603,0.0 
36.309095,47.812626,0.0 
36.309475,47.811656,0.0 
36.309933,47.810623,0.0 
36.310414,47.809456,0.0 
36.310864,47.808085,0.0 
36.31123,47.80644,0.0 
36.31138,47.805871,0.0 
36.311607,47.805332,0.0 
36.311869,47.804828,0.0 
36.312124,47.804367,0.0 
36.312332,47.803957,0.0 
36.312449,47.803604,0.0 
36.312436,47.803316,0.0 
36.31225,47.803099,0.0 
36.31185,47.80296,0.0 
</coordinates>
            </LinearRing>
          </outerBoundaryIs>
        </Polygon>
        <Polygon>
          <outerBoundaryIs>
            <LinearRing>
              <tessellate>1</tessellate>
              <coordinates>
              37.09729,48.42142,0.0 
37.087297,48.421371,0.0 
37.077928,48.421502,0.0 
37.06925,48.421724,0.0 
37.061334,48.421944,0.0 
37.05425,48.422071,0.0 
37.048066,48.422013,0.0 
37.042851,48.42168,0.0 
37.038676,48.420979,0.0 
37.03561,48.41982,0.0 
37.035057,48.418958,0.0 
37.036368,48.41813,0.0 
37.039246,48.417268,0.0 
37.043395,48.416302,0.0 
37.04852,48.415163,0.0 
37.054325,48.413781,0.0 
37.060513,48.412088,0.0 
37.066791,48.410014,0.0 
37.07286,48.40749,0.0 
37.068301,48.409678,0.0 
37.063556,48.411542,0.0 
37.058864,48.413124,0.0 
37.054465,48.414471,0.0 
37.050598,48.415627,0.0 
37.047504,48.416637,0.0 
37.045422,48.417545,0.0 
37.044593,48.418396,0.0 
37.045255,48.419236,0.0 
37.048224,48.420453,0.0 
37.051949,48.421216,0.0 
37.056407,48.421616,0.0 
37.061576,48.421743,0.0 
37.067432,48.421687,0.0 
37.073955,48.421536,0.0 
37.08112,48.421382,0.0 
37.088906,48.421313,0.0 
37.09729,48.42142,0.0 
</coordinates>
            </LinearRing>
          </outerBoundaryIs>
        </Polygon>
        <Polygon>
          <outerBoundaryIs>
            <LinearRing>
              <tessellate>1</tessellate>
              <coordinates>
              37.17676,48.40514,0.0 
37.176668,48.404691,0.0 
37.176599,48.404325,0.0 
37.176543,48.40402,0.0 
37.17649,48.403753,0.0 
37.176432,48.403501,0.0 
37.176359,48.40324,0.0 
37.17626,48.402949,0.0 
37.176127,48.402603,0.0 
37.17595,48.40218,0.0 
37.174443,48.398446,0.0 
37.173304,48.395216,0.0 
37.172409,48.392389,0.0 
37.171632,48.389863,0.0 
37.170849,48.387537,0.0 
37.169934,48.385309,0.0 
37.168762,48.38308,0.0 
37.167209,48.380747,0.0 
37.16515,48.37821,0.0 
37.169128,48.380421,0.0 
37.172737,48.38249,0.0 
37.175993,48.384484,0.0 
37.178912,48.386468,0.0 
37.181509,48.388509,0.0 
37.1838,48.390673,0.0 
37.1858,48.393025,0.0 
37.187525,48.395632,0.0 
37.18899,48.39856,0.0 
37.189216,48.399753,0.0 
37.188782,48.400632,0.0 
37.187801,48.401283,0.0 
37.186386,48.40179,0.0 
37.18465,48.402239,0.0 
37.182706,48.402713,0.0 
37.180668,48.403298,0.0 
37.178648,48.404079,0.0 
37.17676,48.40514,0.0 
</coordinates>
            </LinearRing>
          </outerBoundaryIs>
        </Polygon>
        <Polygon>
          <outerBoundaryIs>
            <LinearRing>
              <tessellate>1</tessellate>
              <coordinates>
              37.80937,48.8552,0.0 
37.808638,48.852243,0.0 
37.808446,48.849595,0.0 
37.808755,48.847183,0.0 
37.809525,48.844935,0.0 
37.810716,48.842779,0.0 
37.812289,48.840643,0.0 
37.814204,48.838454,0.0 
37.81642,48.836141,0.0 
37.8189,48.83363,0.0 
37.821866,48.831108,0.0 
37.824976,48.82924,0.0 
37.828128,48.827878,0.0 
37.831217,48.826873,0.0 
37.834141,48.826077,0.0 
37.836796,48.825341,0.0 
37.839078,48.824517,0.0 
37.840884,48.823456,0.0 
37.84211,48.82201,0.0 
37.847637,48.822218,0.0 
37.852567,48.821981,0.0 
37.856989,48.821463,0.0 
37.860988,48.82083,0.0 
37.864653,48.820246,0.0 
37.868069,48.819877,0.0 
37.871324,48.819888,0.0 
37.874506,48.820444,0.0 
37.8777,48.82171,0.0 
37.878648,48.822595,0.0 
37.878621,48.823681,0.0 
37.877849,48.824966,0.0 
37.876566,48.826448,0.0 
37.875001,48.828126,0.0 
37.873388,48.829999,0.0 
37.871956,48.832066,0.0 
37.870938,48.834325,0.0 
37.870566,48.836776,0.0 
37.871075,48.839748,0.0 
37.872345,48.842555,0.0 
37.874083,48.845169,0.0 
37.875998,48.847562,0.0 
37.877801,48.849707,0.0 
37.879199,48.851577,0.0 
37.879902,48.853144,0.0 
37.87962,48.854381,0.0 
37.87806,48.85526,0.0 
37.869932,48.856859,0.0 
37.861483,48.857153,0.0 
37.852904,48.85653,0.0 
37.844386,48.855377,0.0 
37.836119,48.85408,0.0 
37.828293,48.853027,0.0 
37.821099,48.852605,0.0 
37.814728,48.8532,0.0 
37.80937,48.8552,0.0 
</coordinates>
            </LinearRing>
          </outerBoundaryIs>
        </Polygon>
        <Polygon>
          <outerBoundaryIs>
            <LinearRing>
              <tessellate>1</tessellate>
              <coordinates>
              37.69064,49.64623,0.0 
37.689557,49.644016,0.0 
37.68782,49.641862,0.0 
37.685632,49.639784,0.0 
37.683195,49.637796,0.0 
37.680711,49.635915,0.0 
37.678382,49.634154,0.0 
37.676411,49.632529,0.0 
37.675,49.631056,0.0 
37.67435,49.62975,0.0 
37.674571,49.629332,0.0 
37.675416,49.629539,0.0 
37.676762,49.630201,0.0 
37.678491,49.631147,0.0 
37.68043137178339,49.632182514991946,0.0 
37.680828,49.633213,0.0 
37.681869,49.634651,0.0 
37.683269,49.636146,0.0 
37.684875,49.637699,0.0 
37.686534,49.639305,0.0 
37.688093,49.640963,0.0 
37.689399,49.642672,0.0 
37.690299,49.644428,0.0 
37.69064,49.64623,0.0 
</coordinates>
            </LinearRing>
          </outerBoundaryIs>
        </Polygon>
        <Polygon>
          <outerBoundaryIs>
            <LinearRing>
              <tessellate>1</tessellate>
              <coordinates>
              36.177139,50.401744,0.0 
36.177239,50.400209,0.0 
36.17709,50.39886,0.0 
36.176808,50.397665,0.0 
36.176507,50.396591,0.0 
36.1763,50.395607,0.0 
36.176303,50.394678,0.0 
36.176629,50.393775,0.0 
36.177394,50.392863,0.0 
36.17871,50.39191,0.0 
36.181556,50.39042,0.0 
36.184237,50.389425,0.0 
36.186829,50.388792,0.0 
36.189404,50.388388,0.0 
36.192038,50.388079,0.0 
36.194804,50.387735,0.0 
36.197776,50.38722,0.0 
36.201029,50.386403,0.0 
36.204636,50.385151,0.0 
36.202539,50.386242,0.0 
36.2007,50.387026,0.0 
36.199045,50.387593,0.0 
36.197504,50.388031,0.0 
36.196004,50.38843,0.0 
36.194474,50.388879,0.0 
36.192842,50.389469,0.0 
36.191036,50.390288,0.0 
36.188983,50.391426,0.0 
36.186889,50.392746,0.0 
36.185287,50.393874,0.0 
36.184051,50.394872,0.0 
36.183052,50.395806,0.0 
36.182162,50.396739,0.0 
36.181253,50.397735,0.0 
36.180199,50.398858,0.0 
36.17887,50.400174,0.0 
36.177139,50.401744,0.0 
</coordinates>
            </LinearRing>
          </outerBoundaryIs>
        </Polygon>
        <Polygon>
          <outerBoundaryIs>
            <LinearRing>
              <tessellate>1</tessellate>
              <coordinates>
              35.395564,50.685649,0.0 
35.39698,50.683622,0.0 
35.397798,50.681877,0.0 
35.398149,50.680318,0.0 
35.398161,50.67885,0.0 
35.397964,50.677375,0.0 
35.397687,50.675799,0.0 
35.39746,50.674025,0.0 
35.397411,50.671957,0.0 
35.39767,50.6695,0.0 
35.398016,50.667528,0.0 
35.398319,50.665938,0.0 
35.398593,50.66462,0.0 
35.398856,50.663466,0.0 
35.399122,50.662368,0.0 
35.399407,50.661215,0.0 
35.399728,50.659901,0.0 
35.400101,50.658315,0.0 
35.40054,50.65635,0.0 
35.401346,50.657616,0.0 
35.402168,50.658635,0.0 
35.402969,50.659478,0.0 
35.403713,50.660217,0.0 
35.404361,50.660922,0.0 
35.404876,50.661664,0.0 
35.40522,50.662515,0.0 
35.405358,50.663545,0.0 
35.40525,50.664826,0.0 
35.404727,50.667976,0.0 
35.404273,50.670607,0.0 
35.403798,50.672851,0.0 
35.403213,50.674843,0.0 
35.402432,50.676714,0.0 
35.401365,50.678597,0.0 
35.399923,50.680625,0.0 
35.398019,50.682932,0.0 
35.395564,50.685649,0.0 
</coordinates>
            </LinearRing>
          </outerBoundaryIs>
        </Polygon>
        <Polygon>
          <outerBoundaryIs>
            <LinearRing>
              <tessellate>1</tessellate>
              <coordinates>
               35.386414,50.800029,0.0 
35.387655,50.799643,0.0 
35.38866,50.799286,0.0 
35.389474,50.798936,0.0 
35.390144,50.798569,0.0 
35.390717,50.798162,0.0 
35.391239,50.797692,0.0 
35.391758,50.797136,0.0 
35.392319,50.796469,0.0 
35.39297,50.79567,0.0 
35.394114,50.794119,0.0 
35.394868,50.792806,0.0 
35.395348,50.791662,0.0 
35.39567,50.790623,0.0 
35.395949,50.78962,0.0 
35.3963,50.788587,0.0 
35.396838,50.787457,0.0 
35.39768,50.786164,0.0 
35.39894,50.78464,0.0 
35.398264,50.786051,0.0 
35.398126,50.787303,0.0 
35.398367,50.788435,0.0 
35.398833,50.789489,0.0 
35.399366,50.790505,0.0 
35.399811,50.791523,0.0 
35.400011,50.792582,0.0 
35.399809,50.793725,0.0 
35.39905,50.79499,0.0 
35.398053,50.796073,0.0 
35.397035,50.796906,0.0 
35.395959,50.79754,0.0 
35.394794,50.798027,0.0 
35.393504,50.798417,0.0 
35.392055,50.798761,0.0 
35.390413,50.79911,0.0 
35.388544,50.799516,0.0 
35.386414,50.800029,0.0 
              </coordinates>
            </LinearRing>
          </outerBoundaryIs>
        </Polygon>
</MultiGeometry>
    </Placemark>
    
    <Placemark>
      <name>продвижения ВСУ за 14 - 17 сентября</name>
      <description>ВСУ</description>
      <styleUrl>#poly-FFFFFF-180-77-nodesc</styleUrl>
      <MultiGeometry>
        <Polygon>
          <outerBoundaryIs>
            <LinearRing>
              <tessellate>1</tessellate>
              <coordinates>
              36.31716134810053,47.834589197319204,0.0 
36.307573,47.840147,0.0 
36.294226,47.846783,0.0 
36.281479,47.852235,0.0 
36.269171,47.856863,0.0 
36.257142,47.861022,0.0 
36.245232,47.865073,0.0 
36.23328,47.869372,0.0 
36.221126,47.874277,0.0 
36.208609,47.880146,0.0 
36.217104,47.873049,0.0 
36.225157,47.866207,0.0 
36.233084,47.859614,0.0 
36.241199,47.853267,0.0 
36.249818,47.847162,0.0 
36.259257,47.841294,0.0 
36.26983,47.835658,0.0 
36.281853,47.830252,0.0 
36.295642,47.82507,0.0 
36.300256,47.824218,0.0 
36.304285,47.82482,0.0 
36.30786,47.826516,0.0 
36.311107,47.828946,0.0 
36.314158,47.831751,0.0 
36.317139,47.834571,0.0 
36.31716134810053,47.834589197319204,0.0 
</coordinates>
            </LinearRing>
          </outerBoundaryIs>
        </Polygon>
        <Polygon>
          <outerBoundaryIs>
            <LinearRing>
              <tessellate>1</tessellate>
              <coordinates>
              37.687117,49.086365,0.0 
37.689012,49.084718,0.0 
37.690055,49.082571,0.0 
37.690321,49.080101,0.0 
37.689884,49.077486,0.0 
37.68882,49.074902,0.0 
37.687204,49.072526,0.0 
37.68511,49.070536,0.0 
37.682614,49.069108,0.0 
37.67979,49.06842,0.0 
37.661136,49.067517,0.0 
37.644062,49.067956,0.0 
37.628372,49.069331,0.0 
37.613869,49.071238,0.0 
37.600357,49.07327,0.0 
37.587639,49.075023,0.0 
37.575518,49.076092,0.0 
37.563799,49.076071,0.0 
37.552283,49.074555,0.0 
37.549989,49.073505,0.0 
37.550545,49.071991,0.0 
37.553395,49.070023,0.0 
37.557982,49.067608,0.0 
37.563749,49.064755,0.0 
37.570139,49.061473,0.0 
37.576597,49.057769,0.0 
37.582566,49.053653,0.0 
37.587488,49.049133,0.0 
37.588068,49.047926,0.0 
37.58792,49.046615,0.0 
37.587247,49.045258,0.0 
37.586254,49.043914,0.0 
37.585146,49.04264,0.0 
37.584126,49.041497,0.0 
37.583399,49.040541,0.0 
37.583169,49.039833,0.0 
37.58364,49.03943,0.0 
37.585364,49.039207,0.0 
37.587083,49.039387,0.0 
37.588849,49.039888,0.0 
37.590713,49.040628,0.0 
37.592726,49.041525,0.0 
37.594938,49.042496,0.0 
37.597402,49.043461,0.0 
37.600167,49.044337,0.0 
37.603285,49.045042,0.0 
37.604564,49.045231,0.0 
37.605604,49.045304,0.0 
37.606476,49.045285,0.0 
37.607247,49.045197,0.0 
37.607989,49.045061,0.0 
37.608769,49.044902,0.0 
37.609658,49.044742,0.0 
37.610724,49.044603,0.0 
37.612037,49.044509,0.0 
37.613706,49.044497,0.0 
37.615113,49.04459,0.0 
37.616322,49.04474,0.0 
37.617397,49.044899,0.0 
37.6184,49.045021,0.0 
37.619395,49.045057,0.0 
37.620445,49.04496,0.0 
37.621615,49.044683,0.0 
37.622966,49.044179,0.0 
37.623672,49.043725,0.0 
37.624099,49.043141,0.0 
37.624328,49.042465,0.0 
37.624438,49.041731,0.0 
37.624512,49.040975,0.0 
37.62463,49.040231,0.0 
37.624872,49.039537,0.0 
37.62532,49.038926,0.0 
37.626054,49.038435,0.0 
37.628002,49.037626,0.0 
37.629666,49.037116,0.0 
37.631139,49.036833,0.0 
37.632512,49.036703,0.0 
37.633878,49.036651,0.0 
37.635329,49.036605,0.0 
37.636957,49.036489,0.0 
37.638856,49.036232,0.0 
37.641117,49.035758,0.0 
37.644489,49.034993,0.0 
37.647528,49.034395,0.0 
37.650266,49.033902,0.0 
37.652736,49.03345,0.0 
37.65497,49.032974,0.0 
37.657,49.032413,0.0 
37.658857,49.031701,0.0 
37.660575,49.030776,0.0 
37.662185,49.029574,0.0 
37.662531,49.029034,0.0 
37.662305,49.028557,0.0 
37.661624,49.028108,0.0 
37.660605,49.027654,0.0 
37.659365,49.027159,0.0 
37.658022,49.02659,0.0 
37.656693,49.025912,0.0 
37.655496,49.025089,0.0 
37.654546,49.024089,0.0 
37.654255,49.023599,0.0 
37.654062,49.023093,0.0 
37.653969,49.022582,0.0 
37.653972,49.022079,0.0 
37.654073,49.021596,0.0 
37.654268,49.021144,0.0 
37.654558,49.020737,0.0 
37.654942,49.020385,0.0 
37.655419,49.020101,0.0 
37.656635,49.019638,0.0 
37.657739,49.019414,0.0 
37.658766,49.019363,0.0 
37.659755,49.019419,0.0 
37.660741,49.019516,0.0 
37.66176,49.019587,0.0 
37.662851,49.019566,0.0 
37.664048,49.019389,0.0 
37.665389,49.018987,0.0 
37.665828,49.018682,0.0 
37.66611,49.01821,0.0 
37.666277,49.017636,0.0 
37.666368,49.017025,0.0 
37.666427,49.016442,0.0 
37.666494,49.015952,0.0 
37.666611,49.01562,0.0 
37.666819,49.015511,0.0 
37.66716,49.01569,0.0 
37.670432,49.018546,0.0 
37.673029,49.021138,0.0 
37.675161,49.023552,0.0 
37.677039,49.025876,0.0 
37.678874,49.028195,0.0 
37.680876,49.030596,0.0 
37.683256,49.033166,0.0 
37.686225,49.035991,0.0 
37.689992,49.039157,0.0 
37.693779,49.042303,0.0 
37.69698,49.045158,0.0 
37.699767,49.047705,0.0 
37.702311,49.049927,0.0 
37.704784,49.051809,0.0 
37.707359,49.053334,0.0 
37.710206,49.054486,0.0 
37.713499,49.055248,0.0 
37.717409,49.055605,0.0 
37.716211,49.057956,0.0 
37.715597,49.060105,0.0 
37.715389,49.062096,0.0 
37.715405,49.063969,0.0 
37.715467,49.065768,0.0 
37.715394,49.067535,0.0 
37.715007,49.069311,0.0 
37.714126,49.071138,0.0 
37.71257,49.07306,0.0 
37.709693,49.075837,0.0 
37.70716,49.077971,0.0 
37.704829,49.079598,0.0 
37.702557,49.080855,0.0 
37.700203,49.081879,0.0 
37.697624,49.082805,0.0 
37.694678,49.083771,0.0 
37.691223,49.084912,0.0 
37.687117,49.086365,0.0 
</coordinates>
            </LinearRing>
          </outerBoundaryIs>
        </Polygon>
        <Polygon>
          <outerBoundaryIs>
            <LinearRing>
              <tessellate>1</tessellate>
              <coordinates>
              37.82953,49.05195,0.0 
37.838943,49.056119,0.0 
37.848414,49.060243,0.0 
37.857558,49.064231,0.0 
37.865987,49.067994,0.0 
37.873316,49.071442,0.0 
37.879156,49.074485,0.0 
37.883124,49.077034,0.0 
37.88483,49.078999,0.0 
37.88389,49.08029,0.0 
37.879378,49.081343,0.0 
37.873082,49.081748,0.0 
37.865177,49.081495,0.0 
37.855839,49.080578,0.0 
37.845244,49.078988,0.0 
37.833568,49.076717,0.0 
37.820986,49.073759,0.0 
37.807675,49.070105,0.0 
37.793809,49.065748,0.0 
37.799162,49.066366,0.0 
37.804158,49.066063,0.0 
37.808801,49.065004,0.0 
37.813095,49.063352,0.0 
37.817048,49.061272,0.0 
37.820662,49.058928,0.0 
37.823944,49.056483,0.0 
37.826898,49.054103,0.0 
37.82953,49.05195,0.0 
</coordinates>
            </LinearRing>
          </outerBoundaryIs>
        </Polygon>
        <Polygon>
          <outerBoundaryIs>
            <LinearRing>
              <tessellate>1</tessellate>
              <coordinates>
              37.725565,49.13574,0.0 
37.717842,49.133572,0.0 
37.710906,49.132197,0.0 
37.704435,49.131416,0.0 
37.698105,49.131033,0.0 
37.691594,49.130848,0.0 
37.684579,49.130664,0.0 
37.676737,49.130284,0.0 
37.667745,49.129508,0.0 
37.65728,49.12814,0.0 
37.646926,49.126759,0.0 
37.63656,49.125662,0.0 
37.62657,49.124731,0.0 
37.617348,49.123848,0.0 
37.609284,49.122892,0.0 
37.602767,49.121746,0.0 
37.59819,49.120291,0.0 
37.595941,49.118407,0.0 
37.596411,49.115976,0.0 
37.599859,49.118656,0.0 
37.606356,49.120143,0.0 
37.615545,49.120757,0.0 
37.62707,49.12082,0.0 
37.640574,49.120652,0.0 
37.655699,49.120575,0.0 
37.67209,49.12091,0.0 
37.689389,49.121978,0.0 
37.70724,49.1241,0.0 
37.710552,49.124695,0.0 
37.713473,49.125419,0.0 
37.716033,49.126289,0.0 
37.718264,49.127328,0.0 
37.720196,49.128554,0.0 
37.721862,49.129989,0.0 
37.723291,49.131651,0.0 
37.724515,49.133561,0.0 
37.725565,49.13574,0.0 
</coordinates>
            </LinearRing>
          </outerBoundaryIs>
        </Polygon>
        <Polygon>
          <outerBoundaryIs>
            <LinearRing>
              <tessellate>1</tessellate>
              <coordinates>
              37.606990126264165,49.82735620414327,0.0 
37.608588,49.827136,0.0 
37.611044,49.826662,0.0 
37.613741,49.826038,0.0 
37.616755,49.825275,0.0 
37.620163,49.824382,0.0 
37.621593,49.823842,0.0 
37.622695,49.823122,0.0 
37.623559,49.822287,0.0 
37.624274,49.821406,0.0 
37.624929,49.820546,0.0 
37.625615,49.819773,0.0 
37.626421,49.819154,0.0 
37.627436,49.818758,0.0 
37.62875,49.81865,0.0 
37.630707,49.818796,0.0 
37.632378,49.819071,0.0 
37.633832,49.819483,0.0 
37.635138,49.820039,0.0 
37.636364,49.820746,0.0 
37.637581,49.821612,0.0 
37.638857,49.822645,0.0 
37.64026,49.823852,0.0 
37.64186,49.82524,0.0 
37.635577,49.82485,0.0 
37.630105,49.824905,0.0 
37.625239,49.825277,0.0 
37.620772,49.825837,0.0 
37.616498,49.826455,0.0 
37.612212,49.827003,0.0 
37.607708,49.827353,0.0 
37.606990126264165,49.82735620414327,0.0 
              </coordinates>
            </LinearRing>
          </outerBoundaryIs>
        </Polygon>
</MultiGeometry>
    </Placemark>
    
  </Document>
</kml>
