<?xml version="1.0" encoding="UTF-8"?>
<kml xmlns="http://www.opengis.net/kml/2.2">
  <Document>
    <name>Слой без названия</name>
    <Style id="poly-FFFFFF-180-77-nodesc-normal">
      <LineStyle>
        <color>ffffffff</color>
        <width>0.18</width>
      </LineStyle>
      <PolyStyle>
        <color>4dffffff</color>
        <fill>1</fill>
        <outline>1</outline>
      </PolyStyle>
      <BalloonStyle>
        <text><![CDATA[<h3>$[name]</h3>]]></text>
      </BalloonStyle>
    </Style>
    <Style id="poly-FFFFFF-180-77-nodesc-highlight">
      <LineStyle>
        <color>ffffffff</color>
        <width>0.27</width>
      </LineStyle>
      <PolyStyle>
        <color>4dffffff</color>
        <fill>1</fill>
        <outline>1</outline>
      </PolyStyle>
      <BalloonStyle>
        <text><![CDATA[<h3>$[name]</h3>]]></text>
      </BalloonStyle>
    </Style>
    <StyleMap id="poly-FFFFFF-180-77-nodesc">
      <Pair>
        <key>normal</key>
        <styleUrl>#poly-FFFFFF-180-77-nodesc-normal</styleUrl>
      </Pair>
      <Pair>
        <key>highlight</key>
        <styleUrl>#poly-FFFFFF-180-77-nodesc-highlight</styleUrl>
      </Pair>
    </StyleMap>
    
    <Placemark>
      <name>продвижения ВС РФ за 2 - 5 сентября</name>
      <description>ВС РФ</description>
      <styleUrl>#poly-FFFFFF-180-77-nodesc</styleUrl>
      <MultiGeometry>
        <Polygon>
          <outerBoundaryIs>
            <LinearRing>
              <tessellate>1</tessellate>
              <coordinates>
              35.79665,47.55708,0.0 
35.79774,47.557542,0.0 
35.799026,47.557896,0.0 
35.800506,47.558137,0.0 
35.802177,47.558259,0.0 
35.804035,47.558257,0.0 
35.806078,47.558123,0.0 
35.808304,47.557853,0.0 
35.810709,47.557441,0.0 
35.81329,47.55688,0.0 
35.818706,47.55555,0.0 
35.823081,47.55439,0.0 
35.82532775333721,47.55372849729282,0.0 
35.822417,47.554779,0.0 
35.818077,47.556203,0.0 
35.813184,47.557642,0.0 
35.807366,47.55919,0.0 
35.80025,47.56094,0.0 
35.799461,47.561014,0.0 
35.79873,47.560875,0.0 
35.798074,47.56056,0.0 
35.797509,47.560106,0.0 
35.797053,47.559552,0.0 
35.796722,47.558934,0.0 
35.796533,47.558291,0.0 
35.796504,47.557661,0.0 
35.79665,47.55708,0.0 
</coordinates>
            </LinearRing>
          </outerBoundaryIs>
        </Polygon>
        <Polygon>
          <outerBoundaryIs>
            <LinearRing>
              <tessellate>1</tessellate>
              <coordinates>
              37.09314036883501,48.4212281723055,0.0 
37.092704,48.421208,0.0 
37.088683,48.421145,0.0 
37.085127,48.421144,0.0 
37.081936,48.42112,0.0 
37.079013,48.420986,0.0 
37.076256,48.420659,0.0 
37.073568,48.42005,0.0 
37.070849,48.419076,0.0 
37.068,48.41765,0.0 
37.06714,48.41691,0.0 
37.066768,48.415996,0.0 
37.066825,48.41494,0.0 
37.067252,48.413775,0.0 
37.06799,48.412536,0.0 
37.068979,48.411254,0.0 
37.070159,48.409964,0.0 
37.071473,48.408698,0.0 
37.07286,48.40749,0.0 
37.077504,48.404115,0.0 
37.082016,48.40162,0.0 
37.086332,48.399748,0.0 
37.090389,48.398243,0.0 
37.094123,48.396848,0.0 
37.097471,48.395307,0.0 
37.100368,48.393363,0.0 
37.102753,48.39076,0.0 
37.10456,48.38724,0.0 
37.106038,48.390287,0.0 
37.107349,48.392943,0.0 
37.108457,48.39531,0.0 
37.109329,48.397489,0.0 
37.10993,48.399581,0.0 
37.110225,48.401686,0.0 
37.11018,48.403907,0.0 
37.109759,48.406345,0.0 
37.10893,48.4091,0.0 
37.107524,48.411531,0.0 
37.105376,48.41354,0.0 
37.102761,48.415188,0.0 
37.099954,48.416536,0.0 
37.097228,48.417644,0.0 
37.094857,48.418574,0.0 
37.093116,48.419386,0.0 
37.092279,48.420141,0.0 
37.09262,48.4209,0.0 
37.09314036883501,48.4212281723055,0.0 
</coordinates>
            </LinearRing>
          </outerBoundaryIs>
        </Polygon>
        <Polygon>
          <outerBoundaryIs>
            <LinearRing>
              <tessellate>1</tessellate>
              <coordinates>
              37.71866,48.58332,0.0 
37.710312,48.584931,0.0 
37.702903,48.586604,0.0 
37.696269,48.588186,0.0 
37.690244,48.589524,0.0 
37.684664,48.590464,0.0 
37.679364,48.590853,0.0 
37.674178,48.590538,0.0 
37.668942,48.589364,0.0 
37.66349,48.58718,0.0 
37.661481,48.585167,0.0 
37.661098,48.582209,0.0 
37.661903,48.578581,0.0 
37.663458,48.574559,0.0 
37.665326,48.570419,0.0 
37.667068,48.566436,0.0 
37.668248,48.562884,0.0 
37.668428,48.560041,0.0 
37.66717,48.55818,0.0 
37.670138,48.556382,0.0 
37.672409,48.554647,0.0 
37.674182,48.55297,0.0 
37.67566,48.551351,0.0 
37.677042,48.549785,0.0 
37.678532,48.548271,0.0 
37.680329,48.546805,0.0 
37.682634,48.545386,0.0 
37.68565,48.54401,0.0 
37.688184,48.543137,0.0 
37.690309,48.542657,0.0 
37.692152,48.542488,0.0 
37.693841,48.54255,0.0 
37.695506,48.542761,0.0 
37.697275,48.54304,0.0 
37.699277,48.543305,0.0 
37.701639,48.543476,0.0 
37.70449,48.54347,0.0 
37.707513,48.543216,0.0 
37.710385,48.542762,0.0 
37.713067,48.54221,0.0 
37.71552,48.541661,0.0 
37.717706,48.54122,0.0 
37.719586,48.540987,0.0 
37.72112,48.541066,0.0 
37.722269,48.54156,0.0 
37.722996,48.54257,0.0 
37.723077,48.544055,0.0 
37.722301,48.545533,0.0 
37.720884,48.547059,0.0 
37.719042,48.548689,0.0 
37.716989,48.550477,0.0 
37.714942,48.55248,0.0 
37.713116,48.554753,0.0 
37.711727,48.557351,0.0 
37.71099,48.56033,0.0 
37.710757,48.563797,0.0 
37.710817,48.567001,0.0 
37.711161,48.569956,0.0 
37.71178,48.572678,0.0 
37.712665,48.575181,0.0 
37.713804,48.577482,0.0 
37.71519,48.579596,0.0 
37.716811,48.581537,0.0 
37.71866,48.58332,0.0 
</coordinates>
            </LinearRing>
          </outerBoundaryIs>
        </Polygon>
        <Polygon>
          <outerBoundaryIs>
            <LinearRing>
              <tessellate>1</tessellate>
              <coordinates>
              37.804697,48.597248,0.0 
37.804807,48.596403,0.0 
37.803971,48.595645,0.0 
37.802453,48.594953,0.0 
37.800519,48.594309,0.0 
37.798432,48.593691,0.0 
37.796457,48.59308,0.0 
37.794859,48.592454,0.0 
37.793901,48.591794,0.0 
37.79385,48.59108,0.0 
37.794757,48.590045,0.0 
37.795982,48.589196,0.0 
37.797507,48.588502,0.0 
37.799317,48.587933,0.0 
37.801397,48.58746,0.0 
37.80373,48.587054,0.0 
37.806302,48.586684,0.0 
37.809097,48.586322,0.0 
37.812098,48.585936,0.0 
37.810621,48.586434,0.0 
37.809439,48.586997,0.0 
37.808491,48.587637,0.0 
37.807715,48.588366,0.0 
37.807048,48.589196,0.0 
37.806429,48.590139,0.0 
37.805796,48.591206,0.0 
37.805087,48.592411,0.0 
37.80424,48.593764,0.0 
37.804067,48.594215,0.0 
37.804098,48.594657,0.0 
37.80427,48.595088,0.0 
37.80452,48.595504,0.0 
37.804783,48.595902,0.0 
37.804996,48.596279,0.0 
37.805095,48.596631,0.0 
37.805017,48.596955,0.0 
37.804697,48.597248,0.0 
</coordinates>
            </LinearRing>
          </outerBoundaryIs>
        </Polygon>
        <Polygon>
          <outerBoundaryIs>
            <LinearRing>
              <tessellate>1</tessellate>
              <coordinates>
              37.89252386739574,48.92288623478147,0.0 
37.890888,48.922852,0.0 
37.887448,48.923386,0.0 
37.882781,48.924269,0.0 
37.87733,48.92528,0.0 
37.871539,48.926196,0.0 
37.865851,48.926796,0.0 
37.86071,48.926858,0.0 
37.85656,48.92616,0.0 
37.85555,48.925521,0.0 
37.855156,48.924537,0.0 
37.855301,48.923281,0.0 
37.855908,48.921826,0.0 
37.856901,48.920247,0.0 
37.858204,48.918617,0.0 
37.859741,48.91701,0.0 
37.861435,48.9155,0.0 
37.86321,48.91416,0.0 
37.864574,48.915691,0.0 
37.867781,48.91686,0.0 
37.872243,48.917771,0.0 
37.877369,48.91853,0.0 
37.882569,48.919241,0.0 
37.887253,48.920011,0.0 
37.890831,48.920944,0.0 
37.892714,48.922145,0.0 
37.89252386739574,48.92288623478147,0.0 
</coordinates>
            </LinearRing>
          </outerBoundaryIs>
        </Polygon>
        <Polygon>
          <outerBoundaryIs>
            <LinearRing>
              <tessellate>1</tessellate>
              <coordinates>
              37.61042965041272,49.71024136330718,0.0 
37.60934,49.71012,0.0 
37.608576,49.710339,0.0 
37.608094,49.710834,0.0 
37.60782,49.711562,0.0 
37.607674,49.712479,0.0 
37.607581,49.71354,0.0 
37.607465,49.714702,0.0 
37.607247,49.71592,0.0 
37.606852,49.717151,0.0 
37.606203,49.71835,0.0 
37.606514,49.717379,0.0 
37.606679,49.716534,0.0 
37.606714,49.715774,0.0 
37.606636,49.715059,0.0 
37.606459,49.714347,0.0 
37.606201,49.713597,0.0 
37.605877,49.712769,0.0 
37.605504,49.711821,0.0 
37.605096,49.710713,0.0 
37.604219,49.708545,0.0 
37.603158,49.7064,0.0 
37.602017,49.704352,0.0 
37.600897,49.702474,0.0 
37.599899,49.70084,0.0 
37.599126,49.699522,0.0 
37.598681,49.698594,0.0 
37.598664,49.69813,0.0 
37.599178,49.698203,0.0 
37.600828,49.699267,0.0 
37.602498,49.700887,0.0 
37.60425,49.702938,0.0 
37.606145,49.705297,0.0 
37.608245,49.70784,0.0 
37.61042965041272,49.71024136330718,0.0 
</coordinates>
            </LinearRing>
          </outerBoundaryIs>
        </Polygon>
        <Polygon>
          <outerBoundaryIs>
            <LinearRing>
              <tessellate>1</tessellate>
              <coordinates>
              37.735097,50.050152,0.0 
37.733441,50.051805,0.0 
37.732264,50.05324,0.0 
37.731434,50.054514,0.0 
37.730815,50.055684,0.0 
37.730274,50.056806,0.0 
37.729676,50.057938,0.0 
37.728887,50.059136,0.0 
37.727773,50.060458,0.0 
37.7262,50.06196,0.0 
37.725754,50.062238,0.0 
37.725285,50.062345,0.0 
37.724795,50.062324,0.0 
37.724283,50.062223,0.0 
37.72375,50.062086,0.0 
37.723194,50.06196,0.0 
37.722618,50.061889,0.0 
37.722021,50.06192,0.0 
37.721402,50.062098,0.0 
37.719905,50.062674,0.0 
37.718407,50.063177,0.0 
37.716975,50.063637,0.0 
37.715678,50.064087,0.0 
37.71485316027754,50.06444254735069,0.0 
37.715304,50.0642,0.0 
37.716211,50.063718,0.0 
37.717157,50.063162,0.0 
37.71809,50.0625,0.0 
37.720518,50.0606,0.0 
37.722531,50.059092,0.0 
37.724249,50.057865,0.0 
37.725792,50.056807,0.0 
37.727281,50.055807,0.0 
37.728836,50.054753,0.0 
37.730576,50.053533,0.0 
37.732624,50.052037,0.0 
37.735097,50.050152,0.0 
</coordinates>
            </LinearRing>
          </outerBoundaryIs>
        </Polygon>
        <Polygon>
          <outerBoundaryIs>
            <LinearRing>
              <tessellate>1</tessellate>
              <coordinates>
              36.24966,50.29129,0.0 
36.252632,50.292968,0.0 
36.255687,50.294383,0.0 
36.258894,50.295618,0.0 
36.262328,50.296757,0.0 
36.266059,50.297884,0.0 
36.270159,50.299083,0.0 
36.274701,50.300439,0.0 
36.279756,50.302034,0.0 
36.285397,50.303954,0.0 
36.285034,50.305409,0.0 
36.284352,50.306596,0.0 
36.28205,50.309614,0.0 
36.280636,50.311439,0.0 
36.279788,50.312144,0.0 
36.278934,50.312663,0.0 
36.276612,50.315937,0.0 
36.276243,50.317087,0.0 
36.276019,50.316143,0.0 
36.275894,50.315368,0.0 
36.27583,50.314716,0.0 
36.275788,50.314142,0.0 
36.275727,50.313599,0.0 
36.275609,50.313041,0.0 
36.275395,50.312423,0.0 
36.275045,50.311698,0.0 
36.27452,50.31082,0.0 
36.273328,50.308928,0.0 
36.272379,50.307371,0.0 
36.271576,50.306063,0.0 
36.270823,50.304921,0.0 
36.270023,50.30386,0.0 
36.269079,50.302797,0.0 
36.267894,50.301647,0.0 
36.266372,50.300326,0.0 
36.264417,50.298749,0.0 
36.262401,50.297381,0.0 
36.260288,50.296283,0.0 
36.258159,50.295398,0.0 
36.256096,50.294667,0.0 
36.254181,50.294032,0.0 
36.252498,50.293435,0.0 
36.251129,50.292818,0.0 
36.250155,50.292122,0.0 
36.24966,50.29129,0.0 
</coordinates>
            </LinearRing>
          </outerBoundaryIs>
        </Polygon>
        <Polygon>
          <outerBoundaryIs>
            <LinearRing>
              <tessellate>1</tessellate>
              <coordinates>
              36.22828,50.32896,0.0 
36.224383,50.329359,0.0 
36.22117,50.330073,0.0 
36.21847,50.330985,0.0 
36.216109,50.331983,0.0 
36.213914,50.332949,0.0 
36.211711,50.333771,0.0 
36.209329,50.334332,0.0 
36.206594,50.334518,0.0 
36.203333,50.334214,0.0 
36.199819,50.333157,0.0 
36.196556,50.331361,0.0 
36.193596,50.32911,0.0 
36.19099,50.326687,0.0 
36.188789,50.324373,0.0 
36.187045,50.322452,0.0 
36.185808,50.321207,0.0 
36.18513,50.320919,0.0 
36.185062,50.321873,0.0 
36.18634,50.32754,0.0 
36.188304,50.332947,0.0 
36.190821,50.338283,0.0 
36.193762,50.343737,0.0 
36.196996,50.349497,0.0 
36.20039,50.355753,0.0 
36.203816,50.362694,0.0 
36.20714,50.370507,0.0 
36.210234,50.379383,0.0 
36.20671,50.374466,0.0 
36.203514,50.370499,0.0 
36.200502,50.36721,0.0 
36.197532,50.364327,0.0 
36.194461,50.361578,0.0 
36.191147,50.358691,0.0 
36.187447,50.355396,0.0 
36.183218,50.351419,0.0 
36.17832,50.34649,0.0 
36.177032,50.345203,0.0 
36.175923,50.34418,0.0 
36.174958,50.343342,0.0 
36.174101,50.34261,0.0 
36.173316,50.341903,0.0 
36.172568,50.341141,0.0 
36.171822,50.340245,0.0 
36.171041,50.339134,0.0 
36.17019,50.33773,0.0 
36.168731,50.335403,0.0 
36.167249,50.333359,0.0 
36.165843,50.33154,0.0 
36.16461,50.329888,0.0 
36.163647,50.328345,0.0 
36.163051,50.326851,0.0 
36.162919,50.32535,0.0 
36.16335,50.323782,0.0 
36.16444,50.32209,0.0 
36.165975,50.320502,0.0 
36.167754,50.319184,0.0 
36.169782,50.318127,0.0 
36.172063,50.317321,0.0 
36.174599,50.316757,0.0 
36.177395,50.316425,0.0 
36.180455,50.316314,0.0 
36.183782,50.316416,0.0 
36.18738,50.31672,0.0 
36.193527,50.317619,0.0 
36.198409,50.318785,0.0 
36.202397,50.320153,0.0 
36.205861,50.321658,0.0 
36.209171,50.323235,0.0 
36.212697,50.324819,0.0 
36.216811,50.326345,0.0 
36.221882,50.327747,0.0 
36.22828,50.32896,0.0 
</coordinates>
            </LinearRing>
          </outerBoundaryIs>
        </Polygon>
        <Polygon>
          <outerBoundaryIs>
            <LinearRing>
              <tessellate>1</tessellate>
              <coordinates>
              35.371287,50.708583,0.0 
35.371438,50.706334,0.0 
35.371607,50.704456,0.0 
35.37185,50.702858,0.0 
35.372225,50.701449,0.0 
35.372788,50.700139,0.0 
35.373595,50.698835,0.0 
35.374703,50.697448,0.0 
35.37617,50.695887,0.0 
35.37805,50.69406,0.0 
35.380008,50.692512,0.0 
35.381994,50.69144,0.0 
35.383995,50.690707,0.0 
35.385997,50.690172,0.0 
35.387987,50.689699,0.0 
35.389952,50.689149,0.0 
35.391552515953705,50.68851278037336,0.0 
35.388839,50.691962,0.0 
35.386521,50.694582,0.0 
35.384207,50.696608,0.0 
35.381935,50.698212,0.0 
35.379742,50.699566,0.0 
35.377667,50.700841,0.0 
35.375746,50.702209,0.0 
35.374018,50.703841,0.0 
35.372519,50.705908,0.0 
35.371287,50.708583,0.0 
              </coordinates>
            </LinearRing>
          </outerBoundaryIs>
        </Polygon>
</MultiGeometry>
    </Placemark>
    
    <Placemark>
      <name>продвижения ВСУ за 2 - 5 сентября</name>
      <description>ВСУ</description>
      <styleUrl>#poly-FFFFFF-180-77-nodesc</styleUrl>
      <MultiGeometry>
        <Polygon>
          <outerBoundaryIs>
            <LinearRing>
              <tessellate>1</tessellate>
              <coordinates>
              37.656383,49.85398,0.0 
37.657603,49.851957,0.0 
37.657423,49.849799,0.0 
37.656038,49.847542,0.0 
37.653643,49.84522,0.0 
37.650432,49.842869,0.0 
37.6466,49.840524,0.0 
37.642343,49.838221,0.0 
37.637854,49.835994,0.0 
37.63333,49.83388,0.0 
37.628291,49.831884,0.0 
37.623844,49.830679,0.0 
37.619846,49.830058,0.0 
37.616152,49.829811,0.0 
37.61262,49.829732,0.0 
37.609104,49.829613,0.0 
37.605461,49.829247,0.0 
37.601548,49.828425,0.0 
37.59722,49.82694,0.0 
37.602779,49.827375,0.0 
37.607708,49.827353,0.0 
37.612212,49.827003,0.0 
37.616498,49.826455,0.0 
37.620772,49.825837,0.0 
37.625239,49.825277,0.0 
37.630105,49.824905,0.0 
37.635577,49.82485,0.0 
37.64186,49.82524,0.0 
37.642643,49.825433,0.0 
37.643094,49.825807,0.0 
37.643292,49.826337,0.0 
37.643318,49.827,0.0 
37.643249,49.82777,0.0 
37.643165,49.828624,0.0 
37.643145,49.829536,0.0 
37.643267,49.830483,0.0 
37.643612,49.83144,0.0 
37.645808,49.83506,0.0 
37.64836,49.838283,0.0 
37.651033,49.84116,0.0 
37.653591,49.84374,0.0 
37.655797,49.846075,0.0 
37.657416,49.848216,0.0 
37.65821,49.850213,0.0 
37.657945,49.852118,0.0 
37.656383,49.85398,0.0 
              </coordinates>
            </LinearRing>
          </outerBoundaryIs>
        </Polygon>
</MultiGeometry>
    </Placemark>
    
  </Document>
</kml>
